name,category,image,lat,lng,address,description,住所,紹介,gx_media_links,参加形態,出展日,営業時間,電話番号,Web,YouTube
うるしの里会館,越前漆器,images/icon-1.png,35.9530831,136.2740677,うるしの里会館,"<img src=""https://doc-04-00-mymaps.googleusercontent.com/untrusted/hostedimage/tjp71pbl755n1d9knaupn39qao/e51vgb4s4q74t0li7c57t37e7c/1696731300000/JZE0f6HJRobklDdF9DDVtADt9cDcsdY3/*/6AJ9UNGrC9Id1iFDl485e_WCoRQJkysebnSNWgRRrGIWdM8t0wZmvjoQPWJsMEnubnWW6En7TyIBTVEy9OPPqedPknYdKIwVAs3oPJHeWywbxBD9Y8_IbU8mfkuDUfOb2rHmXHXjTARHd3yHHVcBbTyC46JG4x1-aHkRNu4RTAcPJb3mn7rbl5FrA_T681J6A0wjeX3PnJTsottMYqGg5EI4GP3kgqFwOFdWrX7ZpYaPSrxAiKn8?fife"" height=""200"" width=""auto"" /><br><br>住所: 〒916-1221 福井県鯖江市西袋町40-1-2　うるしの里会館<br>参加形態: <br>紹介: 総合案内所<br><br>（飲食店あり）<br>【山うにの里 ほやっ停】<br>6-8日 10:00-17:00<br><br>【くめちゃん】<br>6-8日 10:00-17:00<br><br>【雲職人ニュアージュ】<br>7・8日10:00-17:00<br><br>【AmigoTacos】<br>7・8日 10:00-17:00<br><br>【大吉餅】<br>7・8日10:00-17:00<br><br>【ミート&デリカささき】<br>7・8日10:00-17:00<br><br>【Happy's Eat(ハピスイート)】<br>6-8日10:00-17:00<br>出展日: <br>営業時間: <br>電話番号: <br>Web: <br>YouTube: ",〒916-1221 福井県鯖江市西袋町40-1-2　うるしの里会館,"総合案内所

（飲食店あり）
【山うにの里 ほやっ停】
6-8日 10:00-17:00

【くめちゃん】
6-8日 10:00-17:00

【雲職人ニュアージュ】
7・8日10:00-17:00

【AmigoTacos】
7・8日 10:00-17:00

【大吉餅】
7・8日10:00-17:00

【ミート&デリカささき】
7・8日10:00-17:00

【Happy's Eat(ハピスイート)】
6-8日10:00-17:00",https://doc-04-00-mymaps.googleusercontent.com/untrusted/hostedimage/tjp71pbl755n1d9knaupn39qao/e51vgb4s4q74t0li7c57t37e7c/1696731300000/JZE0f6HJRobklDdF9DDVtADt9cDcsdY3/*/6AJ9UNGrC9Id1iFDl485e_WCoRQJkysebnSNWgRRrGIWdM8t0wZmvjoQPWJsMEnubnWW6En7TyIBTVEy9OPPqedPknYdKIwVAs3oPJHeWywbxBD9Y8_IbU8mfkuDUfOb2rHmXHXjTARHd3yHHVcBbTyC46JG4x1-aHkRNu4RTAcPJb3mn7rbl5FrA_T681J6A0wjeX3PnJTsottMYqGg5EI4GP3kgqFwOFdWrX7ZpYaPSrxAiKn8?fife,,,,,,
漆琳堂,越前漆器,images/icon-1.png,35.953483,136.274917,漆琳堂,"<img src=""https://doc-14-00-mymaps.googleusercontent.com/untrusted/hostedimage/tjp71pbl755n1d9knaupn39qao/3k8tsqk814jkedlni7iua3bb2g/1696731300000/JZE0f6HJRobklDdF9DDVtADt9cDcsdY3/*/6AJ9UNGrI269lK5lQnxqvqBXNsseEEDAIlOrrRnTdiZmRtOd38-ln7hARfvkSMIylTQM0BEkhCJrmn9sh3I69rMN7gE8vy68pi13H3vb7O88LJUP9Msxv9ZcQIuWaNB_MtfqPS5vmAqfKVT4Ew4nSKgHlcbNRn1XklAi-zki-eSJtpqhgDTKe0fdxCvnDLE_9EjHTgZ1Sjj-1mJFChkWdbr9Z3aj3JUWy3omExKTugVKlzR2Qx50?fife"" height=""200"" width=""auto"" /><br><br>住所: 〒916-1221 福井県鯖江市西袋町701<br>参加形態: 工房（見学・展示）, 販売, ワークショップ<br>紹介: 1793年創業。「aisomo cosomo」や「お椀や うちだ」、「RIN&CO.」の自社ブランドを立ち上げ、2016年に漆琳堂直営店をオープン。江戸時代から続く漆琳堂の仕事を実際にご覧いただけます。<br><br>(併設)<br>【とべーぐる砺波マチナカ店】<br>　7・8日 10:00-14:00<br><br>【SHIBA COFFEE】<br>　7・8日 10:00-15:00<br><br>【スパイシーカレーゆうゆう】<br>　7・8日 10:00-16:00<br><br>【Gaia kitchen】<br>　7・8日 11:00-15:00<br><br>出展日: 6-8日<br>営業時間: 10:00-17:00<br>電話番号: 0778-65-0630<br>Web: http://shitsurindo.com/<br>YouTube: https://youtu.be/y64gMTXVfQU?si=TvKeztLrEHX9ikOx",〒916-1221 福井県鯖江市西袋町701,"1793年創業。「aisomo cosomo」や「お椀や うちだ」、「RIN&CO.」の自社ブランドを立ち上げ、2016年に漆琳堂直営店をオープン。江戸時代から続く漆琳堂の仕事を実際にご覧いただけます。

(併設)
【とべーぐる砺波マチナカ店】
　7・8日 10:00-14:00

【SHIBA COFFEE】
　7・8日 10:00-15:00

【スパイシーカレーゆうゆう】
　7・8日 10:00-16:00

【Gaia kitchen】
　7・8日 11:00-15:00
",https://doc-14-00-mymaps.googleusercontent.com/untrusted/hostedimage/tjp71pbl755n1d9knaupn39qao/3k8tsqk814jkedlni7iua3bb2g/1696731300000/JZE0f6HJRobklDdF9DDVtADt9cDcsdY3/*/6AJ9UNGrI269lK5lQnxqvqBXNsseEEDAIlOrrRnTdiZmRtOd38-ln7hARfvkSMIylTQM0BEkhCJrmn9sh3I69rMN7gE8vy68pi13H3vb7O88LJUP9Msxv9ZcQIuWaNB_MtfqPS5vmAqfKVT4Ew4nSKgHlcbNRn1XklAi-zki-eSJtpqhgDTKe0fdxCvnDLE_9EjHTgZ1Sjj-1mJFChkWdbr9Z3aj3JUWy3omExKTugVKlzR2Qx50?fife,"工房（見学・展示）, 販売, ワークショップ",6-8日,10:00-17:00,0778-65-0630,http://shitsurindo.com/,https://youtu.be/y64gMTXVfQU?si=TvKeztLrEHX9ikOx
Hacoa,越前漆器,images/icon-1.png,35.95455139999999,136.2766348,Hacoa,"<img src=""https://doc-0c-00-mymaps.googleusercontent.com/untrusted/hostedimage/tjp71pbl755n1d9knaupn39qao/cjav3cdolkmsh9gpdo4gpmcodk/1696731300000/JZE0f6HJRobklDdF9DDVtADt9cDcsdY3/*/6AJ9UNGrmp8kF_BSNDFzf7O-2YNEoE75PkIqy8aiJOx7TeJ8dc1Au8r9U4LiRLDNk7ueMnp4DUcP2TAzhgEDO-en-v-gdicjUdShBXKvAhV4ASwjtRcOl1RonLkoIlOG_R0mwBF_4YwBIuquIePWz0Rn1sTnGdh5cxMTXob3S62fw42SeQGsHNPYjH9fw6_WZxAS_CNlp4F8CYgNy6_ztc0ewWpYzjI6GyHDn5sxi8WeucIfRLTw?fife"" height=""200"" width=""auto"" /><br><br>住所: 〒916-1221 福井県鯖江市西袋町503<br>参加形態: 工房（見学・展示）, 販売, ワークショップ, 飲食・イベント<br>紹介: 2001年誕生の木製デザイン雑貨ブランド。越前漆器の木地づくりの技術力で、インテリア用品やキッチン、PC周りのアイテムなど、領域にとらわれないものづくりを、デザインから製作まで一貫して行っています。<br><br>(併設)<br>【WoodWood Coffee Roast Service】<br>　6-8日 11:00-15:00<br><br>【Cafe &Guesthouseココラカラ】<br>　7日 11:00-15:00<br><br>【はごろもシフォン】<br>　8日 10:00-17:00<br><br>【cafe sumu】<br>　6-8日10:30-17:00<br><br>出展日: 6-8日<br>営業時間: 10:00-18:00<br>電話番号: 0778-65-3112<br>Web: https://hacoa.com/directstore/renew-2023/<br>YouTube: ",〒916-1221 福井県鯖江市西袋町503,"2001年誕生の木製デザイン雑貨ブランド。越前漆器の木地づくりの技術力で、インテリア用品やキッチン、PC周りのアイテムなど、領域にとらわれないものづくりを、デザインから製作まで一貫して行っています。

(併設)
【WoodWood Coffee Roast Service】
　6-8日 11:00-15:00

【Cafe &Guesthouseココラカラ】
　7日 11:00-15:00

【はごろもシフォン】
　8日 10:00-17:00

【cafe sumu】
　6-8日10:30-17:00
",https://doc-0c-00-mymaps.googleusercontent.com/untrusted/hostedimage/tjp71pbl755n1d9knaupn39qao/cjav3cdolkmsh9gpdo4gpmcodk/1696731300000/JZE0f6HJRobklDdF9DDVtADt9cDcsdY3/*/6AJ9UNGrmp8kF_BSNDFzf7O-2YNEoE75PkIqy8aiJOx7TeJ8dc1Au8r9U4LiRLDNk7ueMnp4DUcP2TAzhgEDO-en-v-gdicjUdShBXKvAhV4ASwjtRcOl1RonLkoIlOG_R0mwBF_4YwBIuquIePWz0Rn1sTnGdh5cxMTXob3S62fw42SeQGsHNPYjH9fw6_WZxAS_CNlp4F8CYgNy6_ztc0ewWpYzjI6GyHDn5sxi8WeucIfRLTw?fife,"工房（見学・展示）, 販売, ワークショップ, 飲食・イベント",6-8日,10:00-18:00,0778-65-3112,https://hacoa.com/directstore/renew-2023/,
土直漆器,越前漆器,images/icon-1.png,35.9544499,136.27777,土直漆器,"<img src=""https://doc-08-00-mymaps.googleusercontent.com/untrusted/hostedimage/tjp71pbl755n1d9knaupn39qao/soc24r7gu88r4kprbbaf6h3bpk/1696731300000/JZE0f6HJRobklDdF9DDVtADt9cDcsdY3/*/6AJ9UNGp6ahAKHjQEaWxh7UJn2AddPH--lkGcs8wVJ3r8OJaXaXTmOJl_yEaWNLrHCw4a5EwW_D6mWcYi6GopwCW1JWLYEAj0GFg1_7p-_KdqDjr7z4ZZ9m4G8doJkASnOuJtkcv6nXaa1a2LTaMCHw62j9RhEQddnZI7Xu7nwlbOQdBlIwZ6O2t4HKWrbtseakmRQyOBCN2eopcuU5mESvFg8hBmR2hwPjCNGlRlhikT-3y6jzQ?fife"" height=""200"" width=""auto"" /><br><br>住所: 〒916-1221福井県鯖江市西袋町214<br>参加形態: 工房（見学・展示）, 販売, ワークショップ<br>紹介: 土直漆器では伝統を重んじつつも常に新しい発想で商品作りを行っております。素地以外の全ての工程を一貫して作っているのも特徴のひとつで若いスタッフの感性とベテラン職人の技が融合し現代のニーズに応えたモノ作りを心がけています。<br>出展日: 6-8日<br>営業時間: 10:00-17:00<br>電話番号: 0778-65-0509<br>Web: http://www.tsuchinao.com/<br>YouTube: ",〒916-1221福井県鯖江市西袋町214,土直漆器では伝統を重んじつつも常に新しい発想で商品作りを行っております。素地以外の全ての工程を一貫して作っているのも特徴のひとつで若いスタッフの感性とベテラン職人の技が融合し現代のニーズに応えたモノ作りを心がけています。,https://doc-08-00-mymaps.googleusercontent.com/untrusted/hostedimage/tjp71pbl755n1d9knaupn39qao/soc24r7gu88r4kprbbaf6h3bpk/1696731300000/JZE0f6HJRobklDdF9DDVtADt9cDcsdY3/*/6AJ9UNGp6ahAKHjQEaWxh7UJn2AddPH--lkGcs8wVJ3r8OJaXaXTmOJl_yEaWNLrHCw4a5EwW_D6mWcYi6GopwCW1JWLYEAj0GFg1_7p-_KdqDjr7z4ZZ9m4G8doJkASnOuJtkcv6nXaa1a2LTaMCHw62j9RhEQddnZI7Xu7nwlbOQdBlIwZ6O2t4HKWrbtseakmRQyOBCN2eopcuU5mESvFg8hBmR2hwPjCNGlRlhikT-3y6jzQ?fife,"工房（見学・展示）, 販売, ワークショップ",6-8日,10:00-17:00,0778-65-0509,http://www.tsuchinao.com/,
ろくろ舎,越前漆器,images/icon-1.png,35.9539467,136.2774781,ろくろ舎,"<img src=""https://doc-0o-00-mymaps.googleusercontent.com/untrusted/hostedimage/tjp71pbl755n1d9knaupn39qao/lgccchs8v01gnoj4dr5mo813gg/1696731300000/JZE0f6HJRobklDdF9DDVtADt9cDcsdY3/*/6AJ9UNGpAFTWe00LihOsz2M9ntsMgk2jlG8zSpnQBDQJAQnhTfqwohmXJs4Xd7cIr68BEzGb2K7RNrVNDyt-rQgEazPsTXNFpUfB1Atlb25f0cuRVMRCBdneUtlCynSXhapuodCXOu-p3D5qE_Fq7DHMUqglIUmr9E-E0z0lngXm6uunEF2--r4f2YLVXY_0qvNIgnj5F9UWHHVfN0W_j9JAaA1MZKhjwy0ULg-7NzYjRi4GJc6c?fife"" height=""200"" width=""auto"" /><br><br>住所: 〒916-1221 福井県鯖江市西袋町512<br>参加形態: 工房（見学・展示）, 販売, ワークショップ<br>紹介: 伝統的な丸物木地師としての技術を継承しながら、<br>「価値の再定義」をコンセプトに、木材を中心に<br>素材、製法にこだわることなくプロダクトを製作。<br>出展日: 6-8日<br>営業時間: 10:00-17:00<br>電話番号: なし<br>Web: http://rokurosha.jp<br>YouTube: ",〒916-1221 福井県鯖江市西袋町512,"伝統的な丸物木地師としての技術を継承しながら、
「価値の再定義」をコンセプトに、木材を中心に
素材、製法にこだわることなくプロダクトを製作。",https://doc-0o-00-mymaps.googleusercontent.com/untrusted/hostedimage/tjp71pbl755n1d9knaupn39qao/lgccchs8v01gnoj4dr5mo813gg/1696731300000/JZE0f6HJRobklDdF9DDVtADt9cDcsdY3/*/6AJ9UNGpAFTWe00LihOsz2M9ntsMgk2jlG8zSpnQBDQJAQnhTfqwohmXJs4Xd7cIr68BEzGb2K7RNrVNDyt-rQgEazPsTXNFpUfB1Atlb25f0cuRVMRCBdneUtlCynSXhapuodCXOu-p3D5qE_Fq7DHMUqglIUmr9E-E0z0lngXm6uunEF2--r4f2YLVXY_0qvNIgnj5F9UWHHVfN0W_j9JAaA1MZKhjwy0ULg-7NzYjRi4GJc6c?fife,"工房（見学・展示）, 販売, ワークショップ",6-8日,10:00-17:00,なし,http://rokurosha.jp,
丸廣意匠,越前漆器,images/icon-1.png,35.9550128,136.280876,丸廣意匠,"<img src=""https://doc-0s-00-mymaps.googleusercontent.com/untrusted/hostedimage/tjp71pbl755n1d9knaupn39qao/1nriscsii9v5dtpokqg2aqgnpk/1696731300000/JZE0f6HJRobklDdF9DDVtADt9cDcsdY3/*/6AJ9UNGop98D-OR7HbH8AP2Mxrr_VLp1us2x6CGAW1e7ilcPzRoYp_zHWCoe9HwUVicp95llKYjVf9YU9A-gHpz18DQ6N-MCNIDqCcJi1pfXVakapfa5HAIoAM2tuH_mkrNjfMnU1MU3U7r1nJPJKG4jYHVyfNg2M080dEP0l40VaAtmMfd9svgA3OR29xF7scj6WGX1udtZjZSj45f0d4WTWl2giqju6mtmeyVD0nnMSV4LgKpk?fife"" height=""200"" width=""auto"" /><br><br>住所: 〒916−1237福井県鯖江市北中町535<br>参加形態: 工房（見学・展示）, 販売<br>紹介: 1983年創業、木製品を中心とした吹付塗装会社。伝統的技法に限らず、新たな塗装の表情を模索している。2018年より、デッドストックに塗装を施して再生させる企画「MARUHIRO SPRAY」を展開。<br>出展日: 6-8日<br>営業時間: 10:00-17:00<br>電話番号: 0778-65-2209<br>Web: https://maruhiro-isho.com<br>YouTube: https://youtu.be/6Ukjzr8IJ9w?si=EcIzpLLLQW01cVzd",〒916−1237福井県鯖江市北中町535,1983年創業、木製品を中心とした吹付塗装会社。伝統的技法に限らず、新たな塗装の表情を模索している。2018年より、デッドストックに塗装を施して再生させる企画「MARUHIRO SPRAY」を展開。,https://doc-0s-00-mymaps.googleusercontent.com/untrusted/hostedimage/tjp71pbl755n1d9knaupn39qao/1nriscsii9v5dtpokqg2aqgnpk/1696731300000/JZE0f6HJRobklDdF9DDVtADt9cDcsdY3/*/6AJ9UNGop98D-OR7HbH8AP2Mxrr_VLp1us2x6CGAW1e7ilcPzRoYp_zHWCoe9HwUVicp95llKYjVf9YU9A-gHpz18DQ6N-MCNIDqCcJi1pfXVakapfa5HAIoAM2tuH_mkrNjfMnU1MU3U7r1nJPJKG4jYHVyfNg2M080dEP0l40VaAtmMfd9svgA3OR29xF7scj6WGX1udtZjZSj45f0d4WTWl2giqju6mtmeyVD0nnMSV4LgKpk?fife,"工房（見学・展示）, 販売",6-8日,10:00-17:00,0778-65-2209,https://maruhiro-isho.com,https://youtu.be/6Ukjzr8IJ9w?si=EcIzpLLLQW01cVzd
漆器のだるま屋,越前漆器,images/icon-1.png,35.9511162,136.2752523,漆器のだるま屋,"<img src=""https://doc-0o-00-mymaps.googleusercontent.com/untrusted/hostedimage/tjp71pbl755n1d9knaupn39qao/6loqtplihr2eqbdl3iu7a8921c/1696731300000/JZE0f6HJRobklDdF9DDVtADt9cDcsdY3/*/6AJ9UNGpKtnCCGXryqTYZvjGYb77eiCfFoc6mGDiWMkQ0-PVaBZG_EQjHq9HETujVztK0pt1uSALkZeN_Qm0lFeeocgJ4h3E8Yu9IiGRpTzVTGVmoRL1kEU49H-5JhPcGZ41p09eXwldUeCnSR4p148Y0oaVZNtodGLgUh7Sdwv1vQ_2Lucd3XGB8vtssGn2BlC1KvWgjOSRkrpBm44EGKa2LAcWS7m2RsEnIHlmzBCiiUGzuOnU?fife"" height=""200"" width=""auto"" /><br><br>住所: 〒916-1223福井県鯖江市片山町7-8-1<br>参加形態: 販売<br>紹介: 西武福井店の前身である、だるま屋百貨店が昭和3年に開業した頃より近年まで、鯖江・河和田の地で製造された様々な漆器製品を納めて参りました。日々の暮らしにほどよい心地よさをお届けできるよう心掛けています。<br>出展日: 6-8日<br>営業時間: 6日 10:00-12:00 / 13:00-17:00　7・8日 10:00-17:00<br>電話番号: 0778-65-0068<br>Web: https://www.shikki-darumaya.com/<br>YouTube: ",〒916-1223福井県鯖江市片山町7-8-1,西武福井店の前身である、だるま屋百貨店が昭和3年に開業した頃より近年まで、鯖江・河和田の地で製造された様々な漆器製品を納めて参りました。日々の暮らしにほどよい心地よさをお届けできるよう心掛けています。,https://doc-0o-00-mymaps.googleusercontent.com/untrusted/hostedimage/tjp71pbl755n1d9knaupn39qao/6loqtplihr2eqbdl3iu7a8921c/1696731300000/JZE0f6HJRobklDdF9DDVtADt9cDcsdY3/*/6AJ9UNGpKtnCCGXryqTYZvjGYb77eiCfFoc6mGDiWMkQ0-PVaBZG_EQjHq9HETujVztK0pt1uSALkZeN_Qm0lFeeocgJ4h3E8Yu9IiGRpTzVTGVmoRL1kEU49H-5JhPcGZ41p09eXwldUeCnSR4p148Y0oaVZNtodGLgUh7Sdwv1vQ_2Lucd3XGB8vtssGn2BlC1KvWgjOSRkrpBm44EGKa2LAcWS7m2RsEnIHlmzBCiiUGzuOnU?fife,販売,6-8日,6日 10:00-12:00 / 13:00-17:00　7・8日 10:00-17:00,0778-65-0068,https://www.shikki-darumaya.com/,
錦古里漆器店,越前漆器,images/icon-1.png,35.950664,136.273895,錦古里漆器店,"<img src=""https://doc-0o-00-mymaps.googleusercontent.com/untrusted/hostedimage/tjp71pbl755n1d9knaupn39qao/l18hue98e7ceb0hngecat1pgmc/1696731300000/JZE0f6HJRobklDdF9DDVtADt9cDcsdY3/*/6AJ9UNGozWX4B0lIZOge__enN-0LooeAYflFvBjashDYyFo6sojDG6YwGGPbmWyLk_e65ui-3i6Tw744eCau3ByxtIPloFO80fYkAysLZXWY3EUvZLSnob9xiWbnMElKTGt1vmw6V0FjD8ChjmlOXzvwpiQJ1bLPrQ_NID9GStjC02d_WLBAVZ0If1mwilkbbjdMi1UKzkaGychvQP5JwUL8JhyRQ71OXj6LXciXrBRRydcnnSso?fife"" height=""200"" width=""auto"" /><br><br>住所: 〒916-1222 福井県鯖江市河和田町19-8<br>参加形態: 工房（見学・展示）,販売, ワークショップ<br>紹介: 会社創業100年を超える老舗漆器店です。和食の食器を中心に製造販売を行っております。2019年より、TSUGIと同じ施設内に工房をかまえ、誰でもいつでも、職人が仕事をしている工程を見学できるようになりました。<br>出展日: 6-8日<br>営業時間: 10:00-17:00<br>電話番号: 0778-65-2233<br>Web: <br>YouTube: ",〒916-1222 福井県鯖江市河和田町19-8,会社創業100年を超える老舗漆器店です。和食の食器を中心に製造販売を行っております。2019年より、TSUGIと同じ施設内に工房をかまえ、誰でもいつでも、職人が仕事をしている工程を見学できるようになりました。,https://doc-0o-00-mymaps.googleusercontent.com/untrusted/hostedimage/tjp71pbl755n1d9knaupn39qao/l18hue98e7ceb0hngecat1pgmc/1696731300000/JZE0f6HJRobklDdF9DDVtADt9cDcsdY3/*/6AJ9UNGozWX4B0lIZOge__enN-0LooeAYflFvBjashDYyFo6sojDG6YwGGPbmWyLk_e65ui-3i6Tw744eCau3ByxtIPloFO80fYkAysLZXWY3EUvZLSnob9xiWbnMElKTGt1vmw6V0FjD8ChjmlOXzvwpiQJ1bLPrQ_NID9GStjC02d_WLBAVZ0If1mwilkbbjdMi1UKzkaGychvQP5JwUL8JhyRQ71OXj6LXciXrBRRydcnnSso?fife,"工房（見学・展示）,販売, ワークショップ",6-8日,10:00-17:00,0778-65-2233,,
駒本蒔絵工房/KOMAYA,越前漆器,images/icon-1.png,35.9491014,136.2741342,駒本蒔絵工房/KOMAYA,"<img src=""https://doc-0g-00-mymaps.googleusercontent.com/untrusted/hostedimage/tjp71pbl755n1d9knaupn39qao/1o5ekp9so151q6m6es2tnud46o/1696731300000/JZE0f6HJRobklDdF9DDVtADt9cDcsdY3/*/6AJ9UNGo4mgAUDtBj3cuOqrWs6xGYMfnSz2_UI3yMIZBZIdX5sEOHkY0NAx9ciluCqB-Naz471dIud0BlJrKjJJNIsB07U_JnZ0UmEm8T5c2Nnucv373oP4bE1l_hjors1BpmDJVZDh-sD9db68oXrq9xbb94x2YLXCSV86hwqq4tAE4xTxYWJPG3J6Vtgccl-cqkEaIk5zVOIWeVMFDH6xdgwC5k0SFQo2UYsjdqQ3QdPLf98ho?fife"" height=""200"" width=""auto"" /><br><br>住所: 〒916-1224 福井県鯖江市莇生田町14-5-1<br>参加形態: 工房（見学・展示）, 販売, ワークショップ<br>紹介: 伝統工芸職人を筆頭に、技と技術を受け継いだ若き職人達がアクセサリーショップをオープン。中庭をぬけて現れるのは隠れ家のような趣きのある工房。伝統を活かした全く新しいアクセサリーにぜひ触れてみてください。<br>出展日: 6-8日<br>営業時間: 10:00-12:00 / 13:00-17:00<br>電話番号: 0778-65-0377<br>Web: <br>YouTube: ",〒916-1224 福井県鯖江市莇生田町14-5-1,伝統工芸職人を筆頭に、技と技術を受け継いだ若き職人達がアクセサリーショップをオープン。中庭をぬけて現れるのは隠れ家のような趣きのある工房。伝統を活かした全く新しいアクセサリーにぜひ触れてみてください。,https://doc-0g-00-mymaps.googleusercontent.com/untrusted/hostedimage/tjp71pbl755n1d9knaupn39qao/1o5ekp9so151q6m6es2tnud46o/1696731300000/JZE0f6HJRobklDdF9DDVtADt9cDcsdY3/*/6AJ9UNGo4mgAUDtBj3cuOqrWs6xGYMfnSz2_UI3yMIZBZIdX5sEOHkY0NAx9ciluCqB-Naz471dIud0BlJrKjJJNIsB07U_JnZ0UmEm8T5c2Nnucv373oP4bE1l_hjors1BpmDJVZDh-sD9db68oXrq9xbb94x2YLXCSV86hwqq4tAE4xTxYWJPG3J6Vtgccl-cqkEaIk5zVOIWeVMFDH6xdgwC5k0SFQo2UYsjdqQ3QdPLf98ho?fife,"工房（見学・展示）, 販売, ワークショップ",6-8日,10:00-12:00 / 13:00-17:00,0778-65-0377,,
ヤマト工芸,越前漆器,images/icon-1.png,35.945462,136.275659,ヤマト工芸,"<img src=""https://doc-0s-00-mymaps.googleusercontent.com/untrusted/hostedimage/tjp71pbl755n1d9knaupn39qao/l80vi652p3m9lnk0lap6u68lfk/1696731300000/JZE0f6HJRobklDdF9DDVtADt9cDcsdY3/*/6AJ9UNGrPXemHJKlnm46b8sqo-tQLOu7HsIZZjj4rN2wEhOMDgbYGM_MguRSYSspWoCyDWzfVXLenq27ggUJrl29lPhwKtNJZZ3RT1-eZ9XUG3I_suqJRaoZvfCZqBE16OzHMBBufr2A873Z16N0m7EcEj6tazrp7_wQ0jqylJdwx9qsEMf1zZy6Bpd8BjNjbZ71_KJlrqEDeH4XrGZWp8ui6EECRI4Fw5qsjq_hIOcX0ytT4z2A?fife"" height=""200"" width=""auto"" /><br><br>住所: 〒916-1224 福井県鯖江市莇生田町19-40<br>参加形態: 工房（見学・展示）, ワークショップ<br>紹介: 越前漆器の産地で木地作りを行う会社です。漆器の木地の裁断から組立、塗装までのすべての工程を自社で丁寧に行ってきました。職人の技術と誇りが詰まったブランド、それがyamatojapanです。<br>出展日: 6・7日<br>営業時間: 10:00-12:00 / 13:00-17:00<br>電話番号: 0778-65-1158<br>Web: http://yamatokougei.com/<br>YouTube: ",〒916-1224 福井県鯖江市莇生田町19-40,越前漆器の産地で木地作りを行う会社です。漆器の木地の裁断から組立、塗装までのすべての工程を自社で丁寧に行ってきました。職人の技術と誇りが詰まったブランド、それがyamatojapanです。,https://doc-0s-00-mymaps.googleusercontent.com/untrusted/hostedimage/tjp71pbl755n1d9knaupn39qao/l80vi652p3m9lnk0lap6u68lfk/1696731300000/JZE0f6HJRobklDdF9DDVtADt9cDcsdY3/*/6AJ9UNGrPXemHJKlnm46b8sqo-tQLOu7HsIZZjj4rN2wEhOMDgbYGM_MguRSYSspWoCyDWzfVXLenq27ggUJrl29lPhwKtNJZZ3RT1-eZ9XUG3I_suqJRaoZvfCZqBE16OzHMBBufr2A873Z16N0m7EcEj6tazrp7_wQ0jqylJdwx9qsEMf1zZy6Bpd8BjNjbZ71_KJlrqEDeH4XrGZWp8ui6EECRI4Fw5qsjq_hIOcX0ytT4z2A?fife,"工房（見学・展示）, ワークショップ",6・7日,10:00-12:00 / 13:00-17:00,0778-65-1158,http://yamatokougei.com/,
うるしギャラリー久右衛門,越前漆器,images/icon-1.png,35.9521826,136.2709503,うるしギャラリー久右衛門,"<img src=""https://doc-14-00-mymaps.googleusercontent.com/untrusted/hostedimage/tjp71pbl755n1d9knaupn39qao/1kbhu6kg8rvedhguudj2pv9f6g/1696731300000/JZE0f6HJRobklDdF9DDVtADt9cDcsdY3/*/6AJ9UNGrOLsrOcrWj7NCnH7s5fJvvG71ZbHsEYEJjWd1zhOPKJp1zrL0Zbv2C1erK_Rv6vsIK1-5MMraQpnDTmv09seTeMGD0d6Wq_BwxkXtVXYh_TiqSGYcsgRn_GPSDefBHk2zUtoe3lYDhqNn00xJIM9wkUAit7sXYpLqN4wnsiv2qlBkw9AXDVUwlYUi6dMl6UFdo2cXKJ6uw_udqKZHLaZyn8uk1nVdOmWnCUfCtI2nDlXw?fife"" height=""200"" width=""auto"" /><br><br>住所: 〒916-1222 福井県鯖江市河和田町16-12<br>参加形態: 工房（見学・展示）, 販売, ワークショップ<br>紹介: 丸山久右衛門商店は、1500年の伝統を誇る漆の里「河和田」で漆器業を広めてきた会社です。その伝統を守りながら、現代の生活に合致した漆器を提案しています。うるしギャラリー久右衛門では、幅広い品揃えで販売を行い、伝統と品質にこだわった漆器を提供しています。<br>出展日: 6-8日<br>営業時間: 9:00-17:00<br>電話番号: 0778-65-0011<br>Web: https://www.9emon.co.jp/<br>YouTube: ",〒916-1222 福井県鯖江市河和田町16-12,丸山久右衛門商店は、1500年の伝統を誇る漆の里「河和田」で漆器業を広めてきた会社です。その伝統を守りながら、現代の生活に合致した漆器を提案しています。うるしギャラリー久右衛門では、幅広い品揃えで販売を行い、伝統と品質にこだわった漆器を提供しています。,https://doc-14-00-mymaps.googleusercontent.com/untrusted/hostedimage/tjp71pbl755n1d9knaupn39qao/1kbhu6kg8rvedhguudj2pv9f6g/1696731300000/JZE0f6HJRobklDdF9DDVtADt9cDcsdY3/*/6AJ9UNGrOLsrOcrWj7NCnH7s5fJvvG71ZbHsEYEJjWd1zhOPKJp1zrL0Zbv2C1erK_Rv6vsIK1-5MMraQpnDTmv09seTeMGD0d6Wq_BwxkXtVXYh_TiqSGYcsgRn_GPSDefBHk2zUtoe3lYDhqNn00xJIM9wkUAit7sXYpLqN4wnsiv2qlBkw9AXDVUwlYUi6dMl6UFdo2cXKJ6uw_udqKZHLaZyn8uk1nVdOmWnCUfCtI2nDlXw?fife,"工房（見学・展示）, 販売, ワークショップ",6-8日,9:00-17:00,0778-65-0011,https://www.9emon.co.jp/,
高橋工芸,越前漆器,images/icon-1.png,35.9517883,136.2434997,高橋工芸,"<img src=""https://doc-04-00-mymaps.googleusercontent.com/untrusted/hostedimage/tjp71pbl755n1d9knaupn39qao/7n7v93n2ls5na12u8695o2qff8/1696731300000/JZE0f6HJRobklDdF9DDVtADt9cDcsdY3/*/6AJ9UNGpXp_y8sGlQSJXjLZ4W3dC_Xudn-Pl0IBDA41dGxSzVeoTJjfHBEa2s1-9gObwMfmFbvgf_R1jiUQ-6urceItzCG8UYxeSFw0AhFybEg4HLN1833UT75ZEolZZ1Ea9mIFUT_2IzFkiOYJyEK0_TQOi3KeGEyhTRI-kLTjC6DnDLRm80F2lJwP5zXBxsStZ1WvCq4RZ7W9FJmlu4OfjM8rKOFbzPA7HOsPkM3nCcM_QuoDA?fife"" height=""200"" width=""auto"" /><br><br>住所: 〒916-1115 福井県鯖江市落井町50-5-1<br>参加形態: 工房（見学・展示）, 販売<br>紹介: 鯖江市で100年近く続く越前漆器製造の会社です。創業時から様々な漆器製品の製造販売をしており、近年ではお茶道具や節句人形の屏風・台を中心に製造しています。<br>出展日: 6・7日<br>営業時間: 10:00-12:00 / 13:00-17:00<br>電話番号: 0778-65-0369<br>Web: https://o-takahashikogei.com<br>YouTube: https://youtu.be/fUXEtKuKfYA?si=kqvb1xCurVpxW0RC",〒916-1115 福井県鯖江市落井町50-5-1,鯖江市で100年近く続く越前漆器製造の会社です。創業時から様々な漆器製品の製造販売をしており、近年ではお茶道具や節句人形の屏風・台を中心に製造しています。,https://doc-04-00-mymaps.googleusercontent.com/untrusted/hostedimage/tjp71pbl755n1d9knaupn39qao/7n7v93n2ls5na12u8695o2qff8/1696731300000/JZE0f6HJRobklDdF9DDVtADt9cDcsdY3/*/6AJ9UNGpXp_y8sGlQSJXjLZ4W3dC_Xudn-Pl0IBDA41dGxSzVeoTJjfHBEa2s1-9gObwMfmFbvgf_R1jiUQ-6urceItzCG8UYxeSFw0AhFybEg4HLN1833UT75ZEolZZ1Ea9mIFUT_2IzFkiOYJyEK0_TQOi3KeGEyhTRI-kLTjC6DnDLRm80F2lJwP5zXBxsStZ1WvCq4RZ7W9FJmlu4OfjM8rKOFbzPA7HOsPkM3nCcM_QuoDA?fife,"工房（見学・展示）, 販売",6・7日,10:00-12:00 / 13:00-17:00,0778-65-0369,https://o-takahashikogei.com,https://youtu.be/fUXEtKuKfYA?si=kqvb1xCurVpxW0RC
下村漆器店,越前漆器,images/icon-1.png,35.9519755,136.2761193,下村漆器店,"<img src=""https://doc-14-00-mymaps.googleusercontent.com/untrusted/hostedimage/tjp71pbl755n1d9knaupn39qao/b3t5bgc8749oevukocq2ffoj5k/1696731300000/JZE0f6HJRobklDdF9DDVtADt9cDcsdY3/*/6AJ9UNGpmCqpa5kXK8sXBglFkeqr7Y_rPXJ4L_eA7Z0-7BTpHAPXMTQNmSqKSzY-4cckVT4Fca_XTD1UsqLAODy-FSCzoJEXq5s93kBG2uKEVkw62oLTaRc38t9CHn8zNwBgp-3CXQIkntjeCGy1ZMyBE5KPcvm5eWvZBlFM5pT1roaYABS6PWhNIWZ_g5yXk6JaB8WFVBDRX2-FQdOhnhk2BZxrK1o0S5FE6a5tY2LIlCVrUzLc?fife"" height=""200"" width=""auto"" /><br><br>住所: 〒916-1223福井県鯖江市片山町8-7<br>参加形態: 工房（見学・展示）, 販売<br>紹介: ひと味ちがう器をあなたに<br>「こどもしっき」のブランドでお食い初めや記念品などをネット販売中心に高品質でお手頃価格を目指しております。業界初、レンジ食洗機対応の漆塗りのお椀も販売しております。<br>出展日: 6・7日<br>営業時間: 9:00-17:00<br>電話番号: 0778-65-0024<br>Web: http://www.shimomurashikki.co.jp/<br>YouTube: ",〒916-1223福井県鯖江市片山町8-7,"ひと味ちがう器をあなたに
「こどもしっき」のブランドでお食い初めや記念品などをネット販売中心に高品質でお手頃価格を目指しております。業界初、レンジ食洗機対応の漆塗りのお椀も販売しております。",https://doc-14-00-mymaps.googleusercontent.com/untrusted/hostedimage/tjp71pbl755n1d9knaupn39qao/b3t5bgc8749oevukocq2ffoj5k/1696731300000/JZE0f6HJRobklDdF9DDVtADt9cDcsdY3/*/6AJ9UNGpmCqpa5kXK8sXBglFkeqr7Y_rPXJ4L_eA7Z0-7BTpHAPXMTQNmSqKSzY-4cckVT4Fca_XTD1UsqLAODy-FSCzoJEXq5s93kBG2uKEVkw62oLTaRc38t9CHn8zNwBgp-3CXQIkntjeCGy1ZMyBE5KPcvm5eWvZBlFM5pT1roaYABS6PWhNIWZ_g5yXk6JaB8WFVBDRX2-FQdOhnhk2BZxrK1o0S5FE6a5tY2LIlCVrUzLc?fife,"工房（見学・展示）, 販売",6・7日,9:00-17:00,0778-65-0024,http://www.shimomurashikki.co.jp/,
辻田漆店,越前漆器,images/icon-1.png,35.937664,136.261133,辻田漆店,"<img src=""https://doc-0g-00-mymaps.googleusercontent.com/untrusted/hostedimage/tjp71pbl755n1d9knaupn39qao/h5brb0dac7nsp1cjteh252u914/1696731300000/JZE0f6HJRobklDdF9DDVtADt9cDcsdY3/*/6AJ9UNGqSuQ1iUOHcjk-IkFGWXJFXTr1Nf12H5XTADTf_YO3DCeCmC1czYQk1K8XS0r4Xopz_rLVRzmuSQVWvCccYDsMuPHdSWu-SbSZ6p9bY3nBgYccHyn4oXArTv8L6lI2ynUMVpS4UTM7UOQZlW_5rREk7MA_80Avw7aLPy5elaRiDWCKhScBMAa7CEtwEozPegln2gxsicrZufjJSvpYgG816qK1a2qhFDD1jOVxqT6umayw?fife"" height=""200"" width=""auto"" /><br><br>住所: 〒915-0261 福井県越前市朽飯町22-24<br>参加形態: 工房（見学・展示）<br>紹介: 創業150年以上、漆製造業の小さな会社です。主に日本国内や中国で採取された漆を精製して販売しております。漆は採れた場所や時期によって個性があります。天然の漆、伝統的な製造機などをご覧いただけます。<br>出展日: 7・8日<br>営業時間: 7日 13:00-17:00 8日 10:00-12:00<br>電話番号: 0778-42-1034<br>Web: http://www.tujita.co.jp<br>YouTube: ",〒915-0261 福井県越前市朽飯町22-24,創業150年以上、漆製造業の小さな会社です。主に日本国内や中国で採取された漆を精製して販売しております。漆は採れた場所や時期によって個性があります。天然の漆、伝統的な製造機などをご覧いただけます。,https://doc-0g-00-mymaps.googleusercontent.com/untrusted/hostedimage/tjp71pbl755n1d9knaupn39qao/h5brb0dac7nsp1cjteh252u914/1696731300000/JZE0f6HJRobklDdF9DDVtADt9cDcsdY3/*/6AJ9UNGqSuQ1iUOHcjk-IkFGWXJFXTr1Nf12H5XTADTf_YO3DCeCmC1czYQk1K8XS0r4Xopz_rLVRzmuSQVWvCccYDsMuPHdSWu-SbSZ6p9bY3nBgYccHyn4oXArTv8L6lI2ynUMVpS4UTM7UOQZlW_5rREk7MA_80Avw7aLPy5elaRiDWCKhScBMAa7CEtwEozPegln2gxsicrZufjJSvpYgG816qK1a2qhFDD1jOVxqT6umayw?fife,工房（見学・展示）,7・8日,7日 13:00-17:00 8日 10:00-12:00,0778-42-1034,http://www.tujita.co.jp,
越前塗りの漆遊館,越前漆器,images/icon-1.png,35.9487754,136.2209307,越前塗りの漆遊館,"<img src=""https://doc-08-00-mymaps.googleusercontent.com/untrusted/hostedimage/tjp71pbl755n1d9knaupn39qao/14b69cipn8eikc5uro59pfubro/1696731300000/JZE0f6HJRobklDdF9DDVtADt9cDcsdY3/*/6AJ9UNGpb0dzk4gNPEORR1viNb3XkzFRCIWXWl_UdgQa6gIv9klcjJeMJ10cZiquK1vgQLeG7ed4oI_pLZm0eh0KelhDIMEK8IdSXSxWFk3LGQK7Lr9bPcHP8HWM_q61DOCWOPgCKH-SwL_WdI-Z-Am28TLoITbFGStHtkW0Uri9E-FG25ahQI0Tl4ci_SzUZhEEpCjUEYCreIAHc9DfpSvVxyU_Vwm4od-Frgxb8lX1xeTB1LvQ?fife"" height=""200"" width=""auto"" /><br><br>住所: 〒916-0033 福井県鯖江市中野町256-1<br>参加形態: 販売, ワークショップ<br>紹介: 越前塗りメーカーの直営ショップです。常時2千点以上もの商品が展示してあり、直営ショップですのでお買い得な商品も多数ございます。蒔絵体験のワークショップも行っております。お気軽にお立ち寄りください。<br>出展日: 6-8日<br>営業時間: 9:00-17:30<br>電話番号: 0778-52-3400<br>Web: https://www.urushi.org/<br>YouTube: ",〒916-0033 福井県鯖江市中野町256-1,越前塗りメーカーの直営ショップです。常時2千点以上もの商品が展示してあり、直営ショップですのでお買い得な商品も多数ございます。蒔絵体験のワークショップも行っております。お気軽にお立ち寄りください。,https://doc-08-00-mymaps.googleusercontent.com/untrusted/hostedimage/tjp71pbl755n1d9knaupn39qao/14b69cipn8eikc5uro59pfubro/1696731300000/JZE0f6HJRobklDdF9DDVtADt9cDcsdY3/*/6AJ9UNGpb0dzk4gNPEORR1viNb3XkzFRCIWXWl_UdgQa6gIv9klcjJeMJ10cZiquK1vgQLeG7ed4oI_pLZm0eh0KelhDIMEK8IdSXSxWFk3LGQK7Lr9bPcHP8HWM_q61DOCWOPgCKH-SwL_WdI-Z-Am28TLoITbFGStHtkW0Uri9E-FG25ahQI0Tl4ci_SzUZhEEpCjUEYCreIAHc9DfpSvVxyU_Vwm4od-Frgxb8lX1xeTB1LvQ?fife,"販売, ワークショップ",6-8日,9:00-17:30,0778-52-3400,https://www.urushi.org/,
漆器久太郎,越前漆器,images/icon-1.png,35.9524055,136.2780058,漆器久太郎,"<img src=""https://doc-0s-00-mymaps.googleusercontent.com/untrusted/hostedimage/tjp71pbl755n1d9knaupn39qao/psd3e6fndlf7ifvko578uobll4/1696731300000/JZE0f6HJRobklDdF9DDVtADt9cDcsdY3/*/6AJ9UNGpA14kDRZivumHnWoq4syvxNaE3S2XJr1Jh6A1UfLLIesXGJdmsITtYyiLkvCwxHNq7Dj3lRiAHH9WGPju00CRtKErLeYd2rx6Np5E9tbJDF8-j5SxDjHVNXvhUJ2G3sgtJut_c6KtvVDda8jHEfoFCnlvRm_TB3Qdglwih0H2_Uk78BcRhUiVpsPdWkfo5cp-M-kb9DLxanV7j4hqDe5nr3ykxzlqzprFTw3QFicsTUWc?fife"" height=""200"" width=""auto"" /><br><br>住所: 〒916-1221福井県鯖江市西袋町67-13-3<br>参加形態: 販売, ワークショップ<br>紹介: 今年創業１００年を迎えた漆器屋です。曽明漆器店の初代曽明久太郎の名前を頂き「漆器久太郎」が生まれました。青×木製食器「kyutarouBLUE」ブランドを展開中<br>出展日: 6-8日<br>営業時間: 6日 10:00-11:30 / 14:00-15:30<br>7-8日 10:00-12:00 / 13:00-17:00<br>電話番号: 0778-65-0071<br>Web: https://www.shikki-qtarou.com/<br>YouTube: https://youtu.be/DFiNBuh0Ncs?si=X0CIWZvL7SzuKpwU",〒916-1221福井県鯖江市西袋町67-13-3,今年創業１００年を迎えた漆器屋です。曽明漆器店の初代曽明久太郎の名前を頂き「漆器久太郎」が生まれました。青×木製食器「kyutarouBLUE」ブランドを展開中,https://doc-0s-00-mymaps.googleusercontent.com/untrusted/hostedimage/tjp71pbl755n1d9knaupn39qao/psd3e6fndlf7ifvko578uobll4/1696731300000/JZE0f6HJRobklDdF9DDVtADt9cDcsdY3/*/6AJ9UNGpA14kDRZivumHnWoq4syvxNaE3S2XJr1Jh6A1UfLLIesXGJdmsITtYyiLkvCwxHNq7Dj3lRiAHH9WGPju00CRtKErLeYd2rx6Np5E9tbJDF8-j5SxDjHVNXvhUJ2G3sgtJut_c6KtvVDda8jHEfoFCnlvRm_TB3Qdglwih0H2_Uk78BcRhUiVpsPdWkfo5cp-M-kb9DLxanV7j4hqDe5nr3ykxzlqzprFTw3QFicsTUWc?fife,"販売, ワークショップ",6-8日,"6日 10:00-11:30 / 14:00-15:30
7-8日 10:00-12:00 / 13:00-17:00",0778-65-0071,https://www.shikki-qtarou.com/,https://youtu.be/DFiNBuh0Ncs?si=X0CIWZvL7SzuKpwU
井上徳木工,越前漆器,images/icon-1.png,35.9477447,136.2705998,井上徳木工,"<img src=""https://doc-08-00-mymaps.googleusercontent.com/untrusted/hostedimage/tjp71pbl755n1d9knaupn39qao/d59tj2u17k296qo1o8si8c6i5k/1696731300000/JZE0f6HJRobklDdF9DDVtADt9cDcsdY3/*/6AJ9UNGpvlMH8ZAccJWvqB2sEAkeOMCX7rxx5ptCSwal53B0zws-dksu6_uQQdfL-n1-ZVG30CiRT7HS13TOOrXR63u5hpBG5PcsP4JrezOC5RGqiODcseKEzN0uYhX_76UkCGaW0dVpSn6EKtXbvsqMY_4i5gYENkaCOGZDwN3FXFPSqOC25ZulF_Qx4aHMphIQ2172eaniFO7AM21WVxtICNyGTVXUrgPEOGaYanPZ0YmkNsyA?fife"" height=""200"" width=""auto"" /><br><br>住所: 〒916-1222 福井県鯖江市河和田町26-19<br>参加形態: 工房（見学・展示）, 販売, ワークショップ<br>紹介: 井上徳木工では小箱や盆など越前漆器で角物（かくもの）といわれる伝統的な形や技術を継承しつつ、幅広い木製品を制作している工房です。通常は上塗りで隠れてしまう加工の仕口や製作過程でしか見れない造形美を活かす商品作りを始めています。<br>出展日: 6-8日<br>営業時間: 6・7日 10:00-17:00 8日 10:00-16:00<br>電話番号: 0778-65-0338<br>Web: https://lr-tokumokkou.jp/<br>YouTube: ",〒916-1222 福井県鯖江市河和田町26-19,井上徳木工では小箱や盆など越前漆器で角物（かくもの）といわれる伝統的な形や技術を継承しつつ、幅広い木製品を制作している工房です。通常は上塗りで隠れてしまう加工の仕口や製作過程でしか見れない造形美を活かす商品作りを始めています。,https://doc-08-00-mymaps.googleusercontent.com/untrusted/hostedimage/tjp71pbl755n1d9knaupn39qao/d59tj2u17k296qo1o8si8c6i5k/1696731300000/JZE0f6HJRobklDdF9DDVtADt9cDcsdY3/*/6AJ9UNGpvlMH8ZAccJWvqB2sEAkeOMCX7rxx5ptCSwal53B0zws-dksu6_uQQdfL-n1-ZVG30CiRT7HS13TOOrXR63u5hpBG5PcsP4JrezOC5RGqiODcseKEzN0uYhX_76UkCGaW0dVpSn6EKtXbvsqMY_4i5gYENkaCOGZDwN3FXFPSqOC25ZulF_Qx4aHMphIQ2172eaniFO7AM21WVxtICNyGTVXUrgPEOGaYanPZ0YmkNsyA?fife,"工房（見学・展示）, 販売, ワークショップ",6-8日,6・7日 10:00-17:00 8日 10:00-16:00,0778-65-0338,https://lr-tokumokkou.jp/,
むつのはな,越前漆器,images/icon-1.png,35.946824,136.2679875,むつのはな,"<img src=""https://doc-08-00-mymaps.googleusercontent.com/untrusted/hostedimage/tjp71pbl755n1d9knaupn39qao/2eqf9b041hn9qold72n4p418c4/1696731300000/JZE0f6HJRobklDdF9DDVtADt9cDcsdY3/*/6AJ9UNGoRorNll8iM4Y6d1DybG5ww5NwHKYVFXYEVWjz6Eq0ZLd7kRGupeFwUdjZc5bLkOb6py52X0gRlNBMt7Tkw8ONtRWiKLn_0JYE-UTQlOMr_dmwOS7KQCySl5PqhXuxzm0FX6TrjZ7Pkp34DIPnbOP3nGA_H1Q-66FDKRhDRKuQ4VUR1hGFHDZAs_PTwoIPb8V0sqM989C-RoSt8X9hUnvDrU2GJVf1uFKJFT6wc7b0fyv8?fife"" height=""200"" width=""auto"" /><br><br>住所: 〒916-1222 福井県鯖江市河和田町24-13(こま膳内)<br>参加形態: 飲食、ワークショップ<br>紹介: 普段は週2日のランチ限定のむつのはなが、今回地酒ペアリングコースをご提供。業界としても新しい試み、漆塗りを施したグラスと普通のグラスとの味の変化をお楽しみいただけます。越前の味覚と共にどうぞ。<br><br>出展日: 6・7日<br>営業時間: 16:00-20:00<br>電話番号: 090-5178-2414<br>Web: <br>YouTube: ",〒916-1222 福井県鯖江市河和田町24-13(こま膳内),普段は週2日のランチ限定のむつのはなが、今回地酒ペアリングコースをご提供。業界としても新しい試み、漆塗りを施したグラスと普通のグラスとの味の変化をお楽しみいただけます。越前の味覚と共にどうぞ。,https://doc-08-00-mymaps.googleusercontent.com/untrusted/hostedimage/tjp71pbl755n1d9knaupn39qao/2eqf9b041hn9qold72n4p418c4/1696731300000/JZE0f6HJRobklDdF9DDVtADt9cDcsdY3/*/6AJ9UNGoRorNll8iM4Y6d1DybG5ww5NwHKYVFXYEVWjz6Eq0ZLd7kRGupeFwUdjZc5bLkOb6py52X0gRlNBMt7Tkw8ONtRWiKLn_0JYE-UTQlOMr_dmwOS7KQCySl5PqhXuxzm0FX6TrjZ7Pkp34DIPnbOP3nGA_H1Q-66FDKRhDRKuQ4VUR1hGFHDZAs_PTwoIPb8V0sqM989C-RoSt8X9hUnvDrU2GJVf1uFKJFT6wc7b0fyv8?fife,飲食、ワークショップ,6・7日,16:00-20:00,090-5178-2414,,
越前和紙の里 パピルス館,越前和紙,images/icon-2.png,35.91138550000001,136.2433322,越前和紙の里 パピルス館,"<img src=""https://doc-10-00-mymaps.googleusercontent.com/untrusted/hostedimage/tjp71pbl755n1d9knaupn39qao/bn86dkuv6qam5mik467ud6b3uc/1696731300000/JZE0f6HJRobklDdF9DDVtADt9cDcsdY3/*/6AJ9UNGpYYTQMbGk5OxhvY45mZ42ZQOnjW7KQnh-1MDQquKN-FonN1Vmby2naBqpSHBCSWA57IG2R1uof_3ob8vGvwN8k82l-wJhS7BjcWeyRPSKHRsFSiTU8DwiOaoWVXnZoYvW6YFxfhf46cqEqt7qaOV2nBfKZexr7zNUiUOOtQ2hO0W-0t00dEvbhIX533wAV-tCp8VW-LxBWEIfOiPIEbXynjGqgAGlfpzQqc9R1PRhosYA?fife"" height=""200"" width=""auto"" /><br><br>住所: 〒915-0232 福井県越前市新在家町8-44<br>参加形態: 販売, ワークショップ<br>紹介: 「パピルス館」では、世界に一つだけの名刺やハガキ、和紙の灯りづくりを体験していただけます。自由な発想で和紙をつくってみませんか？併設する「和紙処えちぜん」は、和紙の小物や雑貨が豊富に揃う、産地組合の直売店。<br>出展日: 6-8日<br>営業時間: 9:00-16:00<br>電話番号: 0778-42-1363<br>Web: https://www.echizenwashi.jp<br>YouTube: ",〒915-0232 福井県越前市新在家町8-44,「パピルス館」では、世界に一つだけの名刺やハガキ、和紙の灯りづくりを体験していただけます。自由な発想で和紙をつくってみませんか？併設する「和紙処えちぜん」は、和紙の小物や雑貨が豊富に揃う、産地組合の直売店。,https://doc-10-00-mymaps.googleusercontent.com/untrusted/hostedimage/tjp71pbl755n1d9knaupn39qao/bn86dkuv6qam5mik467ud6b3uc/1696731300000/JZE0f6HJRobklDdF9DDVtADt9cDcsdY3/*/6AJ9UNGpYYTQMbGk5OxhvY45mZ42ZQOnjW7KQnh-1MDQquKN-FonN1Vmby2naBqpSHBCSWA57IG2R1uof_3ob8vGvwN8k82l-wJhS7BjcWeyRPSKHRsFSiTU8DwiOaoWVXnZoYvW6YFxfhf46cqEqt7qaOV2nBfKZexr7zNUiUOOtQ2hO0W-0t00dEvbhIX533wAV-tCp8VW-LxBWEIfOiPIEbXynjGqgAGlfpzQqc9R1PRhosYA?fife,"販売, ワークショップ",6-8日,9:00-16:00,0778-42-1363,https://www.echizenwashi.jp,
越前和紙の里 卯立の工芸館,越前和紙,images/icon-2.png,35.9111676,136.2448179,越前和紙の里 卯立の工芸館,"<img src=""https://doc-14-00-mymaps.googleusercontent.com/untrusted/hostedimage/tjp71pbl755n1d9knaupn39qao/a93asr3isk8ke8v7ue9qg3n9ak/1696731300000/JZE0f6HJRobklDdF9DDVtADt9cDcsdY3/*/6AJ9UNGr_ge7UU5E7FiH66_q6wFGzB08bMa0M0rgLk8MlerId_5hYnqjPD1EjUr5b0xnZeyJpmLwRvy8xuOWKT4_-MaO8Ikrt_1EJB5kDpItlmtA3CbGbmwtotXC0O1Lx6aGEnbf8BAC0kTVzqZYEJgxYkXattIvgdRoM7rOwhNqbJ-tM2C3kTIsoTYIHIsSDoJOA1F95glZpx-T6SFCVwA-gPfgW4lAJPnV2AA-wOPM5ssEXlO0?fife"" height=""200"" width=""auto"" /><br><br>住所: 〒915-0232 福井県越前市新在家町9-21-2<br>参加形態: 工房（見学・展示）, 販売, ワークショップ<br>紹介: 江戸時代の紙漉き家屋を移築復元した「卯立の工芸館」では、伝統工芸士が昔ながらの道具を使い、紙を漉く一連の様子を見学できます。また、伝統工芸士の指導のもとでチャレンジする本格的な「流し漉き」体験講座も行っています。<br>出展日: 6-8日<br>営業時間: 9:30-12:00 / 13:00-17:00 （入館は16:30まで、紙漉き見学は16:00まで）<br>電話番号: 0778-43-7800<br>Web: https://www.echizenwashi.jp/facility/udatsu<br>YouTube: ",〒915-0232 福井県越前市新在家町9-21-2,江戸時代の紙漉き家屋を移築復元した「卯立の工芸館」では、伝統工芸士が昔ながらの道具を使い、紙を漉く一連の様子を見学できます。また、伝統工芸士の指導のもとでチャレンジする本格的な「流し漉き」体験講座も行っています。,https://doc-14-00-mymaps.googleusercontent.com/untrusted/hostedimage/tjp71pbl755n1d9knaupn39qao/a93asr3isk8ke8v7ue9qg3n9ak/1696731300000/JZE0f6HJRobklDdF9DDVtADt9cDcsdY3/*/6AJ9UNGr_ge7UU5E7FiH66_q6wFGzB08bMa0M0rgLk8MlerId_5hYnqjPD1EjUr5b0xnZeyJpmLwRvy8xuOWKT4_-MaO8Ikrt_1EJB5kDpItlmtA3CbGbmwtotXC0O1Lx6aGEnbf8BAC0kTVzqZYEJgxYkXattIvgdRoM7rOwhNqbJ-tM2C3kTIsoTYIHIsSDoJOA1F95glZpx-T6SFCVwA-gPfgW4lAJPnV2AA-wOPM5ssEXlO0?fife,"工房（見学・展示）, 販売, ワークショップ",6-8日,9:30-12:00 / 13:00-17:00 （入館は16:30まで、紙漉き見学は16:00まで）,0778-43-7800,https://www.echizenwashi.jp/facility/udatsu,
清水和紙,越前和紙,images/icon-2.png,35.910811,136.2455082,清水和紙,"<img src=""https://doc-08-00-mymaps.googleusercontent.com/untrusted/hostedimage/tjp71pbl755n1d9knaupn39qao/i5565vngn56bfep4qi4m49rj04/1696731300000/JZE0f6HJRobklDdF9DDVtADt9cDcsdY3/*/6AJ9UNGrGs_mSucIvZ4mjvu9uYlQukYKyIuygCLHWi-5ZoTUcodCm9s0YHcy2x2GzI6lhF8bWJcxijhWkXuiKp46qz-VDrz5_HTfwOKm68NgiQGD3mj3BRZhAEViuMRSLg_cnTvXD-_4x77Raz_Z5mhnjQwMBYIdBidDiLRfQY8L42EJOnotbu6rxIluvf4t26LPjR1qNeyhG7gQRaXSyixhcvJwGbYCva8DeShp1HfdAkgRoL4w?fife"" height=""200"" width=""auto"" /><br><br>住所: 〒915-0232 福井県越前市新在家町10-2<br>参加形態: 販売, ワークショップ<br>紹介: 様々な種類の越前和紙を取り揃えた産地問屋です。和紙の美しさや技法、可能性を知ってもらえるように、多くの和紙に触れる機会を提供します。シンプルな商品が主ですが、素材の良さが伝わりやすい形にしています。<br>出展日: 6-8日<br>営業時間: 9:00-12:00 / 13:00-17:00<br>電話番号: 0778-43-1623<br>Web: http://www.shimizuwashi.com<br>YouTube: https://youtu.be/n4VB6DR8YPc?si=V3mt3hrrCYclfJOd",〒915-0232 福井県越前市新在家町10-2,様々な種類の越前和紙を取り揃えた産地問屋です。和紙の美しさや技法、可能性を知ってもらえるように、多くの和紙に触れる機会を提供します。シンプルな商品が主ですが、素材の良さが伝わりやすい形にしています。,https://doc-08-00-mymaps.googleusercontent.com/untrusted/hostedimage/tjp71pbl755n1d9knaupn39qao/i5565vngn56bfep4qi4m49rj04/1696731300000/JZE0f6HJRobklDdF9DDVtADt9cDcsdY3/*/6AJ9UNGrGs_mSucIvZ4mjvu9uYlQukYKyIuygCLHWi-5ZoTUcodCm9s0YHcy2x2GzI6lhF8bWJcxijhWkXuiKp46qz-VDrz5_HTfwOKm68NgiQGD3mj3BRZhAEViuMRSLg_cnTvXD-_4x77Raz_Z5mhnjQwMBYIdBidDiLRfQY8L42EJOnotbu6rxIluvf4t26LPjR1qNeyhG7gQRaXSyixhcvJwGbYCva8DeShp1HfdAkgRoL4w?fife,"販売, ワークショップ",6-8日,9:00-12:00 / 13:00-17:00,0778-43-1623,http://www.shimizuwashi.com,https://youtu.be/n4VB6DR8YPc?si=V3mt3hrrCYclfJOd
越前和紙の里 紙の文化博物館,越前和紙,images/icon-2.png,35.9103231,136.2461683,越前和紙の里 紙の文化博物館,"<img src=""https://doc-04-00-mymaps.googleusercontent.com/untrusted/hostedimage/tjp71pbl755n1d9knaupn39qao/0nn7mui522lpl0mavc41pmbs7g/1696731300000/JZE0f6HJRobklDdF9DDVtADt9cDcsdY3/*/6AJ9UNGpOGIxtLJ36fP3YJRP_6DvJBeovKKnkQI8QY6LkrPKWqaHsnSN7zmoBRXFrLdCbcwsJC1ohWZnk-uXey5BG69IhpOqAT8UG-wvr-flSNDz4yEQYxi2E6NvW8a6RF2Zee580im_w1F-7OhgesqZl6rmCA8YOo4uyuzhY71I77bKT4fTAB1xM6aIo1HfUIf_LWzdj7m8JbKfz1xD4RZiebyR6JwHuns2OrgVHC8GcQJSx7mQ?fife"" height=""200"" width=""auto"" /><br><br>住所: 〒915-0232 福井県越前市新在家町11-12<br>参加形態: 工房（見学・展示）<br>紹介: 1500年を越える歴史を有する越前和紙。紙の文化博物館ではその発祥や長い歴史、和紙を取り巻く人々の営みを学ぶことができます。また、産地を代表する和紙を360点展示する他、創作的な襖紙やタペストリーなどもご覧いただけます。古来より公文書、書画、出版、建築など日本の文化を支えてきた越前和紙の魅力について触れてください。<br>出展日: 6-8日<br>営業時間: 9:30-17:00(入館は16:30まで)<br>電話番号: 0778-42-0016<br>Web: https://www.echizenwashi.jp/facility/museum/<br>YouTube: ",〒915-0232 福井県越前市新在家町11-12,1500年を越える歴史を有する越前和紙。紙の文化博物館ではその発祥や長い歴史、和紙を取り巻く人々の営みを学ぶことができます。また、産地を代表する和紙を360点展示する他、創作的な襖紙やタペストリーなどもご覧いただけます。古来より公文書、書画、出版、建築など日本の文化を支えてきた越前和紙の魅力について触れてください。,https://doc-04-00-mymaps.googleusercontent.com/untrusted/hostedimage/tjp71pbl755n1d9knaupn39qao/0nn7mui522lpl0mavc41pmbs7g/1696731300000/JZE0f6HJRobklDdF9DDVtADt9cDcsdY3/*/6AJ9UNGpOGIxtLJ36fP3YJRP_6DvJBeovKKnkQI8QY6LkrPKWqaHsnSN7zmoBRXFrLdCbcwsJC1ohWZnk-uXey5BG69IhpOqAT8UG-wvr-flSNDz4yEQYxi2E6NvW8a6RF2Zee580im_w1F-7OhgesqZl6rmCA8YOo4uyuzhY71I77bKT4fTAB1xM6aIo1HfUIf_LWzdj7m8JbKfz1xD4RZiebyR6JwHuns2OrgVHC8GcQJSx7mQ?fife,工房（見学・展示）,6-8日,9:30-17:00(入館は16:30まで),0778-42-0016,https://www.echizenwashi.jp/facility/museum/,
清水紙工,越前和紙,images/icon-2.png,35.9099551,136.2466514,清水紙工,"<img src=""https://doc-08-00-mymaps.googleusercontent.com/untrusted/hostedimage/tjp71pbl755n1d9knaupn39qao/egb30regaaqitv2ptre5r9a3rc/1696731300000/JZE0f6HJRobklDdF9DDVtADt9cDcsdY3/*/6AJ9UNGpqB6ui0b6RYYa4Q34lm4ftHI01e8hK3bGETGPeHLohCPKx50il0qtJwqJXfWF_t0Wo1TuCt4qEZ1aAUXC_jeCsj1VtTMk-50yp-2RKZHFds_W_qdx_sa0NU5yjBcYQTUnNZwH9g6mf2Z6wj3BCcED8an16e4zUhPy_Q_FgN_qULEq_yZt9KNuXoLKI9de_tClM5p5RPi94eLKlkVJrJLxKusgeOtTnM_3MsWUnXbHIlAE?fife"" height=""200"" width=""auto"" /><br><br>住所: 〒915-0232 福井県越前市新在家町11-11-1<br>参加形態: 工房（見学・展示）, 販売<br>紹介: 昭和22年に和紙の加工専業メーカーとして創業。現在では、紙の加工にとどまらず、Podcastで紙にまつわる情報を発信したり、Social goodな紙の作り方や使い方を提案する「Paper for good」といったプロジェクトにも取り組んでいます。<br>出展日: 6・7日<br>営業時間: 10:00-16:00<br>電話番号: 0778-42-0461<br>Web: https://www.instagram.com/shimizu_shikoh/<br>YouTube: ",〒915-0232 福井県越前市新在家町11-11-1,昭和22年に和紙の加工専業メーカーとして創業。現在では、紙の加工にとどまらず、Podcastで紙にまつわる情報を発信したり、Social goodな紙の作り方や使い方を提案する「Paper for good」といったプロジェクトにも取り組んでいます。,https://doc-08-00-mymaps.googleusercontent.com/untrusted/hostedimage/tjp71pbl755n1d9knaupn39qao/egb30regaaqitv2ptre5r9a3rc/1696731300000/JZE0f6HJRobklDdF9DDVtADt9cDcsdY3/*/6AJ9UNGpqB6ui0b6RYYa4Q34lm4ftHI01e8hK3bGETGPeHLohCPKx50il0qtJwqJXfWF_t0Wo1TuCt4qEZ1aAUXC_jeCsj1VtTMk-50yp-2RKZHFds_W_qdx_sa0NU5yjBcYQTUnNZwH9g6mf2Z6wj3BCcED8an16e4zUhPy_Q_FgN_qULEq_yZt9KNuXoLKI9de_tClM5p5RPi94eLKlkVJrJLxKusgeOtTnM_3MsWUnXbHIlAE?fife,"工房（見学・展示）, 販売",6・7日,10:00-16:00,0778-42-0461,https://www.instagram.com/shimizu_shikoh/,
瀧株式会社・TAKIPAPER,越前和紙,images/icon-2.png,35.908467,136.2436484,瀧株式会社・TAKIPAPER,"<img src=""https://doc-04-00-mymaps.googleusercontent.com/untrusted/hostedimage/tjp71pbl755n1d9knaupn39qao/ao4sb57jr1llp441v14t8dm6gc/1696731300000/JZE0f6HJRobklDdF9DDVtADt9cDcsdY3/*/6AJ9UNGpZjQjXJCRvlW-Yt9KJp5kajs8fGWganCmUVJDS6C2yqf3GB20P5jbaLQqTtLDzTMiAVf7wAYxPAcA7sfIXjdS3KUEwnDu4I4ba_E84UmKSHTI0V8N3ss8zOhqnfWCTkBQp7DJvGtyhWUa9nzYDJxi1arwxrXwvJsyrazWVj_HDqcPBjZWyDIBYeZJqwY4nHaZCCizZYBMJxBpANPVsC8a5ZGbhP4NraTNzFsxe2I96MRo?fife"" height=""200"" width=""auto"" /><br><br>住所: 〒915-0233 福井県越前市岩本町2-26<br>参加形態: 工房（見学・展示）, 販売<br>紹介: 機械漉きやスクリーン印刷をメインに、手漉きや箔押しなどの製造加工も行う和紙工場です。紙漉きから印刷まで一貫生産を行っており、福井ふるさと企業に認定されています。<br>出展日: 6・7日<br>営業時間: 10:00-12:00 / 13:00-16:00<br>電話番号: 0778-43-0824<br>Web: https://www.takipaper.com/<br>YouTube: https://youtu.be/sdfNGHsPbCk?si=EyvtImv3VrhQSkGn",〒915-0233 福井県越前市岩本町2-26,機械漉きやスクリーン印刷をメインに、手漉きや箔押しなどの製造加工も行う和紙工場です。紙漉きから印刷まで一貫生産を行っており、福井ふるさと企業に認定されています。,https://doc-04-00-mymaps.googleusercontent.com/untrusted/hostedimage/tjp71pbl755n1d9knaupn39qao/ao4sb57jr1llp441v14t8dm6gc/1696731300000/JZE0f6HJRobklDdF9DDVtADt9cDcsdY3/*/6AJ9UNGpZjQjXJCRvlW-Yt9KJp5kajs8fGWganCmUVJDS6C2yqf3GB20P5jbaLQqTtLDzTMiAVf7wAYxPAcA7sfIXjdS3KUEwnDu4I4ba_E84UmKSHTI0V8N3ss8zOhqnfWCTkBQp7DJvGtyhWUa9nzYDJxi1arwxrXwvJsyrazWVj_HDqcPBjZWyDIBYeZJqwY4nHaZCCizZYBMJxBpANPVsC8a5ZGbhP4NraTNzFsxe2I96MRo?fife,"工房（見学・展示）, 販売",6・7日,10:00-12:00 / 13:00-16:00,0778-43-0824,https://www.takipaper.com/,https://youtu.be/sdfNGHsPbCk?si=EyvtImv3VrhQSkGn
越前和紙ろまん・工房ひこざ,越前和紙,images/icon-2.png,35.909008,136.246746,越前和紙ろまん・工房ひこざ,"<img src=""https://doc-00-00-mymaps.googleusercontent.com/untrusted/hostedimage/tjp71pbl755n1d9knaupn39qao/d7s7d11ue0ui3uoc2j3lkn7jrk/1696731300000/JZE0f6HJRobklDdF9DDVtADt9cDcsdY3/*/6AJ9UNGqhUtqG67oCWEgoa-Ypc7iQa3_QouAgBKOaRXP6_h0WMldmcegRJZAIR1adpA5FybCmR0NnB73gw5yydYH35vCNHW9Tw0uKEtPBX7r8danu7-V0tq2eFhOF-arCxSO_CRobQQH1MgdByAJy2dV-jHR79ahUWxnOOyxTW8rC9udWqxRmOmawQWpohCgs2WcJlZ0pj2FpHSi6y_BSnexKrPjSEMbebAd1QD1azZIuT4MtRcw?fife"" height=""200"" width=""auto"" /><br><br>住所: 〒915-0233 福井県越前市岩本町10-37<br>参加形態: 販売<br>紹介: ""和紙を使った雑貨品の製造販売を行っています。食卓において…今日の楽しみ、明日の楽しみが発見出来る商品の開発をしてやさしさと心のゆとりを生み出す恋心ある和紙らしい和紙を展示しています。<br>""<br>出展日: 6-8日<br>営業時間: 9:00-17:00<br>電話番号: 0778-43-0033<br>Web: <br>YouTube: ",〒915-0233 福井県越前市岩本町10-37,"""和紙を使った雑貨品の製造販売を行っています。食卓において…今日の楽しみ、明日の楽しみが発見出来る商品の開発をしてやさしさと心のゆとりを生み出す恋心ある和紙らしい和紙を展示しています。
""",https://doc-00-00-mymaps.googleusercontent.com/untrusted/hostedimage/tjp71pbl755n1d9knaupn39qao/d7s7d11ue0ui3uoc2j3lkn7jrk/1696731300000/JZE0f6HJRobklDdF9DDVtADt9cDcsdY3/*/6AJ9UNGqhUtqG67oCWEgoa-Ypc7iQa3_QouAgBKOaRXP6_h0WMldmcegRJZAIR1adpA5FybCmR0NnB73gw5yydYH35vCNHW9Tw0uKEtPBX7r8danu7-V0tq2eFhOF-arCxSO_CRobQQH1MgdByAJy2dV-jHR79ahUWxnOOyxTW8rC9udWqxRmOmawQWpohCgs2WcJlZ0pj2FpHSi6y_BSnexKrPjSEMbebAd1QD1azZIuT4MtRcw?fife,販売,6-8日,9:00-17:00,0778-43-0033,,
山田兄弟製紙・久兵衛,越前和紙,images/icon-2.png,35.905755,136.243541,山田兄弟製紙・久兵衛,"<img src=""https://doc-0o-00-mymaps.googleusercontent.com/untrusted/hostedimage/tjp71pbl755n1d9knaupn39qao/i0b06ae53qta223aiv5np7aca4/1696731300000/JZE0f6HJRobklDdF9DDVtADt9cDcsdY3/*/6AJ9UNGr7Mvx0U1O8XyZKGPGXS43FIO4-2WSO2rx5WMMlhlH6hidWeU8S1913cBrPOVYT2KlKigiHWBugougS9Y1gIZ9m-dFSrWccCe3ljV6uGRBBRpqNIN0FwhFGWOMeN0ohU0mCJcMx0KBeDprV5VTiLx14deGY2yEdOHvV_YOCs-rEmxUqQpTEzcq01XCGRNKZX__Dg4YPNoYVbvXPLlWYo8uajYEdE3_Z272fWoJZqeddeDU?fife"" height=""200"" width=""auto"" /><br><br>住所: 〒915-0235 福井県越前市不老町15-4<br>参加形態: 工房（見学・展示）, 販売, ワークショップ<br>紹介: 越前和紙の機械抄き製紙メーカーです。オリジナルブランド「久兵衛」にて、和紙の文房具の販売も行っています。<br>出展日: 6-8日<br>営業時間: 10:00-12:00 / 13:00-16:00<br>電話番号: 0778-43-0043<br>Web: http://www.yamada-keitei.com/<br>YouTube: ",〒915-0235 福井県越前市不老町15-4,越前和紙の機械抄き製紙メーカーです。オリジナルブランド「久兵衛」にて、和紙の文房具の販売も行っています。,https://doc-0o-00-mymaps.googleusercontent.com/untrusted/hostedimage/tjp71pbl755n1d9knaupn39qao/i0b06ae53qta223aiv5np7aca4/1696731300000/JZE0f6HJRobklDdF9DDVtADt9cDcsdY3/*/6AJ9UNGr7Mvx0U1O8XyZKGPGXS43FIO4-2WSO2rx5WMMlhlH6hidWeU8S1913cBrPOVYT2KlKigiHWBugougS9Y1gIZ9m-dFSrWccCe3ljV6uGRBBRpqNIN0FwhFGWOMeN0ohU0mCJcMx0KBeDprV5VTiLx14deGY2yEdOHvV_YOCs-rEmxUqQpTEzcq01XCGRNKZX__Dg4YPNoYVbvXPLlWYo8uajYEdE3_Z272fWoJZqeddeDU?fife,"工房（見学・展示）, 販売, ワークショップ",6-8日,10:00-12:00 / 13:00-16:00,0778-43-0043,http://www.yamada-keitei.com/,
和紙屋・杉原商店,越前和紙,images/icon-2.png,35.907233,136.244577,和紙屋・杉原商店,"<img src=""https://doc-0c-00-mymaps.googleusercontent.com/untrusted/hostedimage/tjp71pbl755n1d9knaupn39qao/qm3ptm5c420sjsjkocr9q6oq00/1696731300000/JZE0f6HJRobklDdF9DDVtADt9cDcsdY3/*/6AJ9UNGojNKJ1ANG7UN3HtigR5OeGAA1wwyPoPCXZSAb6l0je-dBYbeuUv7_IeDuitq-z4ELrG4fiV-JQixBrjMmExgBwBszHKT738C8W3t8XYT2XerLgGcVBtdyKlEUa6RU1FX1BmqU7EeMYQuhRQAiJE0F87xgJS0ku72pOXBz3-UQYbljf1eiJgtanjFpo-_UPCoFAdbvvfNbe2X6uuTpcsNby8NU1VOdeuW2RQZrAUvT2-NI?fife"" height=""200"" width=""auto"" /><br><br>住所: 〒915-0235 福井県越前市不老町17-2<br>参加形態: 販売<br>紹介: 明治4年創業の和紙問屋。100年前の土蔵をギャラリーにして、様々な和紙の展示販売を行っています。漆と和紙を融合させたものや、伝統技法の透かし技術を使った和紙など様々な越前和紙に触れることができます。<br>出展日: 6-8日<br>営業時間: 6・8日 8:30-15:30 7日 8:30-13:30<br>電話番号: 0778-42-0032<br>Web: https://www.washiya.com/<br>YouTube: ",〒915-0235 福井県越前市不老町17-2,明治4年創業の和紙問屋。100年前の土蔵をギャラリーにして、様々な和紙の展示販売を行っています。漆と和紙を融合させたものや、伝統技法の透かし技術を使った和紙など様々な越前和紙に触れることができます。,https://doc-0c-00-mymaps.googleusercontent.com/untrusted/hostedimage/tjp71pbl755n1d9knaupn39qao/qm3ptm5c420sjsjkocr9q6oq00/1696731300000/JZE0f6HJRobklDdF9DDVtADt9cDcsdY3/*/6AJ9UNGojNKJ1ANG7UN3HtigR5OeGAA1wwyPoPCXZSAb6l0je-dBYbeuUv7_IeDuitq-z4ELrG4fiV-JQixBrjMmExgBwBszHKT738C8W3t8XYT2XerLgGcVBtdyKlEUa6RU1FX1BmqU7EeMYQuhRQAiJE0F87xgJS0ku72pOXBz3-UQYbljf1eiJgtanjFpo-_UPCoFAdbvvfNbe2X6uuTpcsNby8NU1VOdeuW2RQZrAUvT2-NI?fife,販売,6-8日,6・8日 8:30-15:30 7日 8:30-13:30,0778-42-0032,https://www.washiya.com/,
RYOZO - 柳瀬良三製紙所,越前和紙,images/icon-2.png,35.90741360000001,136.2464356,RYOZO - 柳瀬良三製紙所,"<img src=""https://doc-0o-00-mymaps.googleusercontent.com/untrusted/hostedimage/tjp71pbl755n1d9knaupn39qao/72r3uprmsncn221gp57blcg82c/1696731300000/JZE0f6HJRobklDdF9DDVtADt9cDcsdY3/*/6AJ9UNGokSWHVzbnepbmFZDafJNTmwWBfMX47KcSA7wlXJFdXPWirIvR00I3kGmVZV6SDy-bZFnz9dakY91uSet0SxRpyrgFhGT_786A4Q6kX8CW-DcCQKj5FWovmg8GkLa4TxClbnEkWu69U-CWqas7xZok0ZfJcpFXgjxaP-HNAVbChNwzkdt0mOoDvKumFVLwwWQsk_5ntso5l-l-gieZo8Q_NwRJkGk7O3lS7jYxyeK6R6Xg?fife"" height=""200"" width=""auto"" /><br><br>住所: 〒915-0234 福井県越前市大滝町10-1<br>参加形態: 工房（見学・展示）, 販売, ワークショップ<br>紹介: 越前和紙の製造、小物販売、紙漉き体験工房の柳瀬良三製紙所です。柳瀬良三製紙所では1枚1枚手漉きしており、先代から伝わる和紙は光が透けるほど薄く、しなやかな風合いが特徴です。<br><br>（併設）【fill】<br>小さなアトリエfillがRYOZO SHOPgallery space2Fに3日間限定pop up shopとして出店します。生活衣服、装飾の展示販売、越前和紙と融合した空間デザインをお楽しみください。予約不要、どなたでもご覧いただけます。<br>6日10:00-12:00/13:00-16:00<br>7・8日10:00-12:00/13:00-17:00 <br><br>出展日: 6-8日<br>営業時間: 10:00-17:00<br>電話番号: 0778-42-1155<br><br>Web: https://washi.website/<br>YouTube: ",〒915-0234 福井県越前市大滝町10-1,"越前和紙の製造、小物販売、紙漉き体験工房の柳瀬良三製紙所です。柳瀬良三製紙所では1枚1枚手漉きしており、先代から伝わる和紙は光が透けるほど薄く、しなやかな風合いが特徴です。

（併設）【fill】
小さなアトリエfillがRYOZO SHOPgallery space2Fに3日間限定pop up shopとして出店します。生活衣服、装飾の展示販売、越前和紙と融合した空間デザインをお楽しみください。予約不要、どなたでもご覧いただけます。
6日10:00-12:00/13:00-16:00
7・8日10:00-12:00/13:00-17:00",https://doc-0o-00-mymaps.googleusercontent.com/untrusted/hostedimage/tjp71pbl755n1d9knaupn39qao/72r3uprmsncn221gp57blcg82c/1696731300000/JZE0f6HJRobklDdF9DDVtADt9cDcsdY3/*/6AJ9UNGokSWHVzbnepbmFZDafJNTmwWBfMX47KcSA7wlXJFdXPWirIvR00I3kGmVZV6SDy-bZFnz9dakY91uSet0SxRpyrgFhGT_786A4Q6kX8CW-DcCQKj5FWovmg8GkLa4TxClbnEkWu69U-CWqas7xZok0ZfJcpFXgjxaP-HNAVbChNwzkdt0mOoDvKumFVLwwWQsk_5ntso5l-l-gieZo8Q_NwRJkGk7O3lS7jYxyeK6R6Xg?fife,"工房（見学・展示）, 販売, ワークショップ",6-8日,10:00-17:00,0778-42-1155,https://washi.website/,
滝製紙所,越前和紙,images/icon-2.png,35.905733,136.249437,滝製紙所,"<img src=""https://doc-0s-00-mymaps.googleusercontent.com/untrusted/hostedimage/tjp71pbl755n1d9knaupn39qao/lmelsk8e5u2ne62f8sgun4bsv8/1696731300000/JZE0f6HJRobklDdF9DDVtADt9cDcsdY3/*/6AJ9UNGr3IpaZb8XAXYiI7VX_uvoZZzeGtFymr0QYoaHShBKbDfDoun5G074CgFAn3tNIR_M7mAhUgJDO6sLzt4hsO5XKGKprMld4lxHlCz7Fm0C-HpC1aHJoXs9kFbI77QrUUGXzYGkShRegHQm1_BqgYzUptt_g0iCzIXlr4HqXZ_qed2hpli6_nKBbsX0Krp9vdsJs_Mg87GvadZ_XKMJ0Pq-TQ9pYRpq5kmhdCuuC_KzRwCE?fife"" height=""200"" width=""auto"" /><br><br>住所: 〒915-0234 福井県越前市大滝町27−30<br>参加形態: 工房（見学・展示）, 販売<br>紹介: 1875年創業。手漉きと機械抄きにて大紙（約100cm×200cm）を製紙しています。手漉きでは襖紙や創作和紙、全国唯一の襖判檀紙等を製造。機械漉きは2ｍ幅で抄紙可能。暮らしからアートまで枠に嵌らない和紙を製造しています。<br>出展日: 6-8日<br>営業時間: 6・7日 10:00-12:00 / 13:00-16:00 8日 10:00-12:00<br>電話番号: 0778−43−0332<br>Web: https://www.takiseishi.com/<br>YouTube: https://youtu.be/i0jkWbQ0Tgw?si=dTWrCK6hUPTBXTKj",〒915-0234 福井県越前市大滝町27−30,1875年創業。手漉きと機械抄きにて大紙（約100cm×200cm）を製紙しています。手漉きでは襖紙や創作和紙、全国唯一の襖判檀紙等を製造。機械漉きは2ｍ幅で抄紙可能。暮らしからアートまで枠に嵌らない和紙を製造しています。,https://doc-0s-00-mymaps.googleusercontent.com/untrusted/hostedimage/tjp71pbl755n1d9knaupn39qao/lmelsk8e5u2ne62f8sgun4bsv8/1696731300000/JZE0f6HJRobklDdF9DDVtADt9cDcsdY3/*/6AJ9UNGr3IpaZb8XAXYiI7VX_uvoZZzeGtFymr0QYoaHShBKbDfDoun5G074CgFAn3tNIR_M7mAhUgJDO6sLzt4hsO5XKGKprMld4lxHlCz7Fm0C-HpC1aHJoXs9kFbI77QrUUGXzYGkShRegHQm1_BqgYzUptt_g0iCzIXlr4HqXZ_qed2hpli6_nKBbsX0Krp9vdsJs_Mg87GvadZ_XKMJ0Pq-TQ9pYRpq5kmhdCuuC_KzRwCE?fife,"工房（見学・展示）, 販売",6-8日,6・7日 10:00-12:00 / 13:00-16:00 8日 10:00-12:00,0778−43−0332,https://www.takiseishi.com/,https://youtu.be/i0jkWbQ0Tgw?si=dTWrCK6hUPTBXTKj
長田製紙所,越前和紙,images/icon-2.png,35.90473799999999,136.2505052,長田製紙所,"<img src=""https://doc-10-00-mymaps.googleusercontent.com/untrusted/hostedimage/tjp71pbl755n1d9knaupn39qao/4deg3uccf83b62d5em9b2ibat4/1696731300000/JZE0f6HJRobklDdF9DDVtADt9cDcsdY3/*/6AJ9UNGr9rTw0Oo7E_vkCp2qx-fbT-NYtYQvDZWJ3KQKTVsc4dDMDBkdyQhFy8e90kgc0UP6cDvSGYbXB7IHJrb-5hWJUGHbdTcpe_uN-FoaFKAZwV2CwoDo9qtBap5LXNsGlLcN8ctForxRa3jEGRJnphBu1dI7Nxuj8g7ITQwOwQkNSlbClqrzRglnoniaFMYmxWFraNt0wnCEAncZjArU_lrVH_EPiNy-nPLIrFLgAWP1AAcY?fife"" height=""200"" width=""auto"" /><br><br>住所: 〒915-0234 福井県越前市大滝町29‐39<br>参加形態: 工房（見学・展示）, 販売, ワークショップ<br>紹介: 1909年創業の手漉き大判和紙工場です。原料の煮熟から板張り乾燥まで、手作業ならではの襖紙や壁紙の製造、柿渋塗りや雑貨の加工など、多岐にわたる仕事をしています。<br>出展日: 6-8日<br>営業時間: 10:00-12:00/13:00-17:00<br>電話番号: 0778‐42‐0051<br>Web: https://osada-washi.jp/<br>YouTube: ",〒915-0234 福井県越前市大滝町29‐39,1909年創業の手漉き大判和紙工場です。原料の煮熟から板張り乾燥まで、手作業ならではの襖紙や壁紙の製造、柿渋塗りや雑貨の加工など、多岐にわたる仕事をしています。,https://doc-10-00-mymaps.googleusercontent.com/untrusted/hostedimage/tjp71pbl755n1d9knaupn39qao/4deg3uccf83b62d5em9b2ibat4/1696731300000/JZE0f6HJRobklDdF9DDVtADt9cDcsdY3/*/6AJ9UNGr9rTw0Oo7E_vkCp2qx-fbT-NYtYQvDZWJ3KQKTVsc4dDMDBkdyQhFy8e90kgc0UP6cDvSGYbXB7IHJrb-5hWJUGHbdTcpe_uN-FoaFKAZwV2CwoDo9qtBap5LXNsGlLcN8ctForxRa3jEGRJnphBu1dI7Nxuj8g7ITQwOwQkNSlbClqrzRglnoniaFMYmxWFraNt0wnCEAncZjArU_lrVH_EPiNy-nPLIrFLgAWP1AAcY?fife,"工房（見学・展示）, 販売, ワークショップ",6-8日,10:00-12:00/13:00-17:00,0778‐42‐0051,https://osada-washi.jp/,
やなせ和紙,越前和紙,images/icon-2.png,35.904928,136.251271,やなせ和紙,"<img src=""https://doc-00-00-mymaps.googleusercontent.com/untrusted/hostedimage/tjp71pbl755n1d9knaupn39qao/g0jle8v1bq32ln6feup62omdes/1696731300000/JZE0f6HJRobklDdF9DDVtADt9cDcsdY3/*/6AJ9UNGq8XsA1PuPoqej2zauXXkNVLwJ4wXZpZYUGnwTxGUVF9EusOSFtltCrhHSUXCyD2Y2a06ygo41MBXdL-OO3zOgE0h83yi71ZUfDjklMczpTdre8FBp3hKvCngXh8ZtuYOuChrPJ8UzVojMoxoDSZ0SLp52TmHhZigu2vuiBdAPOIL6bwtRlDiugRqLqhfxfXMuPO1oqG3LM8Pker3EA66YzGQrIBU9Q0muM9D6zuC8znOc?fife"" height=""200"" width=""auto"" /><br><br>住所: 〒915-0234 福井県越前市大滝町24-21<br>参加形態: 工房（見学・展示）, 販売, ワークショップ<br>紹介: 本鳥の子紙などの無地の襖紙や、雲肌などの模様のある襖紙を主に漉いています。また、障子紙や壁紙、和紙を用いた小物も製作しています。皆様の暮らしの中に和紙がある、そのことも目指し、今後も精進してまいる所存です。<br>出展日: 6-8日<br>営業時間: 9:00-12:00 / 13:00-16:00<br>電話番号: 0778-43-0639<br>Web: https://washicco.jp<br>YouTube: https://youtu.be/oChuZqHDu6s?si=EsWtZ_wSdTZPp_pe",〒915-0234 福井県越前市大滝町24-21,本鳥の子紙などの無地の襖紙や、雲肌などの模様のある襖紙を主に漉いています。また、障子紙や壁紙、和紙を用いた小物も製作しています。皆様の暮らしの中に和紙がある、そのことも目指し、今後も精進してまいる所存です。,https://doc-00-00-mymaps.googleusercontent.com/untrusted/hostedimage/tjp71pbl755n1d9knaupn39qao/g0jle8v1bq32ln6feup62omdes/1696731300000/JZE0f6HJRobklDdF9DDVtADt9cDcsdY3/*/6AJ9UNGq8XsA1PuPoqej2zauXXkNVLwJ4wXZpZYUGnwTxGUVF9EusOSFtltCrhHSUXCyD2Y2a06ygo41MBXdL-OO3zOgE0h83yi71ZUfDjklMczpTdre8FBp3hKvCngXh8ZtuYOuChrPJ8UzVojMoxoDSZ0SLp52TmHhZigu2vuiBdAPOIL6bwtRlDiugRqLqhfxfXMuPO1oqG3LM8Pker3EA66YzGQrIBU9Q0muM9D6zuC8znOc?fife,"工房（見学・展示）, 販売, ワークショップ",6-8日,9:00-12:00 / 13:00-16:00,0778-43-0639,https://washicco.jp,https://youtu.be/oChuZqHDu6s?si=EsWtZ_wSdTZPp_pe
山次製紙所,越前和紙,images/icon-2.png,35.9035113,136.2510595,山次製紙所,"<img src=""https://doc-0g-00-mymaps.googleusercontent.com/untrusted/hostedimage/tjp71pbl755n1d9knaupn39qao/pmc63j7ggvi1scvb7gocqkrlfg/1696731300000/JZE0f6HJRobklDdF9DDVtADt9cDcsdY3/*/6AJ9UNGr8dyLZEaLCd_gO-L1P8C-bhwOzL5xDFXGvMN9gs_dGsC365aA87twTMOL9GfsIAEQ2X2j76X1-AsqWcMjeVsRQiqfT5OTsAMt-ekfaonZEa79kUJIenAx2Ba4z58m4H1dI3Supq55sodDM9HZQCazIV0trkRxnAn38csw9VYy5fKCTU8TB3ZZuB3Dde_7qt88lMnhxGK8LjHw9_zxruDIByyCm1wWMNIxqadFV4P7yT14?fife"" height=""200"" width=""auto"" /><br><br>住所: 〒915-0234 福井県越前市大滝町29-5<br>参加形態: 工房（見学・展示）, 販売<br>紹介: 明治元年創業の手漉き越前和紙のメーカー。『和紙を現代のあたりまえに』をビジョンに掲げ、製作に取り組んでいます。受け継がれてきたものを大切にしながら、現代の技術と合わせたり、新たな技法を生み出したりして和紙の可能性を探求し続けます。<br><br>(併設)<br>【sufuto】<br>“祝いの品々”を提案するブランド。熨斗袋や名刺入れ、ふくさなどおよそ四千年の歴史を誇る「綴織（つづれおり）」を継承するメーカー清原織物が運営しています。<br>6-8日 9:30-16:00<br>連絡先：077-583-5711<br><br>出展日: 6-8日<br>営業時間: 9:00-12:00/13:00-17:00<br>電話番号: 0778-42-0553<br>Web: https://yamatsugi-seishi.com/<br>YouTube: <br><br><img src=""https://doc-0o-00-mymaps.googleusercontent.com/untrusted/hostedimage/tjp71pbl755n1d9knaupn39qao/3vf40d04mp3ral06r145rs4jkc/1696731300000/JZE0f6HJRobklDdF9DDVtADt9cDcsdY3/*/6AJ9UNGpWIUff8UAYIZSGw3PlaN0eS9Oo79Fo9B35ULiZ_wBE9wDRlGW8jsVJ0r9FG5j0xdB7cx-uWglf01Zgk8g7_UNgO8ztQ0XLa1iHmJrQ8LFBSpBVyN5glrvfLXARLzG62U5K3x8blNHZQGnj0IkCS01tUdd2QtGh1MsmGg4MNL3SHUAAI_7YOvLyiDBYZSeyFDXk82Qrh3KOTzg0a4ncd4Y7rypgSYggh93NGKAfdtuvGmY?fife"" height=""200"" width=""auto"" />",〒915-0234 福井県越前市大滝町29-5,"明治元年創業の手漉き越前和紙のメーカー。『和紙を現代のあたりまえに』をビジョンに掲げ、製作に取り組んでいます。受け継がれてきたものを大切にしながら、現代の技術と合わせたり、新たな技法を生み出したりして和紙の可能性を探求し続けます。

(併設)
【sufuto】
“祝いの品々”を提案するブランド。熨斗袋や名刺入れ、ふくさなどおよそ四千年の歴史を誇る「綴織（つづれおり）」を継承するメーカー清原織物が運営しています。
6-8日 9:30-16:00
連絡先：077-583-5711",https://doc-0g-00-mymaps.googleusercontent.com/untrusted/hostedimage/tjp71pbl755n1d9knaupn39qao/pmc63j7ggvi1scvb7gocqkrlfg/1696731300000/JZE0f6HJRobklDdF9DDVtADt9cDcsdY3/*/6AJ9UNGr8dyLZEaLCd_gO-L1P8C-bhwOzL5xDFXGvMN9gs_dGsC365aA87twTMOL9GfsIAEQ2X2j76X1-AsqWcMjeVsRQiqfT5OTsAMt-ekfaonZEa79kUJIenAx2Ba4z58m4H1dI3Supq55sodDM9HZQCazIV0trkRxnAn38csw9VYy5fKCTU8TB3ZZuB3Dde_7qt88lMnhxGK8LjHw9_zxruDIByyCm1wWMNIxqadFV4P7yT14?fife https://doc-0o-00-mymaps.googleusercontent.com/untrusted/hostedimage/tjp71pbl755n1d9knaupn39qao/3vf40d04mp3ral06r145rs4jkc/1696731300000/JZE0f6HJRobklDdF9DDVtADt9cDcsdY3/*/6AJ9UNGpWIUff8UAYIZSGw3PlaN0eS9Oo79Fo9B35ULiZ_wBE9wDRlGW8jsVJ0r9FG5j0xdB7cx-uWglf01Zgk8g7_UNgO8ztQ0XLa1iHmJrQ8LFBSpBVyN5glrvfLXARLzG62U5K3x8blNHZQGnj0IkCS01tUdd2QtGh1MsmGg4MNL3SHUAAI_7YOvLyiDBYZSeyFDXk82Qrh3KOTzg0a4ncd4Y7rypgSYggh93NGKAfdtuvGmY?fife,"工房（見学・展示）, 販売",6-8日,9:00-12:00/13:00-17:00,0778-42-0553,https://yamatsugi-seishi.com/,
五十嵐製紙,越前和紙,images/icon-2.png,35.90764470000001,136.2480011,五十嵐製紙,"<img src=""https://doc-08-00-mymaps.googleusercontent.com/untrusted/hostedimage/tjp71pbl755n1d9knaupn39qao/6573auhnabeeh6m45qfk0m95f8/1696731300000/JZE0f6HJRobklDdF9DDVtADt9cDcsdY3/*/6AJ9UNGr3zxAS1uAoVd5CK1jYCrDqDoprkH0jn0P7kEYBCmLZMCJdap9yiLopdGBP0BKLmFnJArJcuBd2Ld5sBubG4qEurVbk-iFgATIdsZewwJWOqB0YNPpaMRUJdKXU3uUtrHToKyeQVLcSmrItL-s41etRFk3k9QeR1t-Utar3wRCinUqwbK-FT--u2Ixmx2u1JUl7VG3FqqKLwxZR-kaEdKhPqZWKYLkQgrjB1UvR3DRcp_M?fife"" height=""200"" width=""auto"" /><br><br>住所: 〒915-0233 福井県越前市岩本町12-14<br>参加形態: 工房（見学・展示）, 販売, ワークショップ<br>紹介: 創業100年の越前和紙製造メーカー。壁紙・襖紙・小間紙・創作和紙・小物・Food Paperを漉いています。創作和紙は最大10ｍサイズの和紙を漉くことができ、有名アーティストにも好評を頂いています。<br>出展日: 6-8日<br>営業時間: 9:00-17:00<br>電話番号: 0778-43-0267<br>Web: http://www.wagamiya.com<br>YouTube: https://youtu.be/KBTf8Ui-gLY?si=Fri8YZBpquWoaQ1W",〒915-0233 福井県越前市岩本町12-14,創業100年の越前和紙製造メーカー。壁紙・襖紙・小間紙・創作和紙・小物・Food Paperを漉いています。創作和紙は最大10ｍサイズの和紙を漉くことができ、有名アーティストにも好評を頂いています。,https://doc-08-00-mymaps.googleusercontent.com/untrusted/hostedimage/tjp71pbl755n1d9knaupn39qao/6573auhnabeeh6m45qfk0m95f8/1696731300000/JZE0f6HJRobklDdF9DDVtADt9cDcsdY3/*/6AJ9UNGr3zxAS1uAoVd5CK1jYCrDqDoprkH0jn0P7kEYBCmLZMCJdap9yiLopdGBP0BKLmFnJArJcuBd2Ld5sBubG4qEurVbk-iFgATIdsZewwJWOqB0YNPpaMRUJdKXU3uUtrHToKyeQVLcSmrItL-s41etRFk3k9QeR1t-Utar3wRCinUqwbK-FT--u2Ixmx2u1JUl7VG3FqqKLwxZR-kaEdKhPqZWKYLkQgrjB1UvR3DRcp_M?fife,"工房（見学・展示）, 販売, ワークショップ",6-8日,9:00-17:00,0778-43-0267,http://www.wagamiya.com,https://youtu.be/KBTf8Ui-gLY?si=Fri8YZBpquWoaQ1W
山岸和紙店,越前和紙,images/icon-2.png,35.9215035,136.2471608,山岸和紙店,"<img src=""https://doc-14-00-mymaps.googleusercontent.com/untrusted/hostedimage/tjp71pbl755n1d9knaupn39qao/cotprbo9jp31aksjjp5fa959bk/1696731300000/JZE0f6HJRobklDdF9DDVtADt9cDcsdY3/*/6AJ9UNGp3LNnRftaHnPrHa1gojmuidNDu4W_6Q-dunK6rzD5hR9wSYHwAzmuxvceAsIA88ute_vjpBoBVyE4PrLL1KGvDoYAq6CNQkkk7TARAM1u_jGG1ywr5c2mKj_bBPiHcOYZ1kwKMaz0zejyKEKvjnAD57UyiSH5aDJHbgY_43IYya2hlT34gh8C4iMzSA1xhv_FFxsiWMvuSGHtTdxq9mIam1cVABGcsv0wLhqb706VrEDY?fife"" height=""200"" width=""auto"" /><br><br>住所: 〒915-0231 福井県越前市定友町23-7-1<br>参加形態: 販売, ワークショップ<br>紹介: 襖紙や壁紙などの内装材をはじめ、用途に合わせた様々な越前和紙の卸販売をさせて頂いております。越前和紙の産地問屋として、豊富な経験と知識でお客様に合った和紙をご提案致します。<br>出展日: 6-8日<br>営業時間: 6・7日 10:00-17:00 8日 10:00-16:00<br>電話番号: 0778-43-0308<br>Web: https://washism.com/<br>YouTube: ",〒915-0231 福井県越前市定友町23-7-1,襖紙や壁紙などの内装材をはじめ、用途に合わせた様々な越前和紙の卸販売をさせて頂いております。越前和紙の産地問屋として、豊富な経験と知識でお客様に合った和紙をご提案致します。,https://doc-14-00-mymaps.googleusercontent.com/untrusted/hostedimage/tjp71pbl755n1d9knaupn39qao/cotprbo9jp31aksjjp5fa959bk/1696731300000/JZE0f6HJRobklDdF9DDVtADt9cDcsdY3/*/6AJ9UNGp3LNnRftaHnPrHa1gojmuidNDu4W_6Q-dunK6rzD5hR9wSYHwAzmuxvceAsIA88ute_vjpBoBVyE4PrLL1KGvDoYAq6CNQkkk7TARAM1u_jGG1ywr5c2mKj_bBPiHcOYZ1kwKMaz0zejyKEKvjnAD57UyiSH5aDJHbgY_43IYya2hlT34gh8C4iMzSA1xhv_FFxsiWMvuSGHtTdxq9mIam1cVABGcsv0wLhqb706VrEDY?fife,"販売, ワークショップ",6-8日,6・7日 10:00-17:00 8日 10:00-16:00,0778-43-0308,https://washism.com/,
タケフナイフビレッジ,越前打刃物,images/icon-3.png,35.88793700000001,136.2365708,タケフナイフビレッジ,"<img src=""https://doc-04-00-mymaps.googleusercontent.com/untrusted/hostedimage/tjp71pbl755n1d9knaupn39qao/10fqcfhgcvs1unliq5ngr24eos/1696731300000/JZE0f6HJRobklDdF9DDVtADt9cDcsdY3/*/6AJ9UNGqnkw9A-zQ-1NpTokifgLoBwXyMBjByzIO_tDhrNBG8UFFYqYEAW405oMXTFzj_u0b_jMRJrR0kT9HFF_E3dVSvRjsASp6MQu88Fjp92stWAnQBk1JvJu3PMv7MYYzCJtpjrqa0nEbWtnaKqQ4wTRhzYMvrlCVe5wfao3gyTYW3FuTbJRVone5Q3Qfd70N5rW0GtGowsPs0Ooq6zoCuua3rMSXCFQfCvgiC31lNQxwY2Bw?fife"" height=""200"" width=""auto"" /><br><br>住所: 〒915-0031福井県越前市余川町22-91<br>参加形態: 工房（見学・展示）, 販売, ワークショップ<br>紹介: 13社の刃物会社が運営する、ものづくりを「見る」「学ぶ」「作る」「買う」ことができる総合施設。共同工房では、鍛造と研ぎの技術を無料で見学可能。2020年8月にリニューアルオープンしたショップでは、海外で人気の包丁やナイフが手に入ります。<br>出展日: 6-8日<br>営業時間: 9:00-17:00<br>電話番号: 0778-27-7120<br>Web: https://www.takefu-knifevillage.jp/<br>YouTube: ",〒915-0031福井県越前市余川町22-91,13社の刃物会社が運営する、ものづくりを「見る」「学ぶ」「作る」「買う」ことができる総合施設。共同工房では、鍛造と研ぎの技術を無料で見学可能。2020年8月にリニューアルオープンしたショップでは、海外で人気の包丁やナイフが手に入ります。,https://doc-04-00-mymaps.googleusercontent.com/untrusted/hostedimage/tjp71pbl755n1d9knaupn39qao/10fqcfhgcvs1unliq5ngr24eos/1696731300000/JZE0f6HJRobklDdF9DDVtADt9cDcsdY3/*/6AJ9UNGqnkw9A-zQ-1NpTokifgLoBwXyMBjByzIO_tDhrNBG8UFFYqYEAW405oMXTFzj_u0b_jMRJrR0kT9HFF_E3dVSvRjsASp6MQu88Fjp92stWAnQBk1JvJu3PMv7MYYzCJtpjrqa0nEbWtnaKqQ4wTRhzYMvrlCVe5wfao3gyTYW3FuTbJRVone5Q3Qfd70N5rW0GtGowsPs0Ooq6zoCuua3rMSXCFQfCvgiC31lNQxwY2Bw?fife,"工房（見学・展示）, 販売, ワークショップ",6-8日,9:00-17:00,0778-27-7120,https://www.takefu-knifevillage.jp/,
山田英夫商店,越前打刃物,images/icon-3.png,35.8951825,136.1550537,山田英夫商店,"<img src=""https://doc-0k-00-mymaps.googleusercontent.com/untrusted/hostedimage/tjp71pbl755n1d9knaupn39qao/525c0dv4s2gos07ddq13teos8o/1696731300000/JZE0f6HJRobklDdF9DDVtADt9cDcsdY3/*/6AJ9UNGol5NNKCm_z9P2xIprf-eGouZNCuetCbyBIekqO9pb6C7mY-df1xkxiv2FE4uNJe5M4qMoXUtH0pi4vt7N8Quve1-6raO91aNkdKxMs_t0Su-PyA3JSerTIOWXE1NQKFW7cLu2xBxqq5x4-1FhAkudBRCCI-P9igiI_Jx2UthL9cgRS5H7H4K7xXxI4g5lvxtMoI5tpoNQwibfmt0CUvcdcaU0265OjUzzBX8JDZvjptwo?fife"" height=""200"" width=""auto"" /><br><br>住所: 〒915-0846 福井県越前市千福町28<br>参加形態: 工房（見学・展示）, 販売, ワークショップ<br>紹介: 700年の伝統を持つ越前打刃物の産地で問屋をしています。 2015年に切れ味と使い心地にこだわった自社ブランド「風味絶佳ECHIZEN」を立ち上げました。研ぎ直しなどのメンテナンスも承っております。<br>出展日: 6-8日<br>営業時間: 10:00-18:00<br>電話番号: 0778-22-5359<br>Web: https://kkyamada.com<br>YouTube: ",〒915-0846 福井県越前市千福町28,700年の伝統を持つ越前打刃物の産地で問屋をしています。 2015年に切れ味と使い心地にこだわった自社ブランド「風味絶佳ECHIZEN」を立ち上げました。研ぎ直しなどのメンテナンスも承っております。,https://doc-0k-00-mymaps.googleusercontent.com/untrusted/hostedimage/tjp71pbl755n1d9knaupn39qao/525c0dv4s2gos07ddq13teos8o/1696731300000/JZE0f6HJRobklDdF9DDVtADt9cDcsdY3/*/6AJ9UNGol5NNKCm_z9P2xIprf-eGouZNCuetCbyBIekqO9pb6C7mY-df1xkxiv2FE4uNJe5M4qMoXUtH0pi4vt7N8Quve1-6raO91aNkdKxMs_t0Su-PyA3JSerTIOWXE1NQKFW7cLu2xBxqq5x4-1FhAkudBRCCI-P9igiI_Jx2UthL9cgRS5H7H4K7xXxI4g5lvxtMoI5tpoNQwibfmt0CUvcdcaU0265OjUzzBX8JDZvjptwo?fife,"工房（見学・展示）, 販売, ワークショップ",6-8日,10:00-18:00,0778-22-5359,https://kkyamada.com,
越前打刃物振興施設「越前千代鶴の館」,越前打刃物,images/icon-3.png,35.8757215,136.1468348,越前打刃物振興施設「越前千代鶴の館」,"<img src=""https://doc-00-00-mymaps.googleusercontent.com/untrusted/hostedimage/tjp71pbl755n1d9knaupn39qao/i9f4j4kqs0cies9v847jkv8p6k/1696731300000/JZE0f6HJRobklDdF9DDVtADt9cDcsdY3/*/6AJ9UNGqMqZlgmt2XmpFZPTBtXyOPQLtt1OmQMZjrEWmkDYge81tqCz8EzuVSE30WADaYGSCDzwuoHtXJoxzvjjw0oxNKszW_t277Pv628YdVmYvq9I7X1SD_d9soZPMJULEfelpoa8CSiGqRbLxf7JJG34KPAJtzuj4AahU1jFzdc9Dp0GL0zz5-9icJIf0DL23VlUzDLW8BRsr4QUVQ2YvxlK69IEfnEXOH0iXe62B1rVp5i78?fife"" height=""200"" width=""auto"" /><br><br>住所: 〒915-0873 福井県越前市池ノ上町48-6-1<br>参加形態: 工房（見学・展示）<br>紹介: 千代鶴国安を開祖とする越前打刃物の700年の歴史、伝統技法などを紹介する見学施設。実演語り部（週4回程度）、火造鍛造や手研ぎ教室はじめ各種催事開催。<br>出展日: 6-8日<br>営業時間: 6-7日 10:00-12:00/13:00-17:00 8日10:00-12:00/13:00-16:00<br>電話番号: 0778-22-1241<br>Web: https://www.hamononosato.com/<br>YouTube: ",〒915-0873 福井県越前市池ノ上町48-6-1,千代鶴国安を開祖とする越前打刃物の700年の歴史、伝統技法などを紹介する見学施設。実演語り部（週4回程度）、火造鍛造や手研ぎ教室はじめ各種催事開催。,https://doc-00-00-mymaps.googleusercontent.com/untrusted/hostedimage/tjp71pbl755n1d9knaupn39qao/i9f4j4kqs0cies9v847jkv8p6k/1696731300000/JZE0f6HJRobklDdF9DDVtADt9cDcsdY3/*/6AJ9UNGqMqZlgmt2XmpFZPTBtXyOPQLtt1OmQMZjrEWmkDYge81tqCz8EzuVSE30WADaYGSCDzwuoHtXJoxzvjjw0oxNKszW_t277Pv628YdVmYvq9I7X1SD_d9soZPMJULEfelpoa8CSiGqRbLxf7JJG34KPAJtzuj4AahU1jFzdc9Dp0GL0zz5-9icJIf0DL23VlUzDLW8BRsr4QUVQ2YvxlK69IEfnEXOH0iXe62B1rVp5i78?fife,工房（見学・展示）,6-8日,6-7日 10:00-12:00/13:00-17:00 8日10:00-12:00/13:00-16:00,0778-22-1241,https://www.hamononosato.com/,
龍泉刃物,越前打刃物,images/icon-3.png,35.876076,136.146577,龍泉刃物,"<img src=""https://doc-08-00-mymaps.googleusercontent.com/untrusted/hostedimage/tjp71pbl755n1d9knaupn39qao/4gqjqskvnraa55j7mq2t2ncgp8/1696731300000/JZE0f6HJRobklDdF9DDVtADt9cDcsdY3/*/6AJ9UNGrHC1wHAy6Nmo09sKqk01jKOkA31UOoKAmm0OH0J2BU6C_3I07nZgih24q92lEi5SsWN6YhTeJc_2OTdn5M4aRt1Tm1TbXGrau6m9SbwC3IvH3lOYl4XFGDsEQqCoATLmhzb3euA55fKZZEIng8fGs59OmDAWdVQAoJbi4JExGiBvYIqbQLt_7uDACb8XVnJomewiU4rtVm1M15Aba-CqZvwNxdiEIBpPQmEMK1xk2UQ3s?fife"" height=""200"" width=""auto"" /><br><br>住所: 〒915-0873 福井県越前市池ノ上町92-5-6<br>参加形態: 工房（見学・展示）, 販売, ワークショップ<br>紹介: 700年の伝統技術に、独自の加工技術を取り入れた越前打刃物の製造・販売をしています。包丁だけでなくカトラリーなどにも着手し、世界に誇れるものづくりメーカーを目指しています。<br>出展日: 7-8日<br>営業時間: 9:00-17:00<br>電話番号: 0778-23-3552<br>Web: https://ryusen-hamono.com/<br>YouTube: https://youtu.be/YgieFqZ7Wls?si=gO0jWu9KIebVCPKT",〒915-0873 福井県越前市池ノ上町92-5-6,700年の伝統技術に、独自の加工技術を取り入れた越前打刃物の製造・販売をしています。包丁だけでなくカトラリーなどにも着手し、世界に誇れるものづくりメーカーを目指しています。,https://doc-08-00-mymaps.googleusercontent.com/untrusted/hostedimage/tjp71pbl755n1d9knaupn39qao/4gqjqskvnraa55j7mq2t2ncgp8/1696731300000/JZE0f6HJRobklDdF9DDVtADt9cDcsdY3/*/6AJ9UNGrHC1wHAy6Nmo09sKqk01jKOkA31UOoKAmm0OH0J2BU6C_3I07nZgih24q92lEi5SsWN6YhTeJc_2OTdn5M4aRt1Tm1TbXGrau6m9SbwC3IvH3lOYl4XFGDsEQqCoATLmhzb3euA55fKZZEIng8fGs59OmDAWdVQAoJbi4JExGiBvYIqbQLt_7uDACb8XVnJomewiU4rtVm1M15Aba-CqZvwNxdiEIBpPQmEMK1xk2UQ3s?fife,"工房（見学・展示）, 販売, ワークショップ",7-8日,9:00-17:00,0778-23-3552,https://ryusen-hamono.com/,https://youtu.be/YgieFqZ7Wls?si=gO0jWu9KIebVCPKT
山謙木工所　柄と繪etoe,越前打刃物,images/icon-3.png,35.8760604,136.1481005,山謙木工所　柄と繪etoe,"<img src=""https://doc-04-00-mymaps.googleusercontent.com/untrusted/hostedimage/tjp71pbl755n1d9knaupn39qao/t1b4fq5ak9hlalhi3gj39cpmao/1696731300000/JZE0f6HJRobklDdF9DDVtADt9cDcsdY3/*/6AJ9UNGpx_H-0J9PLEsCtoGRcgKcbtFrijdWA5U58t4OFPBF5tYK050Sn_0U_Id1dRVA32YcPX7QXq2fUwyUlIYoJJXdyUDYsjVMlzYyHf_y3mSStL-KMd99be6_LjnF4shmg7krGT_H0m8tLvww46S-bG4ZGuGX6zOb4g_N93hf0AQ6s915Cp3RbqVBK2DmZ7wm9hbWnK1EyypJX5D26uAyShqFb2zpNDIQyuyLejf-ZJCD7QG8?fife"" height=""200"" width=""auto"" /><br><br>住所: 〒915-0873福井県越前市池ノ上町46-1-10<br>参加形態: 工房（見学・展示）, 販売, ワークショップ<br>紹介: 和包丁の柄を専門に製造する会社です。地元はもとより全国の鍛冶屋、包丁メーカーへ卸しています。2020年より越前打刃物と越前漆器のコラボギャラリー「柄と繪etoe」をオープンいたしました。<br>出展日: 6-8日<br>営業時間: 6・7日 9:00-17:00 8日 9:00-16:00<br>電話番号: 090-5686-1658<br>Web: https://etoe2020.com/<br>YouTube: ",〒915-0873福井県越前市池ノ上町46-1-10,和包丁の柄を専門に製造する会社です。地元はもとより全国の鍛冶屋、包丁メーカーへ卸しています。2020年より越前打刃物と越前漆器のコラボギャラリー「柄と繪etoe」をオープンいたしました。,https://doc-04-00-mymaps.googleusercontent.com/untrusted/hostedimage/tjp71pbl755n1d9knaupn39qao/t1b4fq5ak9hlalhi3gj39cpmao/1696731300000/JZE0f6HJRobklDdF9DDVtADt9cDcsdY3/*/6AJ9UNGpx_H-0J9PLEsCtoGRcgKcbtFrijdWA5U58t4OFPBF5tYK050Sn_0U_Id1dRVA32YcPX7QXq2fUwyUlIYoJJXdyUDYsjVMlzYyHf_y3mSStL-KMd99be6_LjnF4shmg7krGT_H0m8tLvww46S-bG4ZGuGX6zOb4g_N93hf0AQ6s915Cp3RbqVBK2DmZ7wm9hbWnK1EyypJX5D26uAyShqFb2zpNDIQyuyLejf-ZJCD7QG8?fife,"工房（見学・展示）, 販売, ワークショップ",6-8日,6・7日 9:00-17:00 8日 9:00-16:00,090-5686-1658,https://etoe2020.com/,
草月陶房,越前焼,images/icon-1.png,35.9325495,136.058515,草月陶房,"<img src=""https://doc-0k-00-mymaps.googleusercontent.com/untrusted/hostedimage/tjp71pbl755n1d9knaupn39qao/7rgmpmgb9qv8dgm5t4ac9f7n90/1696731300000/JZE0f6HJRobklDdF9DDVtADt9cDcsdY3/*/6AJ9UNGqsL2VPZTZxT6jIzMEi446uJDNo4h0aIJTMnkGEFEWYYodNdFIj2k02CEKbXJ1q2dhSeV_fpMiFhCoanJwUzja0HgY1KheF57OPnG4unbfVm9KvvHNHLxQe6XTl3U_ePhF5a0feIQnzHtP77aj1i2usPxqMCy7Qw8pYRsAHytJJtKoOz4S9IvJSNoxotin-ApQ9akeZSL_NQ1OmBmep0CRHWI9X65bsTz2iLwe_yAKfDBM?fife"" height=""200"" width=""auto"" /><br><br>住所: 〒916-0273 福井県丹生郡越前町小曽原16-20<br>参加形態: 工房（見学・展示）, 販売, ワークショップ<br>紹介: いけばな草月流第三代家元 勅使河原 宏により1973年に開設。第四代家元 勅使河原 茜に継承され現在に至る。いけばなに使用される花器の生産現場であると同時に、草月流会員が自作花器の制作を学ぶ施設としても利用されている。<br><br>併設出店<br>福井WAZABI<br>福井市の西武福井店5Fにある福井県の工芸品のセレクトショップです。今回は草月陶房にてポップアップ出店いたします。<br>TEL：0776-28-8261<br><br>出展日: 6-8日<br>営業時間: 10:00-16:00<br>電話番号: 0778-32-2234<br>Web: https://www.sogetsu.or.jp/about/hq-building/tobo/<br>YouTube: <br><br><img src=""https://doc-08-00-mymaps.googleusercontent.com/untrusted/hostedimage/tjp71pbl755n1d9knaupn39qao/t7sg1a0ftrc7vrde0v54dnst10/1696731300000/JZE0f6HJRobklDdF9DDVtADt9cDcsdY3/*/6AJ9UNGrNbm52e5EYF3cbR9-Lsmc2xk1OWjztJJ_oF9mxbEaL3Vv_TJbVGlxhL0iEMz3aGFIKh6QkrxAydLsx8qgxt7IK2oE5bBG2jvCUbdt9UDsHXQFnbViTVQbIX7UiErk7mlwqFXULRoylUL02e2Kmi31UzapM-N0s3PCaZfMe7hIYVpPGDMXL_13A7e6_eGEO1DdrZnAtAZ5a4cOVxNI4Q6et4jaMxuYQv8tp0rs4TO-jcHs?fife"" height=""200"" width=""auto"" />",〒916-0273 福井県丹生郡越前町小曽原16-20,"いけばな草月流第三代家元 勅使河原 宏により1973年に開設。第四代家元 勅使河原 茜に継承され現在に至る。いけばなに使用される花器の生産現場であると同時に、草月流会員が自作花器の制作を学ぶ施設としても利用されている。

併設出店
福井WAZABI
福井市の西武福井店5Fにある福井県の工芸品のセレクトショップです。今回は草月陶房にてポップアップ出店いたします。
TEL：0776-28-8261",https://doc-0k-00-mymaps.googleusercontent.com/untrusted/hostedimage/tjp71pbl755n1d9knaupn39qao/7rgmpmgb9qv8dgm5t4ac9f7n90/1696731300000/JZE0f6HJRobklDdF9DDVtADt9cDcsdY3/*/6AJ9UNGqsL2VPZTZxT6jIzMEi446uJDNo4h0aIJTMnkGEFEWYYodNdFIj2k02CEKbXJ1q2dhSeV_fpMiFhCoanJwUzja0HgY1KheF57OPnG4unbfVm9KvvHNHLxQe6XTl3U_ePhF5a0feIQnzHtP77aj1i2usPxqMCy7Qw8pYRsAHytJJtKoOz4S9IvJSNoxotin-ApQ9akeZSL_NQ1OmBmep0CRHWI9X65bsTz2iLwe_yAKfDBM?fife https://doc-08-00-mymaps.googleusercontent.com/untrusted/hostedimage/tjp71pbl755n1d9knaupn39qao/t7sg1a0ftrc7vrde0v54dnst10/1696731300000/JZE0f6HJRobklDdF9DDVtADt9cDcsdY3/*/6AJ9UNGrNbm52e5EYF3cbR9-Lsmc2xk1OWjztJJ_oF9mxbEaL3Vv_TJbVGlxhL0iEMz3aGFIKh6QkrxAydLsx8qgxt7IK2oE5bBG2jvCUbdt9UDsHXQFnbViTVQbIX7UiErk7mlwqFXULRoylUL02e2Kmi31UzapM-N0s3PCaZfMe7hIYVpPGDMXL_13A7e6_eGEO1DdrZnAtAZ5a4cOVxNI4Q6et4jaMxuYQv8tp0rs4TO-jcHs?fife,"工房（見学・展示）, 販売, ワークショップ",6-8日,10:00-16:00,0778-32-2234,https://www.sogetsu.or.jp/about/hq-building/tobo/,
opt duo Inc.,眼鏡,images/icon-4.png,35.9549027,136.2814704,opt duo Inc.,"<img src=""https://doc-08-00-mymaps.googleusercontent.com/untrusted/hostedimage/tjp71pbl755n1d9knaupn39qao/8p6a7q2vdql95kknhku6b0uh4g/1696731300000/JZE0f6HJRobklDdF9DDVtADt9cDcsdY3/*/6AJ9UNGovoe-KnGLWM8ehsUJevxmyDDt7vyXojUNH3b2yDSR2S93ufme-0JAzbGXuSSpQYQq7BiIQrGz625GuhLNj3FIQYIc09_0811iN6yFx0l-a49R97PJeeSgTgvEbD0wpvSoQzZLbXBJPaDGA7YzDmfcIF4FtPcrBPm_wlGnLwtH9RAtXDwb8uymCVLX0Om-owlcMj-HSEtRxbYziz_IgnGK_DkkiiEL3YlS6saaE7WADrOw?fife"" height=""200"" width=""auto"" /><br><br>住所: 〒916-1237 福井県鯖江市北中町539<br>参加形態: 販売<br>紹介: 「自らのデザインで、自由にデザインする」ことを掲げるオプトデュオ。クラシックとモードの融合「H-fusion」や無限に拡がる空間を形にした「spec espace」など、ネオ・ポストモダンを模索し、より優れたものを絶えず求めていきます。<br>出展日: 6-8日<br>営業時間: 6・7日 10:00-12:00 / 13:00-17:00 8日 10:00-12:00 / 13:00-16:00<br>電話番号: 0778-65-2374<br>Web: https://www.optduo.co.jp/<br>YouTube: ",〒916-1237 福井県鯖江市北中町539,「自らのデザインで、自由にデザインする」ことを掲げるオプトデュオ。クラシックとモードの融合「H-fusion」や無限に拡がる空間を形にした「spec espace」など、ネオ・ポストモダンを模索し、より優れたものを絶えず求めていきます。,https://doc-08-00-mymaps.googleusercontent.com/untrusted/hostedimage/tjp71pbl755n1d9knaupn39qao/8p6a7q2vdql95kknhku6b0uh4g/1696731300000/JZE0f6HJRobklDdF9DDVtADt9cDcsdY3/*/6AJ9UNGovoe-KnGLWM8ehsUJevxmyDDt7vyXojUNH3b2yDSR2S93ufme-0JAzbGXuSSpQYQq7BiIQrGz625GuhLNj3FIQYIc09_0811iN6yFx0l-a49R97PJeeSgTgvEbD0wpvSoQzZLbXBJPaDGA7YzDmfcIF4FtPcrBPm_wlGnLwtH9RAtXDwb8uymCVLX0Om-owlcMj-HSEtRxbYziz_IgnGK_DkkiiEL3YlS6saaE7WADrOw?fife,販売,6-8日,6・7日 10:00-12:00 / 13:00-17:00 8日 10:00-12:00 / 13:00-16:00,0778-65-2374,https://www.optduo.co.jp/,
株式会社サンユー,眼鏡,images/icon-4.png,35.9587359,136.2739492,株式会社サンユー,"<img src=""https://doc-0o-00-mymaps.googleusercontent.com/untrusted/hostedimage/tjp71pbl755n1d9knaupn39qao/prto3opi4nn6v1lch4tpk1b2dc/1696731300000/JZE0f6HJRobklDdF9DDVtADt9cDcsdY3/*/6AJ9UNGothSKAdkbkzl6_PnRK-xPOLQ6PVK01ClHF78WtpD9D_kI9uQi08WlqGeD3eHku1GW9_Lg2zMxHYInBLcLbX_52zTtHaCJv-JF7kNVcPUBDFu1E53WZC_hOdoY3jW4pAFO5f8ioQ4iINfuBC4HxPFbWaQpklBdCKFJITG2fFYav6KE6oDKG9WOD8BXgyz5bNKYgHVoSBTvqWBVmAUoHbqnc_67gwfJ3zzEhGXSe6sOE1xQ?fife"" height=""200"" width=""auto"" /><br><br>住所: 〒916-1221 福井県鯖江市西袋町30-4<br>参加形態: 販売<br>紹介: 株式会社サンユーは、福井県鯖江市の地場産業である越前漆器と眼鏡の素材と職人の手技を使って、今までにない新しいアイデアをカタチにしています。<br>出展日: 6-8日<br>営業時間: 10:00-17:00<br>電話番号: 0778-65-0624<br>Web: https://san-you.jp/<br>YouTube: ",〒916-1221 福井県鯖江市西袋町30-4,株式会社サンユーは、福井県鯖江市の地場産業である越前漆器と眼鏡の素材と職人の手技を使って、今までにない新しいアイデアをカタチにしています。,https://doc-0o-00-mymaps.googleusercontent.com/untrusted/hostedimage/tjp71pbl755n1d9knaupn39qao/prto3opi4nn6v1lch4tpk1b2dc/1696731300000/JZE0f6HJRobklDdF9DDVtADt9cDcsdY3/*/6AJ9UNGothSKAdkbkzl6_PnRK-xPOLQ6PVK01ClHF78WtpD9D_kI9uQi08WlqGeD3eHku1GW9_Lg2zMxHYInBLcLbX_52zTtHaCJv-JF7kNVcPUBDFu1E53WZC_hOdoY3jW4pAFO5f8ioQ4iINfuBC4HxPFbWaQpklBdCKFJITG2fFYav6KE6oDKG9WOD8BXgyz5bNKYgHVoSBTvqWBVmAUoHbqnc_67gwfJ3zzEhGXSe6sOE1xQ?fife,販売,6-8日,10:00-17:00,0778-65-0624,https://san-you.jp/,
ボストンクラブ,眼鏡,images/icon-4.png,35.9705135,136.1804324,ボストンクラブ,"<img src=""https://doc-0s-00-mymaps.googleusercontent.com/untrusted/hostedimage/tjp71pbl755n1d9knaupn39qao/jn7n0dkgb833cmpibbsu0mt9us/1696731300000/JZE0f6HJRobklDdF9DDVtADt9cDcsdY3/*/6AJ9UNGqEAB1RBNj4MYj3ac16e0wmb9arA1-a_j92sMe1MS3RscdqdU76Mh5rv-rNdvfZgdUzJth2yLe3Z_leqfWfk4vxHXsdn1r2WIpE0vGh2l8ld4vtFEIME443VB_zFrRKB65JdplmALtwXh3WkWTUT9kEVweAxKUZHDhVOtXVhR1zENgMPO1xU2GlHji_Dfx4dvlO6Kp1WvP_TI0UOZFQwa3YzxaceQWzvI654s2O--LhRlo?fife"" height=""200"" width=""auto"" /><br><br>住所: 916-0021福井県鯖江市三六町1-4-30<br>参加形態: 工房（見学・展示）, 販売, ワークショップ<br>紹介: 1984年に鯖江市にて創業し、創業当時から大手アパレルメーカー、眼鏡商社のODMを中心に行い、その経験と、世界的な眼鏡産地である鯖江市の生産技術を活かし、現在は「JAPONISM」「BCPC」等、4つのオリジナルブランドを展開しています。<br>出展日: 6-8日<br>営業時間: 10:00-19:00<br>電話番号: 0778-52-9337<br>Web: http://www.bostonclub.co.jp/index.php<br>YouTube: https://youtu.be/ixSJpYyDR84?si=9akuVAiDMrnzHfou",916-0021福井県鯖江市三六町1-4-30,1984年に鯖江市にて創業し、創業当時から大手アパレルメーカー、眼鏡商社のODMを中心に行い、その経験と、世界的な眼鏡産地である鯖江市の生産技術を活かし、現在は「JAPONISM」「BCPC」等、4つのオリジナルブランドを展開しています。,https://doc-0s-00-mymaps.googleusercontent.com/untrusted/hostedimage/tjp71pbl755n1d9knaupn39qao/jn7n0dkgb833cmpibbsu0mt9us/1696731300000/JZE0f6HJRobklDdF9DDVtADt9cDcsdY3/*/6AJ9UNGqEAB1RBNj4MYj3ac16e0wmb9arA1-a_j92sMe1MS3RscdqdU76Mh5rv-rNdvfZgdUzJth2yLe3Z_leqfWfk4vxHXsdn1r2WIpE0vGh2l8ld4vtFEIME443VB_zFrRKB65JdplmALtwXh3WkWTUT9kEVweAxKUZHDhVOtXVhR1zENgMPO1xU2GlHji_Dfx4dvlO6Kp1WvP_TI0UOZFQwa3YzxaceQWzvI654s2O--LhRlo?fife,"工房（見学・展示）, 販売, ワークショップ",6-8日,10:00-19:00,0778-52-9337,http://www.bostonclub.co.jp/index.php,https://youtu.be/ixSJpYyDR84?si=9akuVAiDMrnzHfou
晃梅,眼鏡,images/icon-4.png,35.9783332,136.1809795,晃梅,"<img src=""https://doc-0k-00-mymaps.googleusercontent.com/untrusted/hostedimage/tjp71pbl755n1d9knaupn39qao/0lhldvgedm45vt1hueaasj41rc/1696731300000/JZE0f6HJRobklDdF9DDVtADt9cDcsdY3/*/6AJ9UNGqQo8SlOpYg9fMshcsvhTm7COxxIeWmqliizbSM4LTk8nbpNQf8OSTN3HCFhHx89oVfBhK1nTxinJUIb2KuyMXB8JNFizNaMhwib3Ps0dC6fAKjwj1KAYruIFtdmsEJAbxK5Cr2rlA9TEhip7U4XRkIym_p2O38mw10MHxa5xHday8cuSoYJ5_MYZuQ7SfETq23NZXsgPdMAvytXK3kmG3bN9cUvqIfEN24yqTQPAtU6d8?fife"" height=""200"" width=""auto"" /><br><br>住所: 〒916-0019 福井県鯖江市丸山町1-1-21<br>参加形態: 販売, ワークショップ<br>紹介: 眼鏡製造にかかわる様々な商品を扱っています。眼鏡用の精密ドライバー等、地元の職人さんに育てられた逸品工具は、手に取って初めてわかる良さがあります。RENEW開催中はWS実施のほか、弊社商品の小売りも対応します(現金のみ)。<br>出展日: 6-8日<br>営業時間: 6日 8:30-17:30 <br>7・8日 10:00-12:00/13:00-16:00<br><br>電話番号: 0778-52-6338<br>Web: http://www.kohbai.com<br>YouTube: https://youtu.be/D5LOZpe_Aas?si=wxDQnIH70_QTB53z",〒916-0019 福井県鯖江市丸山町1-1-21,眼鏡製造にかかわる様々な商品を扱っています。眼鏡用の精密ドライバー等、地元の職人さんに育てられた逸品工具は、手に取って初めてわかる良さがあります。RENEW開催中はWS実施のほか、弊社商品の小売りも対応します(現金のみ)。,https://doc-0k-00-mymaps.googleusercontent.com/untrusted/hostedimage/tjp71pbl755n1d9knaupn39qao/0lhldvgedm45vt1hueaasj41rc/1696731300000/JZE0f6HJRobklDdF9DDVtADt9cDcsdY3/*/6AJ9UNGqQo8SlOpYg9fMshcsvhTm7COxxIeWmqliizbSM4LTk8nbpNQf8OSTN3HCFhHx89oVfBhK1nTxinJUIb2KuyMXB8JNFizNaMhwib3Ps0dC6fAKjwj1KAYruIFtdmsEJAbxK5Cr2rlA9TEhip7U4XRkIym_p2O38mw10MHxa5xHday8cuSoYJ5_MYZuQ7SfETq23NZXsgPdMAvytXK3kmG3bN9cUvqIfEN24yqTQPAtU6d8?fife,"販売, ワークショップ",6-8日,"6日 8:30-17:30 
7・8日 10:00-12:00/13:00-16:00",0778-52-6338,http://www.kohbai.com,https://youtu.be/D5LOZpe_Aas?si=wxDQnIH70_QTB53z
乾レンズ,眼鏡,images/icon-4.png,35.980708,136.180079,乾レンズ,"<img src=""https://doc-0k-00-mymaps.googleusercontent.com/untrusted/hostedimage/tjp71pbl755n1d9knaupn39qao/op4nhr0d84a2elksfisu8abmns/1696731300000/JZE0f6HJRobklDdF9DDVtADt9cDcsdY3/*/6AJ9UNGomHevs3oBLPPMZlg7b7FHkEuNrHTM4NyZUT2fEM8X1fSX8z1dWlK5wXCNg-SgcyUSSQnITJKk0NAxiiQ16hOI5YzV2FC9jKaZhz4bwDcWAPHYLz0lC1ICdJB9XyNvIj4XqsvUpHpohS773w_BSX6ZPGozc6z1OHOmcigxfenPlHns1WoLltETI7SBDtNBcfgjrX2LpWzYVv-TChllRV0KMwREWHepz0cTQFsRVkrDqKd0?fife"" height=""200"" width=""auto"" /><br><br>住所: 〒916-0019福井県鯖江市丸山町1-3-31<br>参加形態: 工房（見学・展示）, 販売, ワークショップ, 飲食<br>紹介: 乾レンズ）私たちは、１９５３年創業のサングラスレンズ専門メーカーです。 紫外線カット一筋に、国内外の有名ファッションブランドのサングラスのサポートをしています。 2008年より自社ブランド「オールタイムサングラス」や「贈りものルーペ」など、皆様の大切な眼に関わる製品を製造販売しています。<br><br>LensPark）鯖江のレンズメーカーがつくる、“目を守る”　テーマにした複合施設。私たち乾レンズは1953年の創業以来、眼鏡やサングラスを通して日々の暮らしを快適に過ごしてもらうため、数々のレンズ製品をつくってきました。さまざまな機能のレンズの中から自分にぴったりのレンズと出会い、“目を守る”ことの大切さを感じてみてください。<br><br>出展日: 6-8日<br>営業時間: 販売／ワークショップ／カフェ：10:00～19:00（L.O.18:30）<br>工房見学：随時受付<br>電話番号: 乾レンズ／0778-51-5447<br>レンズパーク／0778-52-7977<br>Web: https://www.inuilens.com/<br>YouTube: ",〒916-0019福井県鯖江市丸山町1-3-31,"乾レンズ）私たちは、１９５３年創業のサングラスレンズ専門メーカーです。 紫外線カット一筋に、国内外の有名ファッションブランドのサングラスのサポートをしています。 2008年より自社ブランド「オールタイムサングラス」や「贈りものルーペ」など、皆様の大切な眼に関わる製品を製造販売しています。

LensPark）鯖江のレンズメーカーがつくる、“目を守る”　テーマにした複合施設。私たち乾レンズは1953年の創業以来、眼鏡やサングラスを通して日々の暮らしを快適に過ごしてもらうため、数々のレンズ製品をつくってきました。さまざまな機能のレンズの中から自分にぴったりのレンズと出会い、“目を守る”ことの大切さを感じてみてください。",https://doc-0k-00-mymaps.googleusercontent.com/untrusted/hostedimage/tjp71pbl755n1d9knaupn39qao/op4nhr0d84a2elksfisu8abmns/1696731300000/JZE0f6HJRobklDdF9DDVtADt9cDcsdY3/*/6AJ9UNGomHevs3oBLPPMZlg7b7FHkEuNrHTM4NyZUT2fEM8X1fSX8z1dWlK5wXCNg-SgcyUSSQnITJKk0NAxiiQ16hOI5YzV2FC9jKaZhz4bwDcWAPHYLz0lC1ICdJB9XyNvIj4XqsvUpHpohS773w_BSX6ZPGozc6z1OHOmcigxfenPlHns1WoLltETI7SBDtNBcfgjrX2LpWzYVv-TChllRV0KMwREWHepz0cTQFsRVkrDqKd0?fife,"工房（見学・展示）, 販売, ワークショップ, 飲食",6-8日,"販売／ワークショップ／カフェ：10:00～19:00（L.O.18:30）
工房見学：随時受付","乾レンズ／0778-51-5447
レンズパーク／0778-52-7977",https://www.inuilens.com/,
西村プレシジョン,眼鏡,images/icon-4.png,35.9816334,136.1794005,西村プレシジョン,"<img src=""https://doc-0o-00-mymaps.googleusercontent.com/untrusted/hostedimage/tjp71pbl755n1d9knaupn39qao/5qm572vqv6em2s50svber98qpo/1696731300000/JZE0f6HJRobklDdF9DDVtADt9cDcsdY3/*/6AJ9UNGpJBzo1z8tpEwB317BYh0FKrnE6J5jJVHlh9CS70um3GTiJvdi4VlyBVvulde-H5KWco8Ds-aLIG-BO_5wpZRXkHEFz2R2fWeEK1KHVkGTANKdMpYCCzVvnQDHtT8NajUBR_49gyr71zlrB05yMDkoBohRMz-F3jQzUpPUUS5RbVIotWPZmCKr3dDKvGJ1ijUqefrLsnccrrOW28tYtFDUaFKIDlwtpZTUZcdzSRFZPvxg?fife"" height=""200"" width=""auto"" /><br><br>住所: 916-0019本社：鯖江本店 福井県鯖江市丸山町3-5-18<br>参加形態: 販売<br>紹介: 折りたたむと薄さ数ミリの老眼鏡でグッドデザイン賞を受賞。薄いメガネやサングラスのブランドもスタートしました。スマートに持ち運べるメガネの新しいスタイルを提案しています。<br>出展日: 6-8日<br>営業時間: 6日 10:00-18:00 <br>7・8日 11:00-17:00<br><br>電話番号: 本社 0778-51-0127<br>鯖江本店 0778-42-5579<br><br>Web: https://www.paperglass.jp<br>YouTube: ",916-0019本社：鯖江本店 福井県鯖江市丸山町3-5-18,折りたたむと薄さ数ミリの老眼鏡でグッドデザイン賞を受賞。薄いメガネやサングラスのブランドもスタートしました。スマートに持ち運べるメガネの新しいスタイルを提案しています。,https://doc-0o-00-mymaps.googleusercontent.com/untrusted/hostedimage/tjp71pbl755n1d9knaupn39qao/5qm572vqv6em2s50svber98qpo/1696731300000/JZE0f6HJRobklDdF9DDVtADt9cDcsdY3/*/6AJ9UNGpJBzo1z8tpEwB317BYh0FKrnE6J5jJVHlh9CS70um3GTiJvdi4VlyBVvulde-H5KWco8Ds-aLIG-BO_5wpZRXkHEFz2R2fWeEK1KHVkGTANKdMpYCCzVvnQDHtT8NajUBR_49gyr71zlrB05yMDkoBohRMz-F3jQzUpPUUS5RbVIotWPZmCKr3dDKvGJ1ijUqefrLsnccrrOW28tYtFDUaFKIDlwtpZTUZcdzSRFZPvxg?fife,販売,6-8日,"6日 10:00-18:00 
7・8日 11:00-17:00","本社 0778-51-0127
鯖江本店 0778-42-5579",https://www.paperglass.jp,
サンオプチカル,眼鏡,images/icon-4.png,35.981413,136.175093,サンオプチカル,"<img src=""https://doc-10-00-mymaps.googleusercontent.com/untrusted/hostedimage/tjp71pbl755n1d9knaupn39qao/44bnsa3m9k9m4brjf62smc8il8/1696731300000/JZE0f6HJRobklDdF9DDVtADt9cDcsdY3/*/6AJ9UNGrTdq-KENLfsQvfhumiZmppBsrvw9joKLnbZmOj1snxvbjJb-XZrz-3bAiK2ROZQz3pXcp9Ps_0jOvf67X0QsQVOncbL2nFYVErRDQHFIEKgf_IL9Zd7PIsykDQhjp_7Q9C1AfH95PKEA7TlSjtCk2L141KuJBP__JJ12-czJ9mQcWMu-k8MsVih-4g71g5VbiPByRsIITOoFdHswq19oQMyCreldv5ID-YzC_NTXRBUTk?fife"" height=""200"" width=""auto"" /><br><br>住所: 〒916-0005福井県鯖江市杉本町802-5<br>参加形態: 工房（見学・展示）, 販売<br>紹介: 1964年創業。セルロイドとアセテートフレームの製造工場。RENEW当日は工場見学やアセテートのバフ磨き体験ができるほか、併設ギャラリーで作品の試着や、コーヒーを飲みながら眼鏡づくりについて色々話ができます。<br>出展日: 6-8日<br>営業時間: 10:00-19:30<br>電話番号: 090-1632-7556<br>Web: http://sunoptical.co.jp/<br>YouTube: ",〒916-0005福井県鯖江市杉本町802-5,1964年創業。セルロイドとアセテートフレームの製造工場。RENEW当日は工場見学やアセテートのバフ磨き体験ができるほか、併設ギャラリーで作品の試着や、コーヒーを飲みながら眼鏡づくりについて色々話ができます。,https://doc-10-00-mymaps.googleusercontent.com/untrusted/hostedimage/tjp71pbl755n1d9knaupn39qao/44bnsa3m9k9m4brjf62smc8il8/1696731300000/JZE0f6HJRobklDdF9DDVtADt9cDcsdY3/*/6AJ9UNGrTdq-KENLfsQvfhumiZmppBsrvw9joKLnbZmOj1snxvbjJb-XZrz-3bAiK2ROZQz3pXcp9Ps_0jOvf67X0QsQVOncbL2nFYVErRDQHFIEKgf_IL9Zd7PIsykDQhjp_7Q9C1AfH95PKEA7TlSjtCk2L141KuJBP__JJ12-czJ9mQcWMu-k8MsVih-4g71g5VbiPByRsIITOoFdHswq19oQMyCreldv5ID-YzC_NTXRBUTk?fife,"工房（見学・展示）, 販売",6-8日,10:00-19:30,090-1632-7556,http://sunoptical.co.jp/,
KISSO,眼鏡,images/icon-4.png,35.9852363,136.1773503,KISSO,"<img src=""https://doc-0c-00-mymaps.googleusercontent.com/untrusted/hostedimage/tjp71pbl755n1d9knaupn39qao/ab73nrl5mglf0q1tm5uo4je78c/1696731300000/JZE0f6HJRobklDdF9DDVtADt9cDcsdY3/*/6AJ9UNGqf3J9G3z4V6cZ1LQrJ2C5AP2oYZ5OUIJIFg5AxxsGHveS0Qq1Kgy91kL1Yo12LW_7I1sJ54DkIINjakYetoxpOlQet-2SGD5UR0Te53cTHKwQr5vkgTTlS9DO6wJGGxm6cKTXScEmLFuqMgqE4pmxlhvgQnih6tsgo8dSoqMiWA0-qIiHdun62ejbY9V3HsvXCAQazdfXRRoAWzvk4820aPoPwaRQ3gtxnPUGXryoDHsw?fife"" height=""200"" width=""auto"" /><br><br>住所: 〒916-0019 福井県鯖江市丸山町4-305-2<br>参加形態: 工房（見学・展示）, 販売, ワークショップ<br>紹介: めがねのまち鯖江でめがねフレームを作るのに必要な材料や設備の販売をおこないながら、カラフルで、可愛いらしく、わくわくするアクセサリーD2Cブランド『KISSO』の企画製造販売を行っています。<br>出展日: 6-8日<br>営業時間: 6日 10:00-12:00 / 13:00-17:30<br>7日 10:00-17:30 8日 10:00-17:30<br><br>電話番号: 0778-54-0355<br>Web: https://japan.kisso.co.jp/<br>YouTube: https://youtu.be/556z0eKj_QI?si=0UzQpgydMqw85Buy",〒916-0019 福井県鯖江市丸山町4-305-2,めがねのまち鯖江でめがねフレームを作るのに必要な材料や設備の販売をおこないながら、カラフルで、可愛いらしく、わくわくするアクセサリーD2Cブランド『KISSO』の企画製造販売を行っています。,https://doc-0c-00-mymaps.googleusercontent.com/untrusted/hostedimage/tjp71pbl755n1d9knaupn39qao/ab73nrl5mglf0q1tm5uo4je78c/1696731300000/JZE0f6HJRobklDdF9DDVtADt9cDcsdY3/*/6AJ9UNGqf3J9G3z4V6cZ1LQrJ2C5AP2oYZ5OUIJIFg5AxxsGHveS0Qq1Kgy91kL1Yo12LW_7I1sJ54DkIINjakYetoxpOlQet-2SGD5UR0Te53cTHKwQr5vkgTTlS9DO6wJGGxm6cKTXScEmLFuqMgqE4pmxlhvgQnih6tsgo8dSoqMiWA0-qIiHdun62ejbY9V3HsvXCAQazdfXRRoAWzvk4820aPoPwaRQ3gtxnPUGXryoDHsw?fife,"工房（見学・展示）, 販売, ワークショップ",6-8日,"6日 10:00-12:00 / 13:00-17:30
7日 10:00-17:30 8日 10:00-17:30",0778-54-0355,https://japan.kisso.co.jp/,https://youtu.be/556z0eKj_QI?si=0UzQpgydMqw85Buy
プラスジャック,眼鏡,images/icon-4.png,35.977665,136.19677,プラスジャック,"<img src=""https://doc-0k-00-mymaps.googleusercontent.com/untrusted/hostedimage/tjp71pbl755n1d9knaupn39qao/sd59vu6fqb2e1cogq9b8er6am0/1696731300000/JZE0f6HJRobklDdF9DDVtADt9cDcsdY3/*/6AJ9UNGoxl8vlfewrpFaDgCpMrNcQatsn_eBiDg1OcHmCvpEt4wKJW1fWuTgmN8jIpaYFc_YtEmHzmTpWpso0ZUdxqU_iUAhdmWfTDRTrmfc2Xv5P4ckVC8m9y4t153iGEujLGmTQRijDo_uRaNW1ylrIBmmx1hXOGbZS3CwXJe8eRfASzhqMZyyCmwV88y-rrLubYBJe06yBSO4RSOfc0RuijYmUINrn5Eytl3-7DSAOXaHn2TA?fife"" height=""200"" width=""auto"" /><br><br>住所: 〒916-0015 福井県鯖江市御幸町1丁目301-11<br>参加形態: 工房（見学・展示）, 販売<br>紹介: 鯖江市で1988年に創業。貼り付け、磨き、埋め込み、打ち込みなど、アセテート材に関する工程を社内で一貫して行っています。工場の技術を生かし、セミオーダーめがねやアクセサリーなどのオリジナル製品を企画、製造、販売しています。<br>出展日: 6日<br>営業時間: 8:30-12:00 / 13:00-16:30<br>電話番号: 0778-53-1885<br>Web: https://plusjack.com/<br>YouTube: https://youtu.be/Ibcye66-eQo?si=Mrf0VXrngcWbjNJ8",〒916-0015 福井県鯖江市御幸町1丁目301-11,鯖江市で1988年に創業。貼り付け、磨き、埋め込み、打ち込みなど、アセテート材に関する工程を社内で一貫して行っています。工場の技術を生かし、セミオーダーめがねやアクセサリーなどのオリジナル製品を企画、製造、販売しています。,https://doc-0k-00-mymaps.googleusercontent.com/untrusted/hostedimage/tjp71pbl755n1d9knaupn39qao/sd59vu6fqb2e1cogq9b8er6am0/1696731300000/JZE0f6HJRobklDdF9DDVtADt9cDcsdY3/*/6AJ9UNGoxl8vlfewrpFaDgCpMrNcQatsn_eBiDg1OcHmCvpEt4wKJW1fWuTgmN8jIpaYFc_YtEmHzmTpWpso0ZUdxqU_iUAhdmWfTDRTrmfc2Xv5P4ckVC8m9y4t153iGEujLGmTQRijDo_uRaNW1ylrIBmmx1hXOGbZS3CwXJe8eRfASzhqMZyyCmwV88y-rrLubYBJe06yBSO4RSOfc0RuijYmUINrn5Eytl3-7DSAOXaHn2TA?fife,"工房（見学・展示）, 販売",6日,8:30-12:00 / 13:00-16:30,0778-53-1885,https://plusjack.com/,https://youtu.be/Ibcye66-eQo?si=Mrf0VXrngcWbjNJ8
松原蝶製作（有）,眼鏡,images/icon-4.png,35.963016,136.179313,松原蝶製作（有）,"<img src=""https://doc-0g-00-mymaps.googleusercontent.com/untrusted/hostedimage/tjp71pbl755n1d9knaupn39qao/8ctbku75h5mfrj3tjssfmtari4/1696731300000/JZE0f6HJRobklDdF9DDVtADt9cDcsdY3/*/6AJ9UNGqpAweC6utT3NepI-rIvqW6bbU1VrRjG4oCNIAAy0ij6SYgZsESpw2SENEmZKCTFg3TUluDa4GaQf0ekpHVQOk40kRt7vD0JaXgeZmO-6AlkRWz_4xv1854FCNCY_C-TcwShFo0aoh-P_Z_m9RKLC8uapqOEm7SBPKxsZCDpYbA1822xTlrwg1VIuYqSOuWQPvxTWt4hJHDfi_qTSn_gcdh8glPVyxWws0tASWOitf7UEk?fife"" height=""200"" width=""auto"" /><br><br>住所: 〒916-0029福井県鯖江市北野町1丁目1-20<br>参加形態: 販売, ワークショップ<br>紹介: 鯖江市で創業61年眼鏡用鼻パッド専門メーカーとして福井の産業技術に関わっています。創業61年の眼鏡用鼻パッド専門メーカー。国内ブランドのアセテート製眼鏡の鼻パッドのうち90％のシェアを誇っています。アセテート製眼鏡フロント枠プレス加工も同時に行っており、鯖江では7割弊社で加工しております。<br>出展日: <br>営業時間: <br>電話番号: 0778-51-2752<br>Web: https://matsubara-nosepad.co.jp<br>YouTube: ",〒916-0029福井県鯖江市北野町1丁目1-20,鯖江市で創業61年眼鏡用鼻パッド専門メーカーとして福井の産業技術に関わっています。創業61年の眼鏡用鼻パッド専門メーカー。国内ブランドのアセテート製眼鏡の鼻パッドのうち90％のシェアを誇っています。アセテート製眼鏡フロント枠プレス加工も同時に行っており、鯖江では7割弊社で加工しております。,https://doc-0g-00-mymaps.googleusercontent.com/untrusted/hostedimage/tjp71pbl755n1d9knaupn39qao/8ctbku75h5mfrj3tjssfmtari4/1696731300000/JZE0f6HJRobklDdF9DDVtADt9cDcsdY3/*/6AJ9UNGqpAweC6utT3NepI-rIvqW6bbU1VrRjG4oCNIAAy0ij6SYgZsESpw2SENEmZKCTFg3TUluDa4GaQf0ekpHVQOk40kRt7vD0JaXgeZmO-6AlkRWz_4xv1854FCNCY_C-TcwShFo0aoh-P_Z_m9RKLC8uapqOEm7SBPKxsZCDpYbA1822xTlrwg1VIuYqSOuWQPvxTWt4hJHDfi_qTSn_gcdh8glPVyxWws0tASWOitf7UEk?fife,"販売, ワークショップ",,,0778-51-2752,https://matsubara-nosepad.co.jp,
佐々木セルロイド,眼鏡,images/icon-4.png,35.969687,136.165251,佐々木セルロイド,"<img src=""https://doc-0s-00-mymaps.googleusercontent.com/untrusted/hostedimage/tjp71pbl755n1d9knaupn39qao/k2oca4t0snf64bbtfu7iagfbn8/1696731300000/JZE0f6HJRobklDdF9DDVtADt9cDcsdY3/*/6AJ9UNGoueI2Euvn7RPgz98-J_daaXbOkP9O9qWDouLz42aiQ40HNm_RbQ6cHbWBtGeD9DTKxpBwt92dMDOScpLXHCjMJtJq-bOx1oLbu1flgdh5H06RQbdMF6S9BrreKOFrUtj2c26FMnHVOB6lJd_iRrO3UpCWTtHssnA97OounBzWQeFYK5x2itGmllGchRXccfFAsh02PPIsYCZ_5j76L__NmK4dR0jm6In2_c3NzuzapEcM?fife"" height=""200"" width=""auto"" /><br><br>住所: 〒916-0084 福井県鯖江市小泉町31-3-10<br>参加形態: 工房（見学・展示）, 販売, ワークショップ<br>紹介: 鯖江で創業して100年余り、アセテートとセルロイドの眼鏡を造り続けてきました。品質に定評のある当社の眼鏡は、約40名の職人の手作業により日々生み出されています。魂を込めた眼鏡造りをぜひ体感しにお越しください。<br>出展日: 6・7日<br>営業時間: 10:00-12:00 / 13:00-17:00<br>電話番号: 0778-62-2535<br>Web: https://celluloid.co.jp<br>YouTube: ",〒916-0084 福井県鯖江市小泉町31-3-10,鯖江で創業して100年余り、アセテートとセルロイドの眼鏡を造り続けてきました。品質に定評のある当社の眼鏡は、約40名の職人の手作業により日々生み出されています。魂を込めた眼鏡造りをぜひ体感しにお越しください。,https://doc-0s-00-mymaps.googleusercontent.com/untrusted/hostedimage/tjp71pbl755n1d9knaupn39qao/k2oca4t0snf64bbtfu7iagfbn8/1696731300000/JZE0f6HJRobklDdF9DDVtADt9cDcsdY3/*/6AJ9UNGoueI2Euvn7RPgz98-J_daaXbOkP9O9qWDouLz42aiQ40HNm_RbQ6cHbWBtGeD9DTKxpBwt92dMDOScpLXHCjMJtJq-bOx1oLbu1flgdh5H06RQbdMF6S9BrreKOFrUtj2c26FMnHVOB6lJd_iRrO3UpCWTtHssnA97OounBzWQeFYK5x2itGmllGchRXccfFAsh02PPIsYCZ_5j76L__NmK4dR0jm6In2_c3NzuzapEcM?fife,"工房（見学・展示）, 販売, ワークショップ",6・7日,10:00-12:00 / 13:00-17:00,0778-62-2535,https://celluloid.co.jp,
リペア/鯖江駅眼鏡,眼鏡,images/icon-4.png,35.97219999999999,136.152221,リペア/鯖江駅眼鏡,"<img src=""https://doc-0c-00-mymaps.googleusercontent.com/untrusted/hostedimage/tjp71pbl755n1d9knaupn39qao/qe269ne08ln05pc9i7565k42k8/1696731300000/JZE0f6HJRobklDdF9DDVtADt9cDcsdY3/*/6AJ9UNGq-yw2cYFRH-pJMhHUdIQYgeWuibPpSRbK3XzIl3kbct_H2ZG2TYBJx1ZjMPl4LB_GSpcOA77Gc-ej52r_R4dMl13gLIm0YAuNNqOvyHKSjhYu_BrYuO_D__Z7syt1idh2WavJfxnaznSFz3u2_jTAf0J3h7nG6jRRxQ_m-Hhsu6493Cyga4jq_WWhVwuriW86pwkdKouzPofYr2H19wjXE3mzt4gF0FPy-6Qq6p9T18kA?fife"" height=""200"" width=""auto"" /><br><br>住所: 〒916−0053 福井県鯖江市日の出町1−2<br>参加形態: 販売, ワークショップ<br>紹介: メガネストリートの出発地点である鯖江駅。その観光案内所にて「めがねのまち」産地ならではのメガネ販売や、メガネの素材を使ったワークショップ体験が出来るお店です。<br>出展日: 6-8日<br>営業時間: 10:00-19-00<br>電話番号: 0778−62−7507<br>Web: http://repair-f.com<br>YouTube: ",〒916−0053 福井県鯖江市日の出町1−2,メガネストリートの出発地点である鯖江駅。その観光案内所にて「めがねのまち」産地ならではのメガネ販売や、メガネの素材を使ったワークショップ体験が出来るお店です。,https://doc-0c-00-mymaps.googleusercontent.com/untrusted/hostedimage/tjp71pbl755n1d9knaupn39qao/qe269ne08ln05pc9i7565k42k8/1696731300000/JZE0f6HJRobklDdF9DDVtADt9cDcsdY3/*/6AJ9UNGq-yw2cYFRH-pJMhHUdIQYgeWuibPpSRbK3XzIl3kbct_H2ZG2TYBJx1ZjMPl4LB_GSpcOA77Gc-ej52r_R4dMl13gLIm0YAuNNqOvyHKSjhYu_BrYuO_D__Z7syt1idh2WavJfxnaznSFz3u2_jTAf0J3h7nG6jRRxQ_m-Hhsu6493Cyga4jq_WWhVwuriW86pwkdKouzPofYr2H19wjXE3mzt4gF0FPy-6Qq6p9T18kA?fife,"販売, ワークショップ",6-8日,10:00-19-00,0778−62−7507,http://repair-f.com,
めがねミュージアム（＝眼鏡協会）,眼鏡,images/icon-4.png,35.942736,136.198826,めがねミュージアム（＝眼鏡協会）,"<img src=""https://doc-0k-00-mymaps.googleusercontent.com/untrusted/hostedimage/tjp71pbl755n1d9knaupn39qao/ldlm6bm96al58u5q0oik02obuc/1696731300000/JZE0f6HJRobklDdF9DDVtADt9cDcsdY3/*/6AJ9UNGq9M4HgHFB_d7LqFq1QWfJUFnKaKqXvHEiRVtw6anXUsGpMoAmbGtlgUFlmQabLZTAe17z11eYT1qYORLWU12Hg-QhZ5bmgKBwxjrd3zOwQ_8quMfbXcNyBYcqpFLQZo3787Jlrc0FWV7bHBeLQno42qmHDfhxPbgK9ogMHp6NHGsD8C6Z3RONxOnD4l9HeXbfP0ca7xrj7hxUnUzZAQwhiJmlyz9HJnyzbrK-xjecmTIQ?fife"" height=""200"" width=""auto"" /><br><br>住所: 〒916-0042 福井県鯖江市新横江2-3-4<br>参加形態: 販売, ワークショップ<br>紹介: Made In JAPANの最新モデルが購入できる「めがねショップ」、めがね素材を使った手作りを体験できる「体験工房」、めがねの歴史をより深く知ることができる「めがね博物館」など、めがねを見て、触れて、体験できる場をご用意しております。 <br>出展日: 6-8日<br>営業時間: めがねSHOP：10:00～19:00 <br>体験工房/めがね博物館/SabaeSweets：10:00～17:00 <br>MUSEUM CAFE：10:00～16:00<br>電話番号: 0778-42-8311<br>Web: https://www.megane.gr.jp/museum/<br>YouTube: ",〒916-0042 福井県鯖江市新横江2-3-4,Made In JAPANの最新モデルが購入できる「めがねショップ」、めがね素材を使った手作りを体験できる「体験工房」、めがねの歴史をより深く知ることができる「めがね博物館」など、めがねを見て、触れて、体験できる場をご用意しております。,https://doc-0k-00-mymaps.googleusercontent.com/untrusted/hostedimage/tjp71pbl755n1d9knaupn39qao/ldlm6bm96al58u5q0oik02obuc/1696731300000/JZE0f6HJRobklDdF9DDVtADt9cDcsdY3/*/6AJ9UNGq9M4HgHFB_d7LqFq1QWfJUFnKaKqXvHEiRVtw6anXUsGpMoAmbGtlgUFlmQabLZTAe17z11eYT1qYORLWU12Hg-QhZ5bmgKBwxjrd3zOwQ_8quMfbXcNyBYcqpFLQZo3787Jlrc0FWV7bHBeLQno42qmHDfhxPbgK9ogMHp6NHGsD8C6Z3RONxOnD4l9HeXbfP0ca7xrj7hxUnUzZAQwhiJmlyz9HJnyzbrK-xjecmTIQ?fife,"販売, ワークショップ",6-8日,"めがねSHOP：10:00～19:00 
体験工房/めがね博物館/SabaeSweets：10:00～17:00 
MUSEUM CAFE：10:00～16:00",0778-42-8311,https://www.megane.gr.jp/museum/,
ササマタ,眼鏡,images/icon-4.png,35.95296800000001,136.20836,ササマタ,"<img src=""https://doc-0s-00-mymaps.googleusercontent.com/untrusted/hostedimage/tjp71pbl755n1d9knaupn39qao/1a0q68mm79snojbor2u0b1oqtg/1696731300000/JZE0f6HJRobklDdF9DDVtADt9cDcsdY3/*/6AJ9UNGrwxmcet44u137BOw8zo8EiTz9spyXQwxkDa5VlJR9hB_iFBw2VqwyLqq-8wvW178Rm9a0HrTtkC3W_HHwN4gNkKEg9VLFD6j25vIXnzRK_2DjT1PdgQZnwB-qDhwgsUhLaiTYax14DwV_ByOGL5EFtRZ2tAbd-detTAuPZsDa8KCFUTyEd4UZfgbwiPa3O2oIg7fUy5FKiTnwEi1oIVNOnPg3auFTQiyWUFCqB_XQH2f4?fife"" height=""200"" width=""auto"" /><br><br>住所: 〒916-0033 福井県鯖江市中野町49-7<br>参加形態: 工房（見学・展示）, 販売, ワークショップ<br>紹介: 株式会社ササマタは鯖江市でメガネの掛け心地を左右する細かい部品や、メガネ関連製品、その他アイデアの詰まった商品の開発・製造・販売を行っている企業です。<br>出展日: 6-8日<br>営業時間: 9:00-12:00 / 13:00-17:00<br>電話番号: 0778-51-0807<br>Web: https://www.ssmt.jp/<br>YouTube: ",〒916-0033 福井県鯖江市中野町49-7,株式会社ササマタは鯖江市でメガネの掛け心地を左右する細かい部品や、メガネ関連製品、その他アイデアの詰まった商品の開発・製造・販売を行っている企業です。,https://doc-0s-00-mymaps.googleusercontent.com/untrusted/hostedimage/tjp71pbl755n1d9knaupn39qao/1a0q68mm79snojbor2u0b1oqtg/1696731300000/JZE0f6HJRobklDdF9DDVtADt9cDcsdY3/*/6AJ9UNGrwxmcet44u137BOw8zo8EiTz9spyXQwxkDa5VlJR9hB_iFBw2VqwyLqq-8wvW178Rm9a0HrTtkC3W_HHwN4gNkKEg9VLFD6j25vIXnzRK_2DjT1PdgQZnwB-qDhwgsUhLaiTYax14DwV_ByOGL5EFtRZ2tAbd-detTAuPZsDa8KCFUTyEd4UZfgbwiPa3O2oIg7fUy5FKiTnwEi1oIVNOnPg3auFTQiyWUFCqB_XQH2f4?fife,"工房（見学・展示）, 販売, ワークショップ",6-8日,9:00-12:00 / 13:00-17:00,0778-51-0807,https://www.ssmt.jp/,
谷口眼鏡,眼鏡,images/icon-4.png,35.953713,136.278314,谷口眼鏡,"<img src=""https://doc-0c-00-mymaps.googleusercontent.com/untrusted/hostedimage/tjp71pbl755n1d9knaupn39qao/0qttfjekce5f1q9s7r5934qfuo/1696731300000/JZE0f6HJRobklDdF9DDVtADt9cDcsdY3/*/6AJ9UNGqDNfybXBHz14Jte_iNhLXW7ls40g3GBrBuWNLiZ9P6bVrB03eE2lrdt2mArKuyo1TE9D0iYIekGPqZXmHWMeR3OD0WN4fqo5Gi_YqlsFRApdIQDsYZvvaQsDZ18KyPQE41umlk19sEeQRZnIFGiLMOLVphCWQk2KsPj1kSUq5qWeY9AeHvTmyAkVuZkUfv410C07LED6-keKnNIzUlr40uIJnKTw-clJmnF6Bx3u0k7JY?fife"" height=""200"" width=""auto"" /><br><br>住所: 〒916-1221福井県鯖江市西袋町228<br>参加形態: 工房（見学・展示）, 販売, ワークショップ<br>紹介: 60年以上の歴史を持つ老舗プラ枠製造工場。 職人が丁寧な手仕事で仕上げるオリジナルブランド「TURNING」「tesio」は暮らしに馴染み、使うほどに愛着が湧き、価値が増していきます。<br>出展日: 6-8日<br>営業時間: 6日 10:00-12:00 /13:00-17:00 7・8日 10:00-17:00<br>電話番号: 0778-65-0811<br>Web: https://www.turning-opt.com/<br>YouTube: https://youtu.be/GRavYKfY3xk?si=4Cu8Z8BGBJolyJY1",〒916-1221福井県鯖江市西袋町228,60年以上の歴史を持つ老舗プラ枠製造工場。 職人が丁寧な手仕事で仕上げるオリジナルブランド「TURNING」「tesio」は暮らしに馴染み、使うほどに愛着が湧き、価値が増していきます。,https://doc-0c-00-mymaps.googleusercontent.com/untrusted/hostedimage/tjp71pbl755n1d9knaupn39qao/0qttfjekce5f1q9s7r5934qfuo/1696731300000/JZE0f6HJRobklDdF9DDVtADt9cDcsdY3/*/6AJ9UNGqDNfybXBHz14Jte_iNhLXW7ls40g3GBrBuWNLiZ9P6bVrB03eE2lrdt2mArKuyo1TE9D0iYIekGPqZXmHWMeR3OD0WN4fqo5Gi_YqlsFRApdIQDsYZvvaQsDZ18KyPQE41umlk19sEeQRZnIFGiLMOLVphCWQk2KsPj1kSUq5qWeY9AeHvTmyAkVuZkUfv410C07LED6-keKnNIzUlr40uIJnKTw-clJmnF6Bx3u0k7JY?fife,"工房（見学・展示）, 販売, ワークショップ",6-8日,6日 10:00-12:00 /13:00-17:00 7・8日 10:00-17:00,0778-65-0811,https://www.turning-opt.com/,https://youtu.be/GRavYKfY3xk?si=4Cu8Z8BGBJolyJY1
井上リボン工業,繊維,images/icon-5.png,35.909949,136.239677,井上リボン工業,"<img src=""https://doc-0g-00-mymaps.googleusercontent.com/untrusted/hostedimage/tjp71pbl755n1d9knaupn39qao/sgiashhrks0i64bv9oj2eoi7vs/1696731300000/JZE0f6HJRobklDdF9DDVtADt9cDcsdY3/*/6AJ9UNGoLyCpbm5LRATjcNAbQT4JXL9Vuq9BBfwQD4mDILOvuSuvYBZb7d724jan7y-ZV0AQWO_AIA5JhCkBRrdwO99v1_KF3ZdMAUaJ7gpHuUPYA9H2qgOdc2vurMXKTOFBST1sc5-h6QNYKTLVXfAR9FRXQOn5VEtbVlUaZDodF_65v7juVatdD_CibFT00dIz9iZxmkv8x4Ggc3rHeBZZG9xysTAPnWfAOcYQsCoweBlSAnS0?fife"" height=""200"" width=""auto"" /><br><br>住所: 〒915-0243 福井県越前市岩本町9-4<br>参加形態: 工房（見学・展示）, 販売<br>紹介: 1948年創業以来、細幅織物・編物の製造を続けております。越前市のものづくり企業として、伝統産業でありながらも常に新たな事業、商品開発に取り組んでいます。<br>出展日: 6・7日<br>営業時間: 8:00-12:00 / 13:00-17:00<br>電話番号: 0778-43-0810<br>Web: https://www.telala.com/",〒915-0243 福井県越前市岩本町9-4,1948年創業以来、細幅織物・編物の製造を続けております。越前市のものづくり企業として、伝統産業でありながらも常に新たな事業、商品開発に取り組んでいます。,https://doc-0g-00-mymaps.googleusercontent.com/untrusted/hostedimage/tjp71pbl755n1d9knaupn39qao/sgiashhrks0i64bv9oj2eoi7vs/1696731300000/JZE0f6HJRobklDdF9DDVtADt9cDcsdY3/*/6AJ9UNGoLyCpbm5LRATjcNAbQT4JXL9Vuq9BBfwQD4mDILOvuSuvYBZb7d724jan7y-ZV0AQWO_AIA5JhCkBRrdwO99v1_KF3ZdMAUaJ7gpHuUPYA9H2qgOdc2vurMXKTOFBST1sc5-h6QNYKTLVXfAR9FRXQOn5VEtbVlUaZDodF_65v7juVatdD_CibFT00dIz9iZxmkv8x4Ggc3rHeBZZG9xysTAPnWfAOcYQsCoweBlSAnS0?fife,"工房（見学・展示）, 販売",6・7日,8:00-12:00 / 13:00-17:00,0778-43-0810,https://www.telala.com/,
shifu.,繊維,images/icon-5.png,35.8879893,136.1553524,shifu.,"<img src=""https://doc-0o-00-mymaps.googleusercontent.com/untrusted/hostedimage/tjp71pbl755n1d9knaupn39qao/9akq352sqb6m0lf6rga6pi6e3k/1696731300000/JZE0f6HJRobklDdF9DDVtADt9cDcsdY3/*/6AJ9UNGqYo4ygUISMPUBypODA1988YajQvprnYwfOmVBkjO-QXBRvKIVYs0dcwlSq0rJ9ZTgRXbiUsw_X61Zsh8g-_yJbRK2AbUJfdq5O7QSjVCukW6RMMqdBC-PCAB_MMMCrXbvZs6t8_aJSsU04eRqCyqApZxTvrLfINBbtt7Xltezm-8qZIubXIyDPtte8xYiInIItdnXoRtoMrlu_CDaB9-x_lwmrqxDMkOsnJ4AiRGV89bA?fife"" height=""200"" width=""auto"" /><br><br>住所: 〒915-0846 福井県越前市千福町606-2<br>参加形態: 工房（見学・展示）, 販売, ワークショップ<br>紹介: shifu.（シフ）は、クラウドファンディング から生まれた和紙を素材とした新しいアパレルブランドです。ひとつひとつ丁寧におつくり皆さまの元へお届けいたします。<br>出展日: 6-7日<br>営業時間: 10:00-12:00 / 13:00-16:00<br>電話番号: 080-3047-9047<br>Web: ",〒915-0846 福井県越前市千福町606-2,shifu.（シフ）は、クラウドファンディング から生まれた和紙を素材とした新しいアパレルブランドです。ひとつひとつ丁寧におつくり皆さまの元へお届けいたします。,https://doc-0o-00-mymaps.googleusercontent.com/untrusted/hostedimage/tjp71pbl755n1d9knaupn39qao/9akq352sqb6m0lf6rga6pi6e3k/1696731300000/JZE0f6HJRobklDdF9DDVtADt9cDcsdY3/*/6AJ9UNGqYo4ygUISMPUBypODA1988YajQvprnYwfOmVBkjO-QXBRvKIVYs0dcwlSq0rJ9ZTgRXbiUsw_X61Zsh8g-_yJbRK2AbUJfdq5O7QSjVCukW6RMMqdBC-PCAB_MMMCrXbvZs6t8_aJSsU04eRqCyqApZxTvrLfINBbtt7Xltezm-8qZIubXIyDPtte8xYiInIItdnXoRtoMrlu_CDaB9-x_lwmrqxDMkOsnJ4AiRGV89bA?fife,"工房（見学・展示）, 販売, ワークショップ",6-7日,10:00-12:00 / 13:00-16:00,080-3047-9047,,
酒伊編織株式会社,繊維,images/icon-5.png,35.94418,136.1819683,酒伊編織株式会社,"<img src=""https://doc-14-00-mymaps.googleusercontent.com/untrusted/hostedimage/tjp71pbl755n1d9knaupn39qao/7c5qosvkujcv6cjirkd61jssqo/1696731300000/JZE0f6HJRobklDdF9DDVtADt9cDcsdY3/*/6AJ9UNGo2UN7cT6P4vzmEt6mEeCMmh2bLuWK7wQl0xzCB6KrVXfOj6xz3GFOH1p5LC8UEqh1X3X_azt5dlEkQcLwG7h6gTfWrtNEVhjAFeI6XWIiTn_Tuk7uw23sKZqxugMCczT4b6z36DCVU-h3sM2oWTHWxIn0CKKmv1xEeOKd8JOs4mSz-Q12Rqv388qgjMfjt3F-755Nt34cIrt1gOeGCDq-8tNI3SWC-4dTbVAetp69P5fc?fife"" height=""200"" width=""auto"" /><br><br>住所: 〒916-0027福井県鯖江市桜町2-1-5<br>参加形態: ワークショップ<br>紹介: 創業60周年を迎えた鯖江の繊維加工会社。生地開発から製品出荷まで一環で生産できる基盤を揃えており、国内大手スポーツ用品メーカーのOEM受注に対応している。現在は一般向けに加工サービスを模索している。<br>出展日: 6日<br>営業時間: 9:00-12:00 / 13:00-17:00<br>電話番号: 0778-51-4640<br>Web: https://sakaiamiori.com/",〒916-0027福井県鯖江市桜町2-1-5,創業60周年を迎えた鯖江の繊維加工会社。生地開発から製品出荷まで一環で生産できる基盤を揃えており、国内大手スポーツ用品メーカーのOEM受注に対応している。現在は一般向けに加工サービスを模索している。,https://doc-14-00-mymaps.googleusercontent.com/untrusted/hostedimage/tjp71pbl755n1d9knaupn39qao/7c5qosvkujcv6cjirkd61jssqo/1696731300000/JZE0f6HJRobklDdF9DDVtADt9cDcsdY3/*/6AJ9UNGo2UN7cT6P4vzmEt6mEeCMmh2bLuWK7wQl0xzCB6KrVXfOj6xz3GFOH1p5LC8UEqh1X3X_azt5dlEkQcLwG7h6gTfWrtNEVhjAFeI6XWIiTn_Tuk7uw23sKZqxugMCczT4b6z36DCVU-h3sM2oWTHWxIn0CKKmv1xEeOKd8JOs4mSz-Q12Rqv388qgjMfjt3F-755Nt34cIrt1gOeGCDq-8tNI3SWC-4dTbVAetp69P5fc?fife,ワークショップ,6日,9:00-12:00 / 13:00-17:00,0778-51-4640,https://sakaiamiori.com/,
八田経編　鯖江工場,繊維,images/icon-5.png,35.9479846,136.2196588,八田経編　鯖江工場,"<img src=""https://doc-0o-00-mymaps.googleusercontent.com/untrusted/hostedimage/tjp71pbl755n1d9knaupn39qao/gmrkblb2s1ofvuu5pmkapn025k/1696731300000/JZE0f6HJRobklDdF9DDVtADt9cDcsdY3/*/6AJ9UNGq0w06nI4OmO0L-e7ExlvC8nE3IawsU68LMQIQNHbRYkwrD7ym6ybrd9IIWDxzgZ98AmZjbM6rm02sDbDOz7-cXDTKHkjaYGR1-myXBlVvKAAE3e2V3Yo2j_GQKpRvU7EpJ-ygd5k6bMaLQz3QkVDeML4QbrT6WRZFlgrErg6ycZa-FxvURNQNnW2w8Z05_-sw9tqGjXyXGy9LSsSX9pOZfwJSwYPZosdTUvcOvjVB6R7M?fife"" height=""200"" width=""auto"" /><br><br>住所: 〒916-0033　福井県鯖江市中野町115-10<br>参加形態: 工房（見学・展示）, 販売<br>紹介: 1949年創業。経編(たてあみ)ニットのテキスタイルメーカー。<br>ファッションから産業資材まで幅広い分野に向けて素材を開発・生産し、新たな市場を生み出すため経編の可能性を日々探求しています。<br>出展日: 6・7日<br>営業時間: 10:00-12:00 / 13:00-17:00<br>電話番号: 0778-52-1200<br>Web: www.8ta.co.jp",〒916-0033　福井県鯖江市中野町115-10,"1949年創業。経編(たてあみ)ニットのテキスタイルメーカー。
ファッションから産業資材まで幅広い分野に向けて素材を開発・生産し、新たな市場を生み出すため経編の可能性を日々探求しています。",https://doc-0o-00-mymaps.googleusercontent.com/untrusted/hostedimage/tjp71pbl755n1d9knaupn39qao/gmrkblb2s1ofvuu5pmkapn025k/1696731300000/JZE0f6HJRobklDdF9DDVtADt9cDcsdY3/*/6AJ9UNGq0w06nI4OmO0L-e7ExlvC8nE3IawsU68LMQIQNHbRYkwrD7ym6ybrd9IIWDxzgZ98AmZjbM6rm02sDbDOz7-cXDTKHkjaYGR1-myXBlVvKAAE3e2V3Yo2j_GQKpRvU7EpJ-ygd5k6bMaLQz3QkVDeML4QbrT6WRZFlgrErg6ycZa-FxvURNQNnW2w8Z05_-sw9tqGjXyXGy9LSsSX9pOZfwJSwYPZosdTUvcOvjVB6R7M?fife,"工房（見学・展示）, 販売",6・7日,10:00-12:00 / 13:00-17:00,0778-52-1200,www.8ta.co.jp,
三崎タンス店,越前箪笥,images/icon-6.png,35.9003695,136.1648642,三崎タンス店,"<img src=""https://doc-0g-00-mymaps.googleusercontent.com/untrusted/hostedimage/tjp71pbl755n1d9knaupn39qao/5c7shoqo6fvuevolcelbi84hro/1696731300000/JZE0f6HJRobklDdF9DDVtADt9cDcsdY3/*/6AJ9UNGrIAqJHjgCFS6PKdk4ZxFb0DVCGtj5vDC39lIglFsd_PA4LC0N1scqX-Jk9345Iz8gZk-vUR7ejs8RHW1ZFpXp1yr6NnvKq-NucZJyl5Hdf4kqtBey0VWaJif5BvdY03uTKzv1CE-sT-pLEAcM0MuQU47FcVmyfYabdcHKfJ_7gOz3-vPKT-qj0252V_zVHzqdg-fGFWLZVPaEpFDAfNT2FfZY_A-crwCPGtJ5G6EW7or0?fife"" height=""200"" width=""auto"" /><br><br>住所: 〒915-0822 福井県越前市元町5-10<br>参加形態: 工房（見学・展示）, 販売<br>紹介: 越前箪笥や桐たんす、木製品を製造販売し、八代続く老舗の家具店としてご愛顧いただいております。昔ながらの意匠や技術を受け継ぎながら、イマのデザインやサイズの家具を提案し、心のこもった製品をお届けします。<br>出展日: 6・7日<br>営業時間: 10:00-12:00 / 13:00-17:00<br>電話番号: 0778-22-0568<br>Web: https://misakitansu.com",〒915-0822 福井県越前市元町5-10,越前箪笥や桐たんす、木製品を製造販売し、八代続く老舗の家具店としてご愛顧いただいております。昔ながらの意匠や技術を受け継ぎながら、イマのデザインやサイズの家具を提案し、心のこもった製品をお届けします。,https://doc-0g-00-mymaps.googleusercontent.com/untrusted/hostedimage/tjp71pbl755n1d9knaupn39qao/5c7shoqo6fvuevolcelbi84hro/1696731300000/JZE0f6HJRobklDdF9DDVtADt9cDcsdY3/*/6AJ9UNGrIAqJHjgCFS6PKdk4ZxFb0DVCGtj5vDC39lIglFsd_PA4LC0N1scqX-Jk9345Iz8gZk-vUR7ejs8RHW1ZFpXp1yr6NnvKq-NucZJyl5Hdf4kqtBey0VWaJif5BvdY03uTKzv1CE-sT-pLEAcM0MuQU47FcVmyfYabdcHKfJ_7gOz3-vPKT-qj0252V_zVHzqdg-fGFWLZVPaEpFDAfNT2FfZY_A-crwCPGtJ5G6EW7or0?fife,"工房（見学・展示）, 販売",6・7日,10:00-12:00 / 13:00-17:00,0778-22-0568,https://misakitansu.com,
小柳箪笥店（kicoru）,越前箪笥,images/icon-6.png,35.895402,136.165969,小柳箪笥店（kicoru）,"<img src=""https://doc-08-00-mymaps.googleusercontent.com/untrusted/hostedimage/tjp71pbl755n1d9knaupn39qao/90n8a9qh43po1n5e43hnbscecc/1696731300000/JZE0f6HJRobklDdF9DDVtADt9cDcsdY3/*/6AJ9UNGrdV-2uxRQtJQRMjJz2L3l4gESp5T-9BGBTiRPj_EpBiQxcmZmQhjyVyN0FBK1_i-FqQTqT8HdBpK9_pOWekLqCT27oX15SWAXwCXWNxlky0tME6amHFMnDS8P_QPYppnyzRzU8tAPDLWKFyQ4r4II2zNPna3yfdm9eDsgR7VEMlArkNfQo5pgM1XvQSsOrilUwBGvtojBKn99GuXk57_3L_aQNVQ86DdJL-1YHhlILQic?fife"" height=""200"" width=""auto"" /><br><br>住所: 〒915-0824 福井県越前市武生柳町10−7<br><br>参加形態: 工房（見学・展示）, 販売, ワークショップ<br>紹介: 小柳箪笥では、金具作りや漆塗り作業をガラス越しに 見学できる工房見学と、越前箪笥やオリジナルの木の 家具や雑貨のあるショールームが楽しめます。職人と直 接お話ができ、見て楽しめる工房です！<br>出展日: 6-8日<br>営業時間: 10:00-12:00 / 13:00-17:00<br>電話番号: 0778-22-1854<br>Web: https://kicoru.com/",〒915-0824 福井県越前市武生柳町10−7,小柳箪笥では、金具作りや漆塗り作業をガラス越しに 見学できる工房見学と、越前箪笥やオリジナルの木の 家具や雑貨のあるショールームが楽しめます。職人と直 接お話ができ、見て楽しめる工房です！,https://doc-08-00-mymaps.googleusercontent.com/untrusted/hostedimage/tjp71pbl755n1d9knaupn39qao/90n8a9qh43po1n5e43hnbscecc/1696731300000/JZE0f6HJRobklDdF9DDVtADt9cDcsdY3/*/6AJ9UNGrdV-2uxRQtJQRMjJz2L3l4gESp5T-9BGBTiRPj_EpBiQxcmZmQhjyVyN0FBK1_i-FqQTqT8HdBpK9_pOWekLqCT27oX15SWAXwCXWNxlky0tME6amHFMnDS8P_QPYppnyzRzU8tAPDLWKFyQ4r4II2zNPna3yfdm9eDsgR7VEMlArkNfQo5pgM1XvQSsOrilUwBGvtojBKn99GuXk57_3L_aQNVQ86DdJL-1YHhlILQic?fife,"工房（見学・展示）, 販売, ワークショップ",6-8日,10:00-12:00 / 13:00-17:00,0778-22-1854,https://kicoru.com/,
ファニチャーホリック,越前箪笥,images/icon-6.png,35.9018237,136.1402581,ファニチャーホリック,"<img src=""https://doc-00-00-mymaps.googleusercontent.com/untrusted/hostedimage/tjp71pbl755n1d9knaupn39qao/jte5semj87cqem61ofivfkdtik/1696731300000/JZE0f6HJRobklDdF9DDVtADt9cDcsdY3/*/6AJ9UNGom8koN1JzBYPfw022CMV9z3SjWD98w-_b3vLEI8bNX0tggRLUntlkWsCVyDmpH05ZRIvq_REZHAqJzxf-wLkxh17Cs9s1SXw82ua1oN-4kssEf17sln6wFnhzvi_lUOtEBw_MX3B1mTC-dS9lwXjaFXdhf1_oXtxV3RlppoVaJypZgiWNlfvZNbSGaTZa2sL5HSzxtWJuYmFbDsG1L1TZaQ5vF80YRPauK63GvRXxv9Rs?fife"" height=""200"" width=""auto"" /><br><br>住所: 〒915-0885 福井県越前市大虫町6-2<br>参加形態: 工房（見学・展示）, 販売, ワークショップ<br>紹介: 「あなたの想いをカタチにします」<br>建設機械設計の経験を生かした、シンプルで丈夫な使いやすい家具を製作しています。福井の工芸「7人の侍」の活動も精力的に行っており、箪笥のキャリーバッグやワインケースがメディアに取り上げられ話題となっています。<br>出展日: 6・7日<br>営業時間: 10:00-12:00 / 13:00-17:00<br>電話番号: 0778-43-5375<br>Web: https://furnitureholic.com",〒915-0885 福井県越前市大虫町6-2,"「あなたの想いをカタチにします」
建設機械設計の経験を生かした、シンプルで丈夫な使いやすい家具を製作しています。福井の工芸「7人の侍」の活動も精力的に行っており、箪笥のキャリーバッグやワインケースがメディアに取り上げられ話題となっています。",https://doc-00-00-mymaps.googleusercontent.com/untrusted/hostedimage/tjp71pbl755n1d9knaupn39qao/jte5semj87cqem61ofivfkdtik/1696731300000/JZE0f6HJRobklDdF9DDVtADt9cDcsdY3/*/6AJ9UNGom8koN1JzBYPfw022CMV9z3SjWD98w-_b3vLEI8bNX0tggRLUntlkWsCVyDmpH05ZRIvq_REZHAqJzxf-wLkxh17Cs9s1SXw82ua1oN-4kssEf17sln6wFnhzvi_lUOtEBw_MX3B1mTC-dS9lwXjaFXdhf1_oXtxV3RlppoVaJypZgiWNlfvZNbSGaTZa2sL5HSzxtWJuYmFbDsG1L1TZaQ5vF80YRPauK63GvRXxv9Rs?fife,"工房（見学・展示）, 販売, ワークショップ",6・7日,10:00-12:00 / 13:00-17:00,0778-43-5375,https://furnitureholic.com,
TSUGI(SAVA!STORE),その他ものづくり企業、地域企業,images/icon-4.png,35.95065,136.2741057,TSUGI(SAVA!STORE),"<img src=""https://doc-14-00-mymaps.googleusercontent.com/untrusted/hostedimage/tjp71pbl755n1d9knaupn39qao/fm296ft34opvsfm1jp1o6hu96s/1696731300000/JZE0f6HJRobklDdF9DDVtADt9cDcsdY3/*/6AJ9UNGo7iokAfvOYcQp8hIzBkdrwab8_akux1wZlZO3BT7KOGDJ028J6QLMLC-e28QU0B7gH5rMR5NOp32r7UOX9YwKmtKFZfmtPWonqaDyGlG4voD-qDOE2IyMBwhHW8lBfZbCsJtBFnRhGPwEJOYkVMRMvS6LJ_tQhFgaL1JEOELinV4udJrTJWLcw05s-QAHmFFxTPWVKFK6piiWU13z7uEK897wbxM9gaecgkOOR5x3j7Mc?fife"" height=""200"" width=""auto"" /><br><br>住所: 〒916-1222 福井県鯖江市河和田町19-8<br>参加形態: 販売, ワークショップ<br>紹介: 「創造的な産地をつくる」をビジョンに、デザイン、商品開発、販路開拓までを一貫して行なっています。事務所に併設する「SAVA!STORE」では、福井のプロダクトや自社デザインの商品を取り扱っています。<br>出展日: 6-8日<br>営業時間: 10:00-18:00<br>電話番号: 0778-65-0048<br>Web: https://tsugilab.com/<br>YouTube: ",〒916-1222 福井県鯖江市河和田町19-8,「創造的な産地をつくる」をビジョンに、デザイン、商品開発、販路開拓までを一貫して行なっています。事務所に併設する「SAVA!STORE」では、福井のプロダクトや自社デザインの商品を取り扱っています。,https://doc-14-00-mymaps.googleusercontent.com/untrusted/hostedimage/tjp71pbl755n1d9knaupn39qao/fm296ft34opvsfm1jp1o6hu96s/1696731300000/JZE0f6HJRobklDdF9DDVtADt9cDcsdY3/*/6AJ9UNGo7iokAfvOYcQp8hIzBkdrwab8_akux1wZlZO3BT7KOGDJ028J6QLMLC-e28QU0B7gH5rMR5NOp32r7UOX9YwKmtKFZfmtPWonqaDyGlG4voD-qDOE2IyMBwhHW8lBfZbCsJtBFnRhGPwEJOYkVMRMvS6LJ_tQhFgaL1JEOELinV4udJrTJWLcw05s-QAHmFFxTPWVKFK6piiWU13z7uEK897wbxM9gaecgkOOR5x3j7Mc?fife,"販売, ワークショップ",6-8日,10:00-18:00,0778-65-0048,https://tsugilab.com/,
マルイチセーリング,その他ものづくり企業、地域企業,images/icon-4.png,35.9426659,136.24413,マルイチセーリング,"<img src=""https://doc-0k-00-mymaps.googleusercontent.com/untrusted/hostedimage/tjp71pbl755n1d9knaupn39qao/75jnt1bkg3eucsub9if2ug2ed0/1696731300000/JZE0f6HJRobklDdF9DDVtADt9cDcsdY3/*/6AJ9UNGq9qZnEhPx3LQr5Ys_YBtqfJLzpUXkQKLQEGDVVGeo82KKFkDAw83R7z8cwe4TRwFwYD3Ay2TT6CiCQrd9Z8SEap5t0aS6LzbKfM_FZU2o---8J7wzEnquRioJHM74PXVW6fAgJqWsUrOXd1AIbo8WF5tcTi6cx0Sj-6-DiAV80vJdaN63w5HX5V1erH1aUohQMhkudOWq8TMt9TcjVGd6pjJkz8ixvaVqGv2kDYOKSjLs?fife"" height=""200"" width=""auto"" /><br><br>住所: 〒915-0256 福井県越前市赤坂町33-8-1<br>参加形態: 工房（見学・展示）, 販売, ワークショップ<br>紹介: マルイチセーリングは、2020年に創業70周年を迎えたソファブランドです。企業スローガン「LIFESTYLE FACTORY」の実現をめざし、メイド・イン・ジャパンのモノづくりにこだわりながら、企画、デザインから製作まで行っています。<br>出展日: 7・8日<br>営業時間: 7日 10:00-12:00 / 13:00-17:00<br>8日 10:00-12:00 / 13:00-16:30<br>電話番号: 0778-43-8800<br>Web: www.maruichi1950.jp<br>YouTube: ",〒915-0256 福井県越前市赤坂町33-8-1,マルイチセーリングは、2020年に創業70周年を迎えたソファブランドです。企業スローガン「LIFESTYLE FACTORY」の実現をめざし、メイド・イン・ジャパンのモノづくりにこだわりながら、企画、デザインから製作まで行っています。,https://doc-0k-00-mymaps.googleusercontent.com/untrusted/hostedimage/tjp71pbl755n1d9knaupn39qao/75jnt1bkg3eucsub9if2ug2ed0/1696731300000/JZE0f6HJRobklDdF9DDVtADt9cDcsdY3/*/6AJ9UNGq9qZnEhPx3LQr5Ys_YBtqfJLzpUXkQKLQEGDVVGeo82KKFkDAw83R7z8cwe4TRwFwYD3Ay2TT6CiCQrd9Z8SEap5t0aS6LzbKfM_FZU2o---8J7wzEnquRioJHM74PXVW6fAgJqWsUrOXd1AIbo8WF5tcTi6cx0Sj-6-DiAV80vJdaN63w5HX5V1erH1aUohQMhkudOWq8TMt9TcjVGd6pjJkz8ixvaVqGv2kDYOKSjLs?fife,"工房（見学・展示）, 販売, ワークショップ",7・8日,"7日 10:00-12:00 / 13:00-17:00
8日 10:00-12:00 / 13:00-16:30",0778-43-8800,www.maruichi1950.jp,
PARK,その他ものづくり企業、地域企業,images/icon-4.png,35.95117,136.153337,PARK,"<img src=""https://doc-0c-00-mymaps.googleusercontent.com/untrusted/hostedimage/tjp71pbl755n1d9knaupn39qao/ieg144k1s8ib5r59i1b5o43fro/1696731300000/JZE0f6HJRobklDdF9DDVtADt9cDcsdY3/*/6AJ9UNGoZe-QCY0eh0z7ign0Nrfcd-Et4Mkm09OmuujXnUVWasnP-PDiNDh5QwnMhuqawplnhdE0NVFG3IA0blfLOKe9vdmGFR1JaR9LbpWShSqEz7LLArk8XWzIfyigN43uJ-CqIFFp3D1SO8rrRLtKckx49O3qMXmHY5k-5pmkg8LBkLniEONAn2fyVWga3VYoe4Uf9LIuBcyunAHJPCZvvrWnL9NrFovNTK7bnL9Z38ZKUeB0?fife"" height=""200"" width=""auto"" /><br><br>住所: 〒916-1222 福井県鯖江市河和田町19-1-7<br>参加形態: <br>紹介: PARKは移住者たちが運営する複合施設。元めがね工場と社員寮をリノベーションし、週末カフェ、オフィス、シェアハウスとして機能しています。<br>出展日: 6-8日<br>営業時間: 10:00-17:00<br>電話番号: <br>Web: https://www.parksabae.com/about<br>YouTube: ",〒916-1222 福井県鯖江市河和田町19-1-7,PARKは移住者たちが運営する複合施設。元めがね工場と社員寮をリノベーションし、週末カフェ、オフィス、シェアハウスとして機能しています。,https://doc-0c-00-mymaps.googleusercontent.com/untrusted/hostedimage/tjp71pbl755n1d9knaupn39qao/ieg144k1s8ib5r59i1b5o43fro/1696731300000/JZE0f6HJRobklDdF9DDVtADt9cDcsdY3/*/6AJ9UNGoZe-QCY0eh0z7ign0Nrfcd-Et4Mkm09OmuujXnUVWasnP-PDiNDh5QwnMhuqawplnhdE0NVFG3IA0blfLOKe9vdmGFR1JaR9LbpWShSqEz7LLArk8XWzIfyigN43uJ-CqIFFp3D1SO8rrRLtKckx49O3qMXmHY5k-5pmkg8LBkLniEONAn2fyVWga3VYoe4Uf9LIuBcyunAHJPCZvvrWnL9NrFovNTK7bnL9Z38ZKUeB0?fife,,6-8日,10:00-17:00,,https://www.parksabae.com/about,
河和田アートキャンプ/co-minka,その他ものづくり企業、地域企業,images/icon-4.png,35.9524148,136.2694972,河和田アートキャンプ/co-minka,"<img src=""https://doc-04-00-mymaps.googleusercontent.com/untrusted/hostedimage/tjp71pbl755n1d9knaupn39qao/q1ehv4c04qn0sf78jcgdoi7v2o/1696731300000/JZE0f6HJRobklDdF9DDVtADt9cDcsdY3/*/6AJ9UNGrl8jeiVHVLFVdgX2rR3JUdrozRdP_WI19VA6DkkKLFxViIR3q9IMfutaVibEQq5nRIAIjZmFt18Sy1b5pliqdEZRkGesYASdgx18cZo7sZnnyNVgGzbxhg7EqoyclVYoP-CvIMoeLMuK1gIpw8P7pO7Nl1DIrmcY6v6dClqH44UZC9m6EvI0MtRvYIsErb2lqMlt13RNTyoEwqRSuXKjOTUrxssJcDsdaTjFxaGLP6B-g?fife"" height=""200"" width=""auto"" /><br><br>住所: 〒916-1222 福井県鯖江市河和田町15-12-1<br>参加形態: 店舗<br>紹介: 2004年から始まった河和田アートキャンプ参加学生の拠点です。築120年の古民家をギャラリーやシェアオフィスなど、河和田を訪れる様々な人が使用できる新たな使い方をリノベーションしながら模索します。<br>出展日: 7・8日<br>営業時間: 10:00-12:00 / 13:00-17:00<br>電話番号: 050-1276-1376<br>Web: http://aai-b.jp/ac/<br>YouTube: ",〒916-1222 福井県鯖江市河和田町15-12-1,2004年から始まった河和田アートキャンプ参加学生の拠点です。築120年の古民家をギャラリーやシェアオフィスなど、河和田を訪れる様々な人が使用できる新たな使い方をリノベーションしながら模索します。,https://doc-04-00-mymaps.googleusercontent.com/untrusted/hostedimage/tjp71pbl755n1d9knaupn39qao/q1ehv4c04qn0sf78jcgdoi7v2o/1696731300000/JZE0f6HJRobklDdF9DDVtADt9cDcsdY3/*/6AJ9UNGrl8jeiVHVLFVdgX2rR3JUdrozRdP_WI19VA6DkkKLFxViIR3q9IMfutaVibEQq5nRIAIjZmFt18Sy1b5pliqdEZRkGesYASdgx18cZo7sZnnyNVgGzbxhg7EqoyclVYoP-CvIMoeLMuK1gIpw8P7pO7Nl1DIrmcY6v6dClqH44UZC9m6EvI0MtRvYIsErb2lqMlt13RNTyoEwqRSuXKjOTUrxssJcDsdaTjFxaGLP6B-g?fife,店舗,7・8日,10:00-12:00 / 13:00-17:00,050-1276-1376,http://aai-b.jp/ac/,
越前ギャラリーKITA’S,その他ものづくり企業、地域企業,images/icon-4.png,35.8996594,136.1677682,越前ギャラリーKITA’S,"<img src=""https://doc-04-00-mymaps.googleusercontent.com/untrusted/hostedimage/tjp71pbl755n1d9knaupn39qao/baclj2bgpsb96auhouvlh25sl0/1696731300000/JZE0f6HJRobklDdF9DDVtADt9cDcsdY3/*/6AJ9UNGoi6t3WKV4pxGFcwRVgXa0vnEJkAolx9J9hFj9IvRrVQ3sjOOdAwHaY03217mWJa1T2Oa31EZQibB8_Ua3Bq_0GNgIo2rHgXgrjgd0QBwBlJbSJM6kpMnRxmOWHBbYrLP065HH5oPPGeIWcc4g8pSDSb2S-ubymtLQxGMU4OYh1FtQ5Nu6jqPf9h7bMknt0UMw1B76kIafq6KaTREwQ2vECfoYPZrbZeYUp3iTtJYdqkl0?fife"" height=""200"" width=""auto"" /><br><br>住所: 〒915-0234 福井県越前市大滝町29-29<br>参加形態: 販売<br>紹介: 50年余り伝統工芸に携わり、越前の職人達とのコラボで伝統にデザインの力を加え、現代に使えるモノづくりを提案してきた喜多俊之氏の和紙照明や陶磁器、漆、国産の木や竹を使った家具、空間などを展示します。<br>出展日: 6-8日<br>営業時間: 10:00-17:00<br>電話番号: 0778-43-7018<br>Web: https://kitas-gallery.com<br>YouTube: ",〒915-0234 福井県越前市大滝町29-29,50年余り伝統工芸に携わり、越前の職人達とのコラボで伝統にデザインの力を加え、現代に使えるモノづくりを提案してきた喜多俊之氏の和紙照明や陶磁器、漆、国産の木や竹を使った家具、空間などを展示します。,https://doc-04-00-mymaps.googleusercontent.com/untrusted/hostedimage/tjp71pbl755n1d9knaupn39qao/baclj2bgpsb96auhouvlh25sl0/1696731300000/JZE0f6HJRobklDdF9DDVtADt9cDcsdY3/*/6AJ9UNGoi6t3WKV4pxGFcwRVgXa0vnEJkAolx9J9hFj9IvRrVQ3sjOOdAwHaY03217mWJa1T2Oa31EZQibB8_Ua3Bq_0GNgIo2rHgXgrjgd0QBwBlJbSJM6kpMnRxmOWHBbYrLP065HH5oPPGeIWcc4g8pSDSb2S-ubymtLQxGMU4OYh1FtQ5Nu6jqPf9h7bMknt0UMw1B76kIafq6KaTREwQ2vECfoYPZrbZeYUp3iTtJYdqkl0?fife,販売,6-8日,10:00-17:00,0778-43-7018,https://kitas-gallery.com,
竹之助,その他ものづくり企業、地域企業,images/icon-4.png,35.88966409999999,136.2313508,竹之助,"<img src=""https://doc-00-00-mymaps.googleusercontent.com/untrusted/hostedimage/tjp71pbl755n1d9knaupn39qao/stgic6k48k024fr327ei9bf5i4/1696731300000/JZE0f6HJRobklDdF9DDVtADt9cDcsdY3/*/6AJ9UNGpV_xS7quCBHQOSqGQF-_PKk-eDrrA9i2AiOEPgPmc4toQJbaVmRdK5bNK7o66mLfC4EnaNlfnTFaAfSzVeM6Zfbn5zqu0bEZGDeYkW9QO_SPl_F0QN_MkqFzdU-e608Vbb0820cVuDclF5DqWJ3WeaHl1Q4Q1O_3aoFDYnXiqjKSRiff6SqevJTgQz2tQedQmp-bqQDnoeG3VY_L0g7z77G_4wfP4lVA6QTtPX5GdIdec?fife"" height=""200"" width=""auto"" /><br><br>住所: 〒915-0023 福井県越前市池泉町2-9<br>参加形態: 工房（見学・展示）, 販売<br>紹介: 築100年を越えた「古民家」を改装した店舗兼、加工場。 竹垣の美しさ、竹を使った身の周りのアイテム、インテリアをご自身の目でご確認いただけます。皆様のお越しをお待ちしております。<br>出展日: 6-7日<br>営業時間: 10:00-19:00<br>電話番号: 0778-42-5576<br>Web: https://takenosuke.com/<br>YouTube: ",〒915-0023 福井県越前市池泉町2-9,築100年を越えた「古民家」を改装した店舗兼、加工場。 竹垣の美しさ、竹を使った身の周りのアイテム、インテリアをご自身の目でご確認いただけます。皆様のお越しをお待ちしております。,https://doc-00-00-mymaps.googleusercontent.com/untrusted/hostedimage/tjp71pbl755n1d9knaupn39qao/stgic6k48k024fr327ei9bf5i4/1696731300000/JZE0f6HJRobklDdF9DDVtADt9cDcsdY3/*/6AJ9UNGpV_xS7quCBHQOSqGQF-_PKk-eDrrA9i2AiOEPgPmc4toQJbaVmRdK5bNK7o66mLfC4EnaNlfnTFaAfSzVeM6Zfbn5zqu0bEZGDeYkW9QO_SPl_F0QN_MkqFzdU-e608Vbb0820cVuDclF5DqWJ3WeaHl1Q4Q1O_3aoFDYnXiqjKSRiff6SqevJTgQz2tQedQmp-bqQDnoeG3VY_L0g7z77G_4wfP4lVA6QTtPX5GdIdec?fife,"工房（見学・展示）, 販売",6-7日,10:00-19:00,0778-42-5576,https://takenosuke.com/,
越前セラミカ,その他ものづくり企業、地域企業,images/icon-4.png,35.883061,136.138284,越前セラミカ,"<img src=""https://doc-08-00-mymaps.googleusercontent.com/untrusted/hostedimage/tjp71pbl755n1d9knaupn39qao/r6dpuc5h4uf8bh9rc9354js28c/1696731300000/JZE0f6HJRobklDdF9DDVtADt9cDcsdY3/*/6AJ9UNGqZ94XD40606jtKjwhVLmWI-w15fYr8OIXbFJuiI_PxOYXyd1KJnfNureeZaO8bMeN8m_45_9x5j30GstFia05CPBMsXfrhbCdI95qamhuAy-fAZFF5gcAkiUyWGrLQdIiGt0Xagp0cbqONpKvvjAA5j6-KIf3UGjn5CiNEVDj91eLSzPToHN3g-9YhIyFr_u3G0-nA1bYUL28sl_lpihXN9d53zwVgVyzKHjVqKqROAyY?fife"" height=""200"" width=""auto"" /><br><br>住所: 〒915-0873 福井県越前市池ノ上町5-12<br>参加形態: 工房（見学・展示）, 販売, ワークショップ<br>紹介: 「越前瓦」の製造メーカー。福井の街並みを彩る「越前瓦」、越前瓦の製造技術を活かしたタイル、レンガなどの陶建材を製造。越前瓦は高温の還元焼成で作られる福井県の瓦で、低い吸水率と高強度で高い耐候性を誇り、地域の建物を守ります。<br>出展日: 6-8日<br>営業時間: 6・7日 10:00-12:00 / 13:00-17:00 8日 10:00-12:00 / 13:00-16:00<br>電話番号: 0778-24-0832<br>Web: https://e-seramika.com/<br>YouTube: ",〒915-0873 福井県越前市池ノ上町5-12,「越前瓦」の製造メーカー。福井の街並みを彩る「越前瓦」、越前瓦の製造技術を活かしたタイル、レンガなどの陶建材を製造。越前瓦は高温の還元焼成で作られる福井県の瓦で、低い吸水率と高強度で高い耐候性を誇り、地域の建物を守ります。,https://doc-08-00-mymaps.googleusercontent.com/untrusted/hostedimage/tjp71pbl755n1d9knaupn39qao/r6dpuc5h4uf8bh9rc9354js28c/1696731300000/JZE0f6HJRobklDdF9DDVtADt9cDcsdY3/*/6AJ9UNGqZ94XD40606jtKjwhVLmWI-w15fYr8OIXbFJuiI_PxOYXyd1KJnfNureeZaO8bMeN8m_45_9x5j30GstFia05CPBMsXfrhbCdI95qamhuAy-fAZFF5gcAkiUyWGrLQdIiGt0Xagp0cbqONpKvvjAA5j6-KIf3UGjn5CiNEVDj91eLSzPToHN3g-9YhIyFr_u3G0-nA1bYUL28sl_lpihXN9d53zwVgVyzKHjVqKqROAyY?fife,"工房（見学・展示）, 販売, ワークショップ",6-8日,6・7日 10:00-12:00 / 13:00-17:00 8日 10:00-12:00 / 13:00-16:00,0778-24-0832,https://e-seramika.com/,
Tanzen,その他ものづくり企業、地域企業,images/icon-4.png,35.9276627,136.1630046,Tanzen,"<img src=""https://doc-0k-00-mymaps.googleusercontent.com/untrusted/hostedimage/tjp71pbl755n1d9knaupn39qao/99mh3e2jphj8sdjvo395ceqduk/1696731300000/JZE0f6HJRobklDdF9DDVtADt9cDcsdY3/*/6AJ9UNGq9gnA8mUm_OuMTSW9-vUGS-0xE1H1slNALct9YTU6JN7Z8xWwmQVrEookdd9cGICV46O5PajLJIc6wxHw0slBnUhre2Ln5BhC1TIn9picSbaDlZm__NXsVK3-IBeMYLNSiGZ91ndofutU8B3-9P-JZgKxK6afpvUEUXZpCNNLLeEPIjhRR9T8MnH4QRwqKPGDUF7CYQw3oQ6ZEFubcv1P8UyxxYhkcnsnRbDhTiLzSjVs?fife"" height=""200"" width=""auto"" /><br><br>住所: 〒915-0801 福井県越前市家久町63-11-1<br>参加形態: 工房（見学・展示）, 販売,ワークショップ<br>紹介: 2011年にマエダ木工創業。2020年に株式会社Tanzenになる。従業員数5名、福井県越前市に本社。国産無垢材家具製作が得意で、保育園にロッカーや下駄箱の納品実績多数。建築事務所と協働し家具製作も行っています。<br>出展日: 6-8日<br>営業時間: 10:00-17:00<br>電話番号: 080-3743-1439<br>Web: https://tanzen-f.jp/<br>YouTube: ",〒915-0801 福井県越前市家久町63-11-1,2011年にマエダ木工創業。2020年に株式会社Tanzenになる。従業員数5名、福井県越前市に本社。国産無垢材家具製作が得意で、保育園にロッカーや下駄箱の納品実績多数。建築事務所と協働し家具製作も行っています。,https://doc-0k-00-mymaps.googleusercontent.com/untrusted/hostedimage/tjp71pbl755n1d9knaupn39qao/99mh3e2jphj8sdjvo395ceqduk/1696731300000/JZE0f6HJRobklDdF9DDVtADt9cDcsdY3/*/6AJ9UNGq9gnA8mUm_OuMTSW9-vUGS-0xE1H1slNALct9YTU6JN7Z8xWwmQVrEookdd9cGICV46O5PajLJIc6wxHw0slBnUhre2Ln5BhC1TIn9picSbaDlZm__NXsVK3-IBeMYLNSiGZ91ndofutU8B3-9P-JZgKxK6afpvUEUXZpCNNLLeEPIjhRR9T8MnH4QRwqKPGDUF7CYQw3oQ6ZEFubcv1P8UyxxYhkcnsnRbDhTiLzSjVs?fife,"工房（見学・展示）, 販売,ワークショップ",6-8日,10:00-17:00,080-3743-1439,https://tanzen-f.jp/,
ギャラリー墨唐三六六,その他ものづくり企業、地域企業,images/icon-4.png,35.9067493,136.1638122,ギャラリー墨唐三六六,"<img src=""https://doc-0k-00-mymaps.googleusercontent.com/untrusted/hostedimage/tjp71pbl755n1d9knaupn39qao/go5lk0ti7rh2b9rmpc0nr7aa60/1696731300000/JZE0f6HJRobklDdF9DDVtADt9cDcsdY3/*/6AJ9UNGrW3qIdBYyE6krkdScMZKSXmi6LhUVroRX7Ac-69SSkId5j_YeA3Wn8NEijKEDrGw3SFMu5YYrVdopCfcXnqJ1O8PGgid7JQ7Q3TpHzMR9SfTn1XG5FEUfmlvzeTvvX821uiIQcOk9PiVi8W4CucbWWUveJb5Aem5EuTITJkmgApVstJwobAuKk8xbHnwm4qOTr7FUe7kCAO8peHwD6JhY5YuldF4LVMp9v2oEUc8B1Zeo?fife"" height=""200"" width=""auto"" /><br><br>住所: 〒915-0811 福井県越前市本多3−2−5<br>参加形態: 工房（見学・展示）, 販売, ワークショップ<br>紹介: 1984年より有名企業の広告で活躍。出版イラストレーション、パッケージ、店舗，個人宅内装など手がけてきた墨のアーティスト上田みゆきが運営しているギャラリーです。<br><br>出展日: 6-8日<br>営業時間: 6・7日 10:00-12:00 / 13:00-17:00<br>8日 10:00-12:00 / 13:00-16:00<br>電話番号: 090−2644−9730<br>Web: miyukiueda.com<br>YouTube: ",〒915-0811 福井県越前市本多3−2−5,1984年より有名企業の広告で活躍。出版イラストレーション、パッケージ、店舗，個人宅内装など手がけてきた墨のアーティスト上田みゆきが運営しているギャラリーです。,https://doc-0k-00-mymaps.googleusercontent.com/untrusted/hostedimage/tjp71pbl755n1d9knaupn39qao/go5lk0ti7rh2b9rmpc0nr7aa60/1696731300000/JZE0f6HJRobklDdF9DDVtADt9cDcsdY3/*/6AJ9UNGrW3qIdBYyE6krkdScMZKSXmi6LhUVroRX7Ac-69SSkId5j_YeA3Wn8NEijKEDrGw3SFMu5YYrVdopCfcXnqJ1O8PGgid7JQ7Q3TpHzMR9SfTn1XG5FEUfmlvzeTvvX821uiIQcOk9PiVi8W4CucbWWUveJb5Aem5EuTITJkmgApVstJwobAuKk8xbHnwm4qOTr7FUe7kCAO8peHwD6JhY5YuldF4LVMp9v2oEUc8B1Zeo?fife,"工房（見学・展示）, 販売, ワークショップ",6-8日,"6・7日 10:00-12:00 / 13:00-17:00
8日 10:00-12:00 / 13:00-16:00",090−2644−9730,miyukiueda.com,
中西木材,その他ものづくり企業、地域企業,images/icon-4.png,35.9282795,136.162672,中西木材,"<img src=""https://doc-10-00-mymaps.googleusercontent.com/untrusted/hostedimage/tjp71pbl755n1d9knaupn39qao/e4mrs27neqi6c64sinn3802sro/1696731300000/JZE0f6HJRobklDdF9DDVtADt9cDcsdY3/*/6AJ9UNGqS_HQH-qPeL9E9SbdyAMLF4yXcoxC-E0_J75iFthtUq2SdLi_p2U_wUdX191LojcPgfCVSct74txL5Ih-QmjCNG42Qf0J6Z0D99JjOzsCm9ms0IVDiQNrS_b_4HIdp4kL5VcFkD2sgyqnvuENiq6qT7kJaDcK23OfBr0I7Ut804OShs_26lC3R8qUIkST5BzIcgXhcqNHYNvfEgm_D6OmGY63uY6gcZrZnuQrA78IbpVs?fife"" height=""200"" width=""auto"" /><br><br>住所: 〒915-0801福井県越前市家久町63-11-1<br>参加形態: 工房（見学・展示）<br>紹介: 森林の整備をはじめ、伐採した木材を活用したオリジナル商品デザインウッドやふくゆかの製造販売や木造住宅の設計・施工など木材の可能性を開発する企業です。<br>出展日: 6・7日<br>営業時間: 10:00-12:00 / 13:00-16:00<br>電話番号: 0778-23-2233<br>Web: http://www.n-wood.co.jp<br>YouTube: ",〒915-0801福井県越前市家久町63-11-1,森林の整備をはじめ、伐採した木材を活用したオリジナル商品デザインウッドやふくゆかの製造販売や木造住宅の設計・施工など木材の可能性を開発する企業です。,https://doc-10-00-mymaps.googleusercontent.com/untrusted/hostedimage/tjp71pbl755n1d9knaupn39qao/e4mrs27neqi6c64sinn3802sro/1696731300000/JZE0f6HJRobklDdF9DDVtADt9cDcsdY3/*/6AJ9UNGqS_HQH-qPeL9E9SbdyAMLF4yXcoxC-E0_J75iFthtUq2SdLi_p2U_wUdX191LojcPgfCVSct74txL5Ih-QmjCNG42Qf0J6Z0D99JjOzsCm9ms0IVDiQNrS_b_4HIdp4kL5VcFkD2sgyqnvuENiq6qT7kJaDcK23OfBr0I7Ut804OShs_26lC3R8qUIkST5BzIcgXhcqNHYNvfEgm_D6OmGY63uY6gcZrZnuQrA78IbpVs?fife,工房（見学・展示）,6・7日,10:00-12:00 / 13:00-16:00,0778-23-2233,http://www.n-wood.co.jp,
craftman Daidai,その他ものづくり企業、地域企業,images/icon-4.png,35.93049599999999,136.0972303,craftman Daidai,"<img src=""https://doc-0s-00-mymaps.googleusercontent.com/untrusted/hostedimage/tjp71pbl755n1d9knaupn39qao/kn8l3oe4usa8p6gktcap10cgu8/1696731300000/JZE0f6HJRobklDdF9DDVtADt9cDcsdY3/*/6AJ9UNGp1HuWIrAwn2ZkcxvrtFBzc3owQFKKu0qBfAe1KobfFzbyIHFu9jXdWDf6VGKkNebAyuIjJUPTHP3uJSvQjs7uAT8Zz2KNku76NzpxuhdECz11x95QGIv2fVseV3BVgbr5md1EsQhy7LgixXMXJakbwV59UyCZheGKusuNa84lU5jqNXuZw2wXopl8_-VP3hEnPXdbqvOz4zd1sMqKpphHGdOBkQFGyE_2Jyh8xYe6a2mk?fife"" height=""200"" width=""auto"" /><br><br>住所: 〒916-0272福井県丹生郡越前町樫津51‐2<br>参加形態: 工房（見学・展示）, 販売<br>紹介: 親から子へ、孫へと代々使い継いでもらえるようなモノづくりをコンセプトに無垢材にこだわったオーダーメイド家具、リメイク家具のほか木製カバンなどの小物も手掛ける木工房。<br>出展日: 6-8日<br>営業時間: 8:00-17:00<br>電話番号: 090-6271-7836<br>Web: https://www.cmdd.jp<br>YouTube: ",〒916-0272福井県丹生郡越前町樫津51‐2,親から子へ、孫へと代々使い継いでもらえるようなモノづくりをコンセプトに無垢材にこだわったオーダーメイド家具、リメイク家具のほか木製カバンなどの小物も手掛ける木工房。,https://doc-0s-00-mymaps.googleusercontent.com/untrusted/hostedimage/tjp71pbl755n1d9knaupn39qao/kn8l3oe4usa8p6gktcap10cgu8/1696731300000/JZE0f6HJRobklDdF9DDVtADt9cDcsdY3/*/6AJ9UNGp1HuWIrAwn2ZkcxvrtFBzc3owQFKKu0qBfAe1KobfFzbyIHFu9jXdWDf6VGKkNebAyuIjJUPTHP3uJSvQjs7uAT8Zz2KNku76NzpxuhdECz11x95QGIv2fVseV3BVgbr5md1EsQhy7LgixXMXJakbwV59UyCZheGKusuNa84lU5jqNXuZw2wXopl8_-VP3hEnPXdbqvOz4zd1sMqKpphHGdOBkQFGyE_2Jyh8xYe6a2mk?fife,"工房（見学・展示）, 販売",6-8日,8:00-17:00,090-6271-7836,https://www.cmdd.jp,
サカエマーク,その他ものづくり企業、地域企業,images/icon-4.png,35.981985,136.179971,サカエマーク,"<img src=""https://doc-0c-00-mymaps.googleusercontent.com/untrusted/hostedimage/tjp71pbl755n1d9knaupn39qao/agqoa35114bt8sg0nd75fddga4/1696731300000/JZE0f6HJRobklDdF9DDVtADt9cDcsdY3/*/6AJ9UNGo4nlqcfbekBf7pkENWLVSKQfiTP1YmViiilI2LyEzCxTVyjQ6wmzKiJRRVSw6eSU2h8Sk_ZHBOmo74tm-zZLcUm9D0NJp3qojf87X5GqTzc4LCy8LpOUUEkf7Mwq0jHz5IQFyCe2Cx2b6o2x8mSzJP_qeVVOSV_wZvfzGTZPG5fOnCYrCYyC69li16Yz7JnFroqACcbWfuVGYsbIFVkD3u7rCpP19yrTpi5S5tKxwdbJU?fife"" height=""200"" width=""auto"" /><br><br>住所: 〒916-0019 福井県鯖江市丸山町4-1-45<br>参加形態: 工房（見学・展示）, 販売, ワークショップ, キッチンカー<br>紹介: 株式会社サカエマークは、特殊印刷を得意とする鯖江の印刷会社です。デザインから印刷、加工まで「自社内一貫生産を」確立しており、様々な工程を見学できます。当日はオリジナルアイテムの販売やワークショップも開催予定。<br>出展日: 7・8日<br>営業時間: 7日 10:00-12:00 / 13:00-17:00<br>8日 10:00-12:00 / 13:00-17:00<br><br>電話番号: 0778-52-2500<br>Web: https://www.sakaemark.co.jp/<br>YouTube: https://youtu.be/vPZup6MxE90?si=Pt5Z5T7zsJRDUQKP",〒916-0019 福井県鯖江市丸山町4-1-45,株式会社サカエマークは、特殊印刷を得意とする鯖江の印刷会社です。デザインから印刷、加工まで「自社内一貫生産を」確立しており、様々な工程を見学できます。当日はオリジナルアイテムの販売やワークショップも開催予定。,https://doc-0c-00-mymaps.googleusercontent.com/untrusted/hostedimage/tjp71pbl755n1d9knaupn39qao/agqoa35114bt8sg0nd75fddga4/1696731300000/JZE0f6HJRobklDdF9DDVtADt9cDcsdY3/*/6AJ9UNGo4nlqcfbekBf7pkENWLVSKQfiTP1YmViiilI2LyEzCxTVyjQ6wmzKiJRRVSw6eSU2h8Sk_ZHBOmo74tm-zZLcUm9D0NJp3qojf87X5GqTzc4LCy8LpOUUEkf7Mwq0jHz5IQFyCe2Cx2b6o2x8mSzJP_qeVVOSV_wZvfzGTZPG5fOnCYrCYyC69li16Yz7JnFroqACcbWfuVGYsbIFVkD3u7rCpP19yrTpi5S5tKxwdbJU?fife,"工房（見学・展示）, 販売, ワークショップ, キッチンカー",7・8日,"7日 10:00-12:00 / 13:00-17:00
8日 10:00-12:00 / 13:00-17:00",0778-52-2500,https://www.sakaemark.co.jp/,https://youtu.be/vPZup6MxE90?si=Pt5Z5T7zsJRDUQKP
うるしの里会館フードコート,飲食・宿,images/icon-7.png,35.9530831,136.2740677,うるしの里会館フードコート,"<img src=""https://doc-04-00-mymaps.googleusercontent.com/untrusted/hostedimage/tjp71pbl755n1d9knaupn39qao/5k4ubj0edf4bi2jbsvkr9h70n0/1696731300000/JZE0f6HJRobklDdF9DDVtADt9cDcsdY3/*/6AJ9UNGq39XTYsANUuNxEm1dYYRt3E22h5gxf7HngjqEjQr3uuFFxheWxlPbGPkDWCWqWjN9kXRG0_iaBhfESoN8C013kXRztJiOK-9ZxhIsmps23yvIuAc9LZIq0Og7uFvo0DH-kZ-HXZpMmi8FuxZdrYVOyIDPCoJ0m8NRWjUrb1E_lIup0wJE2ZDoXgcmfZ0AxvF-jYEvx7Co2DfeLQnS9XJAC77Y2vdasb79CgrW2-OqOct4?fife"" height=""200"" width=""auto"" /><br><br>住所: 〒916-1221 福井県鯖江市西袋町40-1-2　うるしの里会館<br>参加形態: フードコート<br>紹介: 山うにの里ほやっ停<br>出店日：6-8日 10:00-17:00<br>電話番号：070-2251-1129<br>河和田の伝統薬味「山うに」。山うにを知ってもらい、美味しく味わってもらうため、河和田で「山うに屋ほやっ停」を営んでいます。また、様々な食材との加工品も製造し、多くの方にお届けできるよう努めています。<br>https://echizentai.com<br><br>くめちゃん<br>出店日：6-8日 10:00-17:00<br>電話番号：0778-65-1129<br>年中無休で焼き鳥・焼肉を提供するくめちゃん。地元の人々に愛され、あたたかな雰囲気で食べる焼肉に、思わず笑顔になります。店舗では、お座敷を備え、団体でも利用可能です。<br><br>雲職人ニュアージュ<br>出店日：7・8日 10:00-17:00<br>電話番号：0776-81-8484<br>自由に楽しいもの作りを目指し、予約制の商品販売やカフェ、定期的に雲バスでの移動式パティスリーを行っています。NUAGEの逸品を是非お召し上がり下さい。<br><br>AmigoTacos<br>出店日：7・8日 10:00-17:00<br>電話番号：無し<br>地産地消のお野菜たっぷりの本格的でありながら食べやすいメキシコ料理です。地産地消の材料で作るフードは心も体も満たされるおいしさ。お子様でも安心してお召し上がりいただけます。辛党の方にはハバネロソースがお勧め。<br><br>大吉餅<br>出店日：7・8日 10:00-17:00<br>電話番号：0778-52-4129<br>大吉餅は、福井市中心部、旧北国街道沿いの地で、江戸の時代から商いを続けています。<br>黒蜜＆きな粉仕立ての福井名物「あべかわ餅」をはじめ、人気の大福餅や季節の餅菓子を用意してお待ちしております。<br>https://daikichimochi.com<br><br>ミート＆デリカささき<br>出店日：7・8日 10:00-17:00<br>電話番号：0776-22-3221<br>ミート＆デリカささきです。キッチンカーにて、当店発祥で福井の人気グルメ「歩くソースカツ丼 サバエドッグ」を販売しております。<br>meat-sasaki.com<br><br>Happy's Eat(ハピスイート)<br>出店日：7・8日 10:00-17:00<br>電話番号：0776-22-3221<br>""Happy's Eatの看板メニューは、鹿児島県の完全無農薬バナナを使ったバナナスムージーです！なんとそのバナナは1本1,000円！甘味料や香料は一切不使用なので、バナナ本来の甘みやうまみを存分に楽しんでいただけます！バナナスムージーを片手にRENEWをたのしみましょう♪<br><br>出展日: 6-8日<br>営業時間: 10:00-17:00<br>電話番号: <br>Web: <br>YouTube: <br><br><img src=""https://doc-0c-00-mymaps.googleusercontent.com/untrusted/hostedimage/tjp71pbl755n1d9knaupn39qao/3mth8sepsre6c85pp0gpo7qrts/1696731300000/JZE0f6HJRobklDdF9DDVtADt9cDcsdY3/*/6AJ9UNGpRrcoKyB9YjJhr3zBnLoJNyFGGoGCBmVqt-cg0grv81B5RVOPv0hQWC0lzkLOsMeCqMqiGuYNhCXnlE2KSrS0ri68Q70uXku3yl3BMqmwhCN63Zc4FdUjQ2n0PGAwKlsSWYUk7vjhUythA-Ju8bidSkAZV0yhfPDyKsqxJb2n0iuXTuFlpJvwXD8bOACgu63T8CCeI-dFmu2JoVkdv1BZ74Ocm6bF7nemzC4B6KSlZW7Q?fife"" height=""200"" width=""auto"" /><br><br><img src=""https://doc-0o-00-mymaps.googleusercontent.com/untrusted/hostedimage/tjp71pbl755n1d9knaupn39qao/dmhofpebracnmc4o9tqbt3ov6s/1696731300000/JZE0f6HJRobklDdF9DDVtADt9cDcsdY3/*/6AJ9UNGoiroskBfmfJG7pQKRd9QdbxRXR0FUmtR-CEZs8Vp368ihiyRr3Hk_IdB_c_prGtQJOJ4JPzvbIzCYPbNho0m13c6mBRQxCzBW-_PpmsyWigV7PInnyiMzxIpI2xAmNlTy0Prjo0hLf7aqeAfav6vinT_ALBnVCcoV8cirqF8v6EvU3DjH6lqs9w1yjabCLp2CgOkfOXwDVIK-F83_XfOww1T2WQAhqzeFz9-1iBY58WYA?fife"" height=""200"" width=""auto"" /><br><br><img src=""https://doc-00-00-mymaps.googleusercontent.com/untrusted/hostedimage/tjp71pbl755n1d9knaupn39qao/ml3qg00sna8m8eabbamb6mli4s/1696731300000/JZE0f6HJRobklDdF9DDVtADt9cDcsdY3/*/6AJ9UNGr6JrMbHOvtwDeRaWD051GqPvmwMnFCKnMxuC8g8NZflvdiiG1BrIZF4mNs9ENarSXiyq5dFMBlniXyX_CJjoL3Ny7MyksjtkeAifbQ0LowWizWp6qjSf05e6QdqdL-2Q_LUhGqBOz1ZxgzkUi_jDaCI4KIRebN4-58T4PYyhriytojj0BKoEMZiU9mdQPTWUPioUpnHFqpatZnVibhD6R1-IF2kLbhngX7QimS_U0c1AQ?fife"" height=""200"" width=""auto"" /><br><br><img src=""https://doc-04-00-mymaps.googleusercontent.com/untrusted/hostedimage/tjp71pbl755n1d9knaupn39qao/r2brb0kcckr8veh102bj097ilg/1696731300000/JZE0f6HJRobklDdF9DDVtADt9cDcsdY3/*/6AJ9UNGrv__fv7CxK6oKGSE-Id1-8ZisgxQueqyqo6h-Cq4vy-vNSlIVxnzGCKEQ94qlv8BZ450GcCTGhrkY9W6_X9Bn4FPM5tMpX87YyznWcgeF2Ly1HyqMCVo1yBGnc7ncuWIvZTV0LzApyg0IM5Xxw6Sfe0G9dAhQNGUm8p2FgWscJkPU7-2KN7tlhWciZSbk8m-ENT3qrSc_DVhFiLxUP9ceGe3vkQLovfBqbiBzJzwkJRbg?fife"" height=""200"" width=""auto"" /><br><br><img src=""https://doc-08-00-mymaps.googleusercontent.com/untrusted/hostedimage/tjp71pbl755n1d9knaupn39qao/io8mh82e6h3gfs13v6kb538ius/1696731300000/JZE0f6HJRobklDdF9DDVtADt9cDcsdY3/*/6AJ9UNGpJvIzAJ9YhRxek-d17oYg7rgXiCjb2qa3ZQhCuRkcXoKPlD6flghttVA9Ah_b5lNliTgKlGP9tvJmZDyKuXWajQa47xtqWd4RiaBAiL7FHzEHf1RtcaGD7y32hFbNDeqdEc57vMuNmJvttNErKEfv2G91O2eA93wkWDnBDUwdce9XCQo-0N6g7ljQS-uI8oubwx-c1MdzN6YGPof2rGBK8lFwgAyIKYy0iJh-b1TEgNCM?fife"" height=""200"" width=""auto"" /><br><br><img src=""https://doc-10-00-mymaps.googleusercontent.com/untrusted/hostedimage/tjp71pbl755n1d9knaupn39qao/gap5hf7nvmt7tap2f117u5ts1g/1696731300000/JZE0f6HJRobklDdF9DDVtADt9cDcsdY3/*/6AJ9UNGoydwQA7T1QDy7dLZo9GvtnHvUqyMn_Ke_VikakwPwE--KKKTVrgGG2cy_WG39gcfgW1Secg-01u38zwWW58WMJOIBJmUspv91AH6NlQCDsveSg_nrpdNlPc9l26cL4Lvj_Hd4-iEVVMGLZiWltkE-NQiMb8LPb9UrOzfgEfSK9fOnPamllF0IDdX8yJ-apNEq5mIk1Hl2oIrpbRwTQnQb_HVqMBf00YZGkDc8vmGobz_c?fife"" height=""200"" width=""auto"" />",〒916-1221 福井県鯖江市西袋町40-1-2　うるしの里会館,"山うにの里ほやっ停
出店日：6-8日 10:00-17:00
電話番号：070-2251-1129
河和田の伝統薬味「山うに」。山うにを知ってもらい、美味しく味わってもらうため、河和田で「山うに屋ほやっ停」を営んでいます。また、様々な食材との加工品も製造し、多くの方にお届けできるよう努めています。
https://echizentai.com

くめちゃん
出店日：6-8日 10:00-17:00
電話番号：0778-65-1129
年中無休で焼き鳥・焼肉を提供するくめちゃん。地元の人々に愛され、あたたかな雰囲気で食べる焼肉に、思わず笑顔になります。店舗では、お座敷を備え、団体でも利用可能です。

雲職人ニュアージュ
出店日：7・8日 10:00-17:00
電話番号：0776-81-8484
自由に楽しいもの作りを目指し、予約制の商品販売やカフェ、定期的に雲バスでの移動式パティスリーを行っています。NUAGEの逸品を是非お召し上がり下さい。

AmigoTacos
出店日：7・8日 10:00-17:00
電話番号：無し
地産地消のお野菜たっぷりの本格的でありながら食べやすいメキシコ料理です。地産地消の材料で作るフードは心も体も満たされるおいしさ。お子様でも安心してお召し上がりいただけます。辛党の方にはハバネロソースがお勧め。

大吉餅
出店日：7・8日 10:00-17:00
電話番号：0778-52-4129
大吉餅は、福井市中心部、旧北国街道沿いの地で、江戸の時代から商いを続けています。
黒蜜＆きな粉仕立ての福井名物「あべかわ餅」をはじめ、人気の大福餅や季節の餅菓子を用意してお待ちしております。
https://daikichimochi.com

ミート＆デリカささき
出店日：7・8日 10:00-17:00
電話番号：0776-22-3221
ミート＆デリカささきです。キッチンカーにて、当店発祥で福井の人気グルメ「歩くソースカツ丼 サバエドッグ」を販売しております。
meat-sasaki.com

Happy's Eat(ハピスイート)
出店日：7・8日 10:00-17:00
電話番号：0776-22-3221
""Happy's Eatの看板メニューは、鹿児島県の完全無農薬バナナを使ったバナナスムージーです！なんとそのバナナは1本1,000円！甘味料や香料は一切不使用なので、バナナ本来の甘みやうまみを存分に楽しんでいただけます！バナナスムージーを片手にRENEWをたのしみましょう♪
",https://doc-04-00-mymaps.googleusercontent.com/untrusted/hostedimage/tjp71pbl755n1d9knaupn39qao/5k4ubj0edf4bi2jbsvkr9h70n0/1696731300000/JZE0f6HJRobklDdF9DDVtADt9cDcsdY3/*/6AJ9UNGq39XTYsANUuNxEm1dYYRt3E22h5gxf7HngjqEjQr3uuFFxheWxlPbGPkDWCWqWjN9kXRG0_iaBhfESoN8C013kXRztJiOK-9ZxhIsmps23yvIuAc9LZIq0Og7uFvo0DH-kZ-HXZpMmi8FuxZdrYVOyIDPCoJ0m8NRWjUrb1E_lIup0wJE2ZDoXgcmfZ0AxvF-jYEvx7Co2DfeLQnS9XJAC77Y2vdasb79CgrW2-OqOct4?fife https://doc-0c-00-mymaps.googleusercontent.com/untrusted/hostedimage/tjp71pbl755n1d9knaupn39qao/3mth8sepsre6c85pp0gpo7qrts/1696731300000/JZE0f6HJRobklDdF9DDVtADt9cDcsdY3/*/6AJ9UNGpRrcoKyB9YjJhr3zBnLoJNyFGGoGCBmVqt-cg0grv81B5RVOPv0hQWC0lzkLOsMeCqMqiGuYNhCXnlE2KSrS0ri68Q70uXku3yl3BMqmwhCN63Zc4FdUjQ2n0PGAwKlsSWYUk7vjhUythA-Ju8bidSkAZV0yhfPDyKsqxJb2n0iuXTuFlpJvwXD8bOACgu63T8CCeI-dFmu2JoVkdv1BZ74Ocm6bF7nemzC4B6KSlZW7Q?fife https://doc-0o-00-mymaps.googleusercontent.com/untrusted/hostedimage/tjp71pbl755n1d9knaupn39qao/dmhofpebracnmc4o9tqbt3ov6s/1696731300000/JZE0f6HJRobklDdF9DDVtADt9cDcsdY3/*/6AJ9UNGoiroskBfmfJG7pQKRd9QdbxRXR0FUmtR-CEZs8Vp368ihiyRr3Hk_IdB_c_prGtQJOJ4JPzvbIzCYPbNho0m13c6mBRQxCzBW-_PpmsyWigV7PInnyiMzxIpI2xAmNlTy0Prjo0hLf7aqeAfav6vinT_ALBnVCcoV8cirqF8v6EvU3DjH6lqs9w1yjabCLp2CgOkfOXwDVIK-F83_XfOww1T2WQAhqzeFz9-1iBY58WYA?fife https://doc-00-00-mymaps.googleusercontent.com/untrusted/hostedimage/tjp71pbl755n1d9knaupn39qao/ml3qg00sna8m8eabbamb6mli4s/1696731300000/JZE0f6HJRobklDdF9DDVtADt9cDcsdY3/*/6AJ9UNGr6JrMbHOvtwDeRaWD051GqPvmwMnFCKnMxuC8g8NZflvdiiG1BrIZF4mNs9ENarSXiyq5dFMBlniXyX_CJjoL3Ny7MyksjtkeAifbQ0LowWizWp6qjSf05e6QdqdL-2Q_LUhGqBOz1ZxgzkUi_jDaCI4KIRebN4-58T4PYyhriytojj0BKoEMZiU9mdQPTWUPioUpnHFqpatZnVibhD6R1-IF2kLbhngX7QimS_U0c1AQ?fife https://doc-04-00-mymaps.googleusercontent.com/untrusted/hostedimage/tjp71pbl755n1d9knaupn39qao/r2brb0kcckr8veh102bj097ilg/1696731300000/JZE0f6HJRobklDdF9DDVtADt9cDcsdY3/*/6AJ9UNGrv__fv7CxK6oKGSE-Id1-8ZisgxQueqyqo6h-Cq4vy-vNSlIVxnzGCKEQ94qlv8BZ450GcCTGhrkY9W6_X9Bn4FPM5tMpX87YyznWcgeF2Ly1HyqMCVo1yBGnc7ncuWIvZTV0LzApyg0IM5Xxw6Sfe0G9dAhQNGUm8p2FgWscJkPU7-2KN7tlhWciZSbk8m-ENT3qrSc_DVhFiLxUP9ceGe3vkQLovfBqbiBzJzwkJRbg?fife https://doc-08-00-mymaps.googleusercontent.com/untrusted/hostedimage/tjp71pbl755n1d9knaupn39qao/io8mh82e6h3gfs13v6kb538ius/1696731300000/JZE0f6HJRobklDdF9DDVtADt9cDcsdY3/*/6AJ9UNGpJvIzAJ9YhRxek-d17oYg7rgXiCjb2qa3ZQhCuRkcXoKPlD6flghttVA9Ah_b5lNliTgKlGP9tvJmZDyKuXWajQa47xtqWd4RiaBAiL7FHzEHf1RtcaGD7y32hFbNDeqdEc57vMuNmJvttNErKEfv2G91O2eA93wkWDnBDUwdce9XCQo-0N6g7ljQS-uI8oubwx-c1MdzN6YGPof2rGBK8lFwgAyIKYy0iJh-b1TEgNCM?fife https://doc-10-00-mymaps.googleusercontent.com/untrusted/hostedimage/tjp71pbl755n1d9knaupn39qao/gap5hf7nvmt7tap2f117u5ts1g/1696731300000/JZE0f6HJRobklDdF9DDVtADt9cDcsdY3/*/6AJ9UNGoydwQA7T1QDy7dLZo9GvtnHvUqyMn_Ke_VikakwPwE--KKKTVrgGG2cy_WG39gcfgW1Secg-01u38zwWW58WMJOIBJmUspv91AH6NlQCDsveSg_nrpdNlPc9l26cL4Lvj_Hd4-iEVVMGLZiWltkE-NQiMb8LPb9UrOzfgEfSK9fOnPamllF0IDdX8yJ-apNEq5mIk1Hl2oIrpbRwTQnQb_HVqMBf00YZGkDc8vmGobz_c?fife,フードコート,6-8日,10:00-17:00,,,
かわだ温泉　ラポーゼかわだ,飲食・宿,images/icon-7.png,35.94784670000001,136.3001522,かわだ温泉　ラポーゼかわだ,"<img src=""https://doc-08-00-mymaps.googleusercontent.com/untrusted/hostedimage/tjp71pbl755n1d9knaupn39qao/rd3sc39ifg78367boj1po5st30/1696731300000/JZE0f6HJRobklDdF9DDVtADt9cDcsdY3/*/6AJ9UNGojiMKR1fIS4YXPrmtzJ2hJhiBxZxpmyyD4Zny-9G2B1YTEETBY96Ca-G3nztBSZ09buAYLD_s4aaYqUCmqS5kkVlwLhpXUPoGMWh0z1X-8ns-_mbIsSV_0Xly6ojj4byKtb9FMMGEG9vZWEL6SYR3IduNIfP8BALS5u7txT04Oc25h_KveNWnOUnzBO-Yx9v1yJo91fofB6Tyw3HWAdRz6I8q2IDraMqeTF1ums5-u_Pw?fife"" height=""200"" width=""auto"" /><br><br>住所: 〒916-1235 福井県鯖江市上河内町19-37-2<br>参加形態: 宿泊<br>紹介: お食事、ご入浴、ご宿泊、ご宴会やBBQ、会議・会合など、あらゆる用途にご利用頂ける滞在型アミューズメントパークです。河和田の豊かな自然に包まれたロケーションでおもてなしのひとときをお愉しみください。<br>出展日: 6-8日<br>営業時間: 11:00-22:00<br>電話番号: 0778-65-0012<br>Web: https://www.lapause.jp/<br>YouTube: ",〒916-1235 福井県鯖江市上河内町19-37-2,お食事、ご入浴、ご宿泊、ご宴会やBBQ、会議・会合など、あらゆる用途にご利用頂ける滞在型アミューズメントパークです。河和田の豊かな自然に包まれたロケーションでおもてなしのひとときをお愉しみください。,https://doc-08-00-mymaps.googleusercontent.com/untrusted/hostedimage/tjp71pbl755n1d9knaupn39qao/rd3sc39ifg78367boj1po5st30/1696731300000/JZE0f6HJRobklDdF9DDVtADt9cDcsdY3/*/6AJ9UNGojiMKR1fIS4YXPrmtzJ2hJhiBxZxpmyyD4Zny-9G2B1YTEETBY96Ca-G3nztBSZ09buAYLD_s4aaYqUCmqS5kkVlwLhpXUPoGMWh0z1X-8ns-_mbIsSV_0Xly6ojj4byKtb9FMMGEG9vZWEL6SYR3IduNIfP8BALS5u7txT04Oc25h_KveNWnOUnzBO-Yx9v1yJo91fofB6Tyw3HWAdRz6I8q2IDraMqeTF1ums5-u_Pw?fife,宿泊,6-8日,11:00-22:00,0778-65-0012,https://www.lapause.jp/,
田舎生活体験　古民家ざくろの宿,飲食・宿,images/icon-7.png,35.9475037,136.3042516,田舎生活体験　古民家ざくろの宿,"<img src=""https://doc-0g-00-mymaps.googleusercontent.com/untrusted/hostedimage/tjp71pbl755n1d9knaupn39qao/vsjt7bkirilvp48j29gg2f5q6s/1696731300000/JZE0f6HJRobklDdF9DDVtADt9cDcsdY3/*/6AJ9UNGqWQXj9-84gUsYhDAvOsopMbwvImhrd_oRZXBGjNPMMoC_Y8kPus5QNWpJHrmp8mQn4yMjkL1sLPUReFhysT2_OXmzNd8eSml1d_1UqV2JH61h1wVvqbNXFSnUyV-nfRe37uTKjQi2FEOoseDlwVC35TcLJc2gWp8PTD_haEIHOZrATuGDQ1G-K7wSWrEBm_aFtF1a_4VxhpS8_okWB_hBFP1eenBkViD3U7X8wQkzkglY?fife"" height=""200"" width=""auto"" /><br><br>住所: 〒916-1235 福井県鯖江市上河内町25-3<br>参加形態: 宿泊<br>紹介: 河和田にある自炊や田舎生活を楽しむ人向けの古民家です。旅館のサービスやタオルや浴衣、歯ブラシなどサービスはない素泊まり専用です。温泉施設ラポーセかわだまで徒歩２分、近くには赤岩の滝やホタルの里三場坂ファームがあります。田舎を満喫したい方ご利用お待ちしています。<br>出展日: 6-8日<br>営業時間: チェックイン16:00/チェックアウト14:00<br>電話番号: 090-6786-3988<br>Web: <br>YouTube: ",〒916-1235 福井県鯖江市上河内町25-3,河和田にある自炊や田舎生活を楽しむ人向けの古民家です。旅館のサービスやタオルや浴衣、歯ブラシなどサービスはない素泊まり専用です。温泉施設ラポーセかわだまで徒歩２分、近くには赤岩の滝やホタルの里三場坂ファームがあります。田舎を満喫したい方ご利用お待ちしています。,https://doc-0g-00-mymaps.googleusercontent.com/untrusted/hostedimage/tjp71pbl755n1d9knaupn39qao/vsjt7bkirilvp48j29gg2f5q6s/1696731300000/JZE0f6HJRobklDdF9DDVtADt9cDcsdY3/*/6AJ9UNGqWQXj9-84gUsYhDAvOsopMbwvImhrd_oRZXBGjNPMMoC_Y8kPus5QNWpJHrmp8mQn4yMjkL1sLPUReFhysT2_OXmzNd8eSml1d_1UqV2JH61h1wVvqbNXFSnUyV-nfRe37uTKjQi2FEOoseDlwVC35TcLJc2gWp8PTD_haEIHOZrATuGDQ1G-K7wSWrEBm_aFtF1a_4VxhpS8_okWB_hBFP1eenBkViD3U7X8wQkzkglY?fife,宿泊,6-8日,チェックイン16:00/チェックアウト14:00,090-6786-3988,,
かわだ尾花屋まちライブラリーWarashi café,飲食・宿,images/icon-7.png,35.951155,136.2742479,かわだ尾花屋まちライブラリーWarashi café,"<img src=""https://doc-0k-00-mymaps.googleusercontent.com/untrusted/hostedimage/tjp71pbl755n1d9knaupn39qao/b45a03phh6k7dsogc3u359ecvg/1696731300000/JZE0f6HJRobklDdF9DDVtADt9cDcsdY3/*/6AJ9UNGqoX36sNRUVikaJL71YmndJUEF_8Pz8iUnpiIcaJc5DmncwHdO7GGXLeoAo9VMB28rTtzB4Eqn1ZfW1G9j-d-BcbTUQp6HkGYniAyqzcEIdhwiCFfWwKqsL576fXddkYK7aYfRPzxgMV4iqUdIcTL1V1sYwVk4p3nRkiQlfLyHxI_RqO72bWaJWoH0YPRB73BU64s00Ci9Usl1Z4CMgQ_hCjia1am-lQbtCgCcLWkbEmpw?fife"" height=""200"" width=""auto"" /><br><br>住所: 〒916-1222 福井県鯖江市河和田町19-1-9<br>参加形態: 店舗<br>紹介: 築107年の古民家で、三代続く商家「尾花屋」。2015年の自力改装して私設図書館とイベントスペース「かわだ尾花屋まちライブラリーWarashicafé」として開放しています。<br>出展日: 6-8日<br>営業時間: 10:00-20:00<br>電話番号: 0778-65-0059<br>Web: <br>YouTube: ",〒916-1222 福井県鯖江市河和田町19-1-9,築107年の古民家で、三代続く商家「尾花屋」。2015年の自力改装して私設図書館とイベントスペース「かわだ尾花屋まちライブラリーWarashicafé」として開放しています。,https://doc-0k-00-mymaps.googleusercontent.com/untrusted/hostedimage/tjp71pbl755n1d9knaupn39qao/b45a03phh6k7dsogc3u359ecvg/1696731300000/JZE0f6HJRobklDdF9DDVtADt9cDcsdY3/*/6AJ9UNGqoX36sNRUVikaJL71YmndJUEF_8Pz8iUnpiIcaJc5DmncwHdO7GGXLeoAo9VMB28rTtzB4Eqn1ZfW1G9j-d-BcbTUQp6HkGYniAyqzcEIdhwiCFfWwKqsL576fXddkYK7aYfRPzxgMV4iqUdIcTL1V1sYwVk4p3nRkiQlfLyHxI_RqO72bWaJWoH0YPRB73BU64s00Ci9Usl1Z4CMgQ_hCjia1am-lQbtCgCcLWkbEmpw?fife,店舗,6-8日,10:00-20:00,0778-65-0059,,
SABAE MEGANE HOUSE,飲食・宿,images/icon-7.png,35.9497032,136.2580182,SABAE MEGANE HOUSE,"<img src=""https://doc-04-00-mymaps.googleusercontent.com/untrusted/hostedimage/tjp71pbl755n1d9knaupn39qao/000lf9heloods3ghh5alim9n9c/1696731300000/JZE0f6HJRobklDdF9DDVtADt9cDcsdY3/*/6AJ9UNGp_5U3-Ixp2uZ1hm_ueWB6K13kyItrPpgggnfwQ_uOlcp1SI-8wyNzdC195MAW-xz6AcgaFduXc4dWJBa17g3WJwEUNk0fZIyyiU-2EpcaQqVA5e1L8xuX2AG9cJ06rMtAQdCLmluIDIvQdKoO9sePBc6ZgToYq2_dagRgEQYe3VlaRNbDoMCjqCoUquUddlUWxIxbyhj32-2lo198zWk3e7eN-53SUn3FzGvlihBeutJk?fife"" height=""200"" width=""auto"" /><br><br>住所: 〒916-1225 福井県鯖江市別司町31−17<br>参加形態: 宿泊<br>紹介: 11LDKの古民家一棟貸し宿です。漆をあしらった内装に、鯖江の職人製めがねかけ放題。この土地ならではの宿泊が楽しめます！5名66,000円～14名まで宿泊可。詳しくはHPをご覧ください<br>出展日: 6-8日<br>営業時間: 16:00-10:00（宿泊の場合）<br>電話番号: 090-5685-1414<br>Web: https://sabae-megane-house.com/<br>YouTube: ",〒916-1225 福井県鯖江市別司町31−17,"11LDKの古民家一棟貸し宿です。漆をあしらった内装に、鯖江の職人製めがねかけ放題。この土地ならではの宿泊が楽しめます！5名66,000円～14名まで宿泊可。詳しくはHPをご覧ください",https://doc-04-00-mymaps.googleusercontent.com/untrusted/hostedimage/tjp71pbl755n1d9knaupn39qao/000lf9heloods3ghh5alim9n9c/1696731300000/JZE0f6HJRobklDdF9DDVtADt9cDcsdY3/*/6AJ9UNGp_5U3-Ixp2uZ1hm_ueWB6K13kyItrPpgggnfwQ_uOlcp1SI-8wyNzdC195MAW-xz6AcgaFduXc4dWJBa17g3WJwEUNk0fZIyyiU-2EpcaQqVA5e1L8xuX2AG9cJ06rMtAQdCLmluIDIvQdKoO9sePBc6ZgToYq2_dagRgEQYe3VlaRNbDoMCjqCoUquUddlUWxIxbyhj32-2lo198zWk3e7eN-53SUn3FzGvlihBeutJk?fife,宿泊,6-8日,16:00-10:00（宿泊の場合）,090-5685-1414,https://sabae-megane-house.com/,
こいさん食堂,飲食・宿,images/icon-7.png,35.9031187,136.1664082,こいさん食堂,"<img src=""https://doc-04-00-mymaps.googleusercontent.com/untrusted/hostedimage/tjp71pbl755n1d9knaupn39qao/ndtreovav0elvpf6b3389diu5g/1696731300000/JZE0f6HJRobklDdF9DDVtADt9cDcsdY3/*/6AJ9UNGrKYAjWo-RFOma-KafeE8tU-j2u68_9TpmP1fzcMc6WN11oeKUko9bvIOfBXqMVxtcBFdZ43q6vgWo1crUbr7tOZBd7Qkcj9PdM3DZCBZ-Ljl7RqORMn8BXk-GwR6h3SdqVH6aq2YV8jRvVTC1h3dcYNVHSQpyqHjvutAtFUmdI4rli-aSpE-NFLSaRUKRHPmN3AXSEh0LAR4EuyWWUOBGjJTeJ8nDk3uxIg61GvbJmKtk?fife"" height=""200"" width=""auto"" /><br><br>住所: 〒915-0074 福井県越前市蓬莱町３−３５<br><br>参加形態: 店舗<br>紹介: 福井の食材、福井で作られた器を使い、食事を通して福井を知れる玄関口となるようなお食事処です。JR武生駅前でお昼12時から夜まで、ランチは定食1000円で、カフェもディナーも営業しております。<br>出展日: 6・7日<br>営業時間: 12:00-23:00<br>電話番号: 0778-78-0645<br>Web: <br>YouTube: ",〒915-0074 福井県越前市蓬莱町３−３５,福井の食材、福井で作られた器を使い、食事を通して福井を知れる玄関口となるようなお食事処です。JR武生駅前でお昼12時から夜まで、ランチは定食1000円で、カフェもディナーも営業しております。,https://doc-04-00-mymaps.googleusercontent.com/untrusted/hostedimage/tjp71pbl755n1d9knaupn39qao/ndtreovav0elvpf6b3389diu5g/1696731300000/JZE0f6HJRobklDdF9DDVtADt9cDcsdY3/*/6AJ9UNGrKYAjWo-RFOma-KafeE8tU-j2u68_9TpmP1fzcMc6WN11oeKUko9bvIOfBXqMVxtcBFdZ43q6vgWo1crUbr7tOZBd7Qkcj9PdM3DZCBZ-Ljl7RqORMn8BXk-GwR6h3SdqVH6aq2YV8jRvVTC1h3dcYNVHSQpyqHjvutAtFUmdI4rli-aSpE-NFLSaRUKRHPmN3AXSEh0LAR4EuyWWUOBGjJTeJ8nDk3uxIg61GvbJmKtk?fife,店舗,6・7日,12:00-23:00,0778-78-0645,,
越前 そば処 二男坊,飲食・宿,images/icon-7.png,35.9848083,136.1743881,越前 そば処 二男坊,"<img src=""https://doc-08-00-mymaps.googleusercontent.com/untrusted/hostedimage/tjp71pbl755n1d9knaupn39qao/k1hrvjhislig7s0uv1v4d0i134/1696731300000/JZE0f6HJRobklDdF9DDVtADt9cDcsdY3/*/6AJ9UNGqvYkhh9dP_Hz1XiXl7ZTcPLSRP3qLh3ZRzD5sB_FCUqOY_rNP6sHfkvFk3l-2e3VopzX7dOjiJi4ptDemZDfFTs_5DBm9s42mpGi1qUvym-nB9o3-XPZFRtPRfEE0Ol9CgnwrbVEiRAkmFmKh6JrEW7lkBe4ac_nUu18Ika6N75WD6jj9O3JuwzCsUxAq55LenhBF_TXv5lu-10VxxMSyr7jJ1k7n50YxFk7tpw7m4V7Q?fife"" height=""200"" width=""auto"" /><br><br>住所: 〒916-0001 福井県鯖江市吉江町512<br>参加形態: 店舗<br>紹介: 地元の人が足しげく通うお蕎麦屋さん。名物のあげおろし蕎麦は、サクサクのお揚げが絶品！こだわりの出汁つゆともよく合います。石臼で引いた蕎麦をはじめ、豊富なメニューがお楽しみいただけます。<br>出展日: 6-8日<br>営業時間: 11:00-20:00（LO.19:00）<br>電話番号: 0778-51-4015<br>Web: <br>YouTube: ",〒916-0001 福井県鯖江市吉江町512,地元の人が足しげく通うお蕎麦屋さん。名物のあげおろし蕎麦は、サクサクのお揚げが絶品！こだわりの出汁つゆともよく合います。石臼で引いた蕎麦をはじめ、豊富なメニューがお楽しみいただけます。,https://doc-08-00-mymaps.googleusercontent.com/untrusted/hostedimage/tjp71pbl755n1d9knaupn39qao/k1hrvjhislig7s0uv1v4d0i134/1696731300000/JZE0f6HJRobklDdF9DDVtADt9cDcsdY3/*/6AJ9UNGqvYkhh9dP_Hz1XiXl7ZTcPLSRP3qLh3ZRzD5sB_FCUqOY_rNP6sHfkvFk3l-2e3VopzX7dOjiJi4ptDemZDfFTs_5DBm9s42mpGi1qUvym-nB9o3-XPZFRtPRfEE0Ol9CgnwrbVEiRAkmFmKh6JrEW7lkBe4ac_nUu18Ika6N75WD6jj9O3JuwzCsUxAq55LenhBF_TXv5lu-10VxxMSyr7jJ1k7n50YxFk7tpw7m4V7Q?fife,店舗,6-8日,11:00-20:00（LO.19:00）,0778-51-4015,,
みきのや,飲食・宿,images/icon-7.png,35.98590699999999,136.183112,みきのや,"<img src=""https://doc-08-00-mymaps.googleusercontent.com/untrusted/hostedimage/tjp71pbl755n1d9knaupn39qao/fu3gfu32p3h4u00jjps385lbt4/1696731300000/JZE0f6HJRobklDdF9DDVtADt9cDcsdY3/*/6AJ9UNGp678k5oGupy_kJ-Uah9C_Cj_ogk8oRWPnqtVjI8N61R8H3snTj_bNFodE3g_GijheCSuuOiI9tR6BncHsFHhy438mJkyjFfQ3geFpI1C6okV1hQ4WXkGV3UZmC9_9c7gplsQl1vA7FAbA_PtTBKXws-gq7TYGbnEoFnEFIPxtHqql56fNSN7ie8ITCfcR2VhZLyYVLtO5qgAapYZ5fyCnfJLjVfOQ7wSKGIsS57IUNT8k?fife"" height=""200"" width=""auto"" /><br><br>住所: 〒916-0012福井県鯖江市東米岡1-3-11<br>参加形態: 店舗<br>紹介: 当店は日本海の新鮮な海鮮料理と、旬の地酒を味わえる地元の居酒屋です。田舎のおばあちゃんの家を想像できる店内です。ゆっくりと福井を味わいながらおくつろぎください。<br>出展日: 6-8日<br>営業時間: 6・7日 17:00-23:00 8日 17:00-22:00<br>電話番号: 0778-52-4333<br>Web: https://www.mikinoya-sabae.com/<br>YouTube: ",〒916-0012福井県鯖江市東米岡1-3-11,当店は日本海の新鮮な海鮮料理と、旬の地酒を味わえる地元の居酒屋です。田舎のおばあちゃんの家を想像できる店内です。ゆっくりと福井を味わいながらおくつろぎください。,https://doc-08-00-mymaps.googleusercontent.com/untrusted/hostedimage/tjp71pbl755n1d9knaupn39qao/fu3gfu32p3h4u00jjps385lbt4/1696731300000/JZE0f6HJRobklDdF9DDVtADt9cDcsdY3/*/6AJ9UNGp678k5oGupy_kJ-Uah9C_Cj_ogk8oRWPnqtVjI8N61R8H3snTj_bNFodE3g_GijheCSuuOiI9tR6BncHsFHhy438mJkyjFfQ3geFpI1C6okV1hQ4WXkGV3UZmC9_9c7gplsQl1vA7FAbA_PtTBKXws-gq7TYGbnEoFnEFIPxtHqql56fNSN7ie8ITCfcR2VhZLyYVLtO5qgAapYZ5fyCnfJLjVfOQ7wSKGIsS57IUNT8k?fife,店舗,6-8日,6・7日 17:00-23:00 8日 17:00-22:00,0778-52-4333,https://www.mikinoya-sabae.com/,
久保田酒店 カモシBAR,飲食・宿,images/icon-7.png,35.943558,136.187761,久保田酒店 カモシBAR,"<img src=""https://doc-0k-00-mymaps.googleusercontent.com/untrusted/hostedimage/tjp71pbl755n1d9knaupn39qao/sqo83g4mql6sgm1h865jcr9158/1696731300000/JZE0f6HJRobklDdF9DDVtADt9cDcsdY3/*/6AJ9UNGr2mPr48FnPm7RPmqTnDSsSmKQ0Iksx7owYOZObGmPTq9P5YueF6DKm8Lgl_rvoFDbKr8J47PaG9W7X2Ga7orw9IopGm4sQ-cW727N4l6Vl4PGC_pAgrGKFAlfpf7mNwML9BK8SOEmrKmhIl3k6PPahrnX0rAv3tnav5P-ouLv46i-OftFmWE0fR0v1IsXslJeHJPZYqgei_vhNg57LauqKqQ-FKWSNUmQUwAtARfJs5PI?fife"" height=""200"" width=""auto"" /><br><br>住所: 〒916-0025 福井県鯖江市旭町1-1-4<br>参加形態: 店舗<br>紹介: 福井の美味しい地酒を販売しています。RENEWでは福井の地酒を越前の漆器や焼物などで楽しめるイベント「カモシBAR」を開催。お酒と器、人と人とが醸し出す一期一会の面白さを一緒に創りましょう！<br>出展日: 6-8日<br>営業時間: 9:00-19:00<br>電話番号: 0778-51-0252<br>Web: https://www.kubotasaketen.jp/<br>YouTube: ",〒916-0025 福井県鯖江市旭町1-1-4,福井の美味しい地酒を販売しています。RENEWでは福井の地酒を越前の漆器や焼物などで楽しめるイベント「カモシBAR」を開催。お酒と器、人と人とが醸し出す一期一会の面白さを一緒に創りましょう！,https://doc-0k-00-mymaps.googleusercontent.com/untrusted/hostedimage/tjp71pbl755n1d9knaupn39qao/sqo83g4mql6sgm1h865jcr9158/1696731300000/JZE0f6HJRobklDdF9DDVtADt9cDcsdY3/*/6AJ9UNGr2mPr48FnPm7RPmqTnDSsSmKQ0Iksx7owYOZObGmPTq9P5YueF6DKm8Lgl_rvoFDbKr8J47PaG9W7X2Ga7orw9IopGm4sQ-cW727N4l6Vl4PGC_pAgrGKFAlfpf7mNwML9BK8SOEmrKmhIl3k6PPahrnX0rAv3tnav5P-ouLv46i-OftFmWE0fR0v1IsXslJeHJPZYqgei_vhNg57LauqKqQ-FKWSNUmQUwAtARfJs5PI?fife,店舗,6-8日,9:00-19:00,0778-51-0252,https://www.kubotasaketen.jp/,
SLIM The Coffee Resort,飲食・宿,images/icon-7.png,35.9412246,136.1901493,SLIM The Coffee Resort,"<img src=""https://doc-0k-00-mymaps.googleusercontent.com/untrusted/hostedimage/tjp71pbl755n1d9knaupn39qao/min7cu07duhcuc890mv9vvap0c/1696731300000/JZE0f6HJRobklDdF9DDVtADt9cDcsdY3/*/6AJ9UNGqTY0I-YY0TWd2r_zNktNhGYecUpT-WyFiXy5SZ00eYw7KSQ8Ck39ZDlxYBAiOrhbiZ-IlSyXSjuWKh9kqRcAL-2JhRTosX_l8nCVW8d3uivBPI7UgNHxf5qsg-AUyP6Wse9yoeOY8ulCTA73RCp3EPBJo633jIci1lN7Ge-E1UfILQ8bhgIcnJyCU8pLbwkjjtaDuNc8F5ntXKK8cfuRSMD4ETylutRuqdL-IDTkVt2AQ?fife"" height=""200"" width=""auto"" /><br><br>住所: 鯖江市横江町1-701<br>参加形態: 店舗<br>紹介: こだわりの自家焙煎珈琲を使ったコーヒーやアレンジコーヒーが選択自由、お替り自由の新感覚カフェ。店内は植物を活かしたバイオフィリックデザイン。フードメニューやランチ・モーニングも充実。Wi-Fi完備。<br>出展日: 6-8日<br>営業時間: 9:00-20:30<br>電話番号: 0778-52-8906<br>Web: http://slim.velvet.jp/<br>YouTube: ",鯖江市横江町1-701,こだわりの自家焙煎珈琲を使ったコーヒーやアレンジコーヒーが選択自由、お替り自由の新感覚カフェ。店内は植物を活かしたバイオフィリックデザイン。フードメニューやランチ・モーニングも充実。Wi-Fi完備。,https://doc-0k-00-mymaps.googleusercontent.com/untrusted/hostedimage/tjp71pbl755n1d9knaupn39qao/min7cu07duhcuc890mv9vvap0c/1696731300000/JZE0f6HJRobklDdF9DDVtADt9cDcsdY3/*/6AJ9UNGqTY0I-YY0TWd2r_zNktNhGYecUpT-WyFiXy5SZ00eYw7KSQ8Ck39ZDlxYBAiOrhbiZ-IlSyXSjuWKh9kqRcAL-2JhRTosX_l8nCVW8d3uivBPI7UgNHxf5qsg-AUyP6Wse9yoeOY8ulCTA73RCp3EPBJo633jIci1lN7Ge-E1UfILQ8bhgIcnJyCU8pLbwkjjtaDuNc8F5ntXKK8cfuRSMD4ETylutRuqdL-IDTkVt2AQ?fife,店舗,6-8日,9:00-20:30,0778-52-8906,http://slim.velvet.jp/,
釜めし専門店　釜蔵,飲食・宿,images/icon-7.png,35.94774629999999,136.1930787,釜めし専門店　釜蔵,"<img src=""https://doc-0o-00-mymaps.googleusercontent.com/untrusted/hostedimage/tjp71pbl755n1d9knaupn39qao/1s08rjif99o74a18376a6boj80/1696731300000/JZE0f6HJRobklDdF9DDVtADt9cDcsdY3/*/6AJ9UNGrlSeDrEFFUYIrrtX74uHlr0dzj146DYY5Qu9qGOgxESOEn435PjcaJokcyZgZYXp1zyec33ZmYGAGBlg2SCdp_WnLWEWagub0RDHX7AgK-yQUU9S6xtJmF7o2ZV83FMEiVeIl1njIF9NjfbG3JIUSNH0g0jxJ31NLzFs-ZvqYfv6rAahem7EBK6bGeWxUKgFAf0LvV1vaacLukhaEPQejFqEarlXmveYR2mXzpnM6kfqQ?fife"" height=""200"" width=""auto"" /><br><br>住所: 〒916-0047 柳町４丁目５２１<br>参加形態: 店舗<br>紹介: 日本の伝統的な料理「釜めし」の専門店。北陸福井の旬の素材を活かした当店のだけの釜めしが楽しめます。刺身や天婦羅など和食全般のお料理を取り揃えております。福井名物ソースかつ丼やおろしそばもおすすめです。<br>出展日: 6-8日<br>営業時間: 11:00-15:00<br>電話番号: 0778-52-2846<br>Web: http://www.kamameshi.net/<br>YouTube: ",〒916-0047 柳町４丁目５２１,日本の伝統的な料理「釜めし」の専門店。北陸福井の旬の素材を活かした当店のだけの釜めしが楽しめます。刺身や天婦羅など和食全般のお料理を取り揃えております。福井名物ソースかつ丼やおろしそばもおすすめです。,https://doc-0o-00-mymaps.googleusercontent.com/untrusted/hostedimage/tjp71pbl755n1d9knaupn39qao/1s08rjif99o74a18376a6boj80/1696731300000/JZE0f6HJRobklDdF9DDVtADt9cDcsdY3/*/6AJ9UNGrlSeDrEFFUYIrrtX74uHlr0dzj146DYY5Qu9qGOgxESOEn435PjcaJokcyZgZYXp1zyec33ZmYGAGBlg2SCdp_WnLWEWagub0RDHX7AgK-yQUU9S6xtJmF7o2ZV83FMEiVeIl1njIF9NjfbG3JIUSNH0g0jxJ31NLzFs-ZvqYfv6rAahem7EBK6bGeWxUKgFAf0LvV1vaacLukhaEPQejFqEarlXmveYR2mXzpnM6kfqQ?fife,店舗,6-8日,11:00-15:00,0778-52-2846,http://www.kamameshi.net/,
珈琲、紅茶とそのうつわ　しろうるし,飲食・宿,images/icon-7.png,35.9167485,136.2447874,珈琲、紅茶とそのうつわ　しろうるし,"<img src=""https://doc-08-00-mymaps.googleusercontent.com/untrusted/hostedimage/tjp71pbl755n1d9knaupn39qao/97guppmcq0529efsdfavuqftas/1696731300000/JZE0f6HJRobklDdF9DDVtADt9cDcsdY3/*/6AJ9UNGqghzvmXlDbGKLVneXPrDUo1k1VgtVwMTqnlu9f5IE-DeFINGzAfR94tXpcGqNRiSTDHwNN9iCbyhQsQPsnwpOjo7Qq1_DjRZsjgV0LpSJQHo-y_oj5ESngbw98UjyIQJAEffu1tD5qyPeJIur3bmYCScuH6x9QeDQoXFw3KbpMmV0OcElaslNyfFWw0uiGEZ5q4KyggFzmJvKFLR4CWy_Ch3cyC-pGuQ_C5TJUlGy6ESI?fife"" height=""200"" width=""auto"" /><br><br>住所: 〒915-0242 福井県越前市粟田部町34-30<br>参加形態: 飲食<br>紹介: ポーランド陶器のマグと本漆のうつわを扱うテーブルひとつのちいさなカフェです。パピルス館から徒歩11分です。<br>出展日: 6-8日<br>営業時間: 10:00-16:00<br>電話番号: 0778-43-0351<br>Web: <br>YouTube: ",〒915-0242 福井県越前市粟田部町34-30,ポーランド陶器のマグと本漆のうつわを扱うテーブルひとつのちいさなカフェです。パピルス館から徒歩11分です。,https://doc-08-00-mymaps.googleusercontent.com/untrusted/hostedimage/tjp71pbl755n1d9knaupn39qao/97guppmcq0529efsdfavuqftas/1696731300000/JZE0f6HJRobklDdF9DDVtADt9cDcsdY3/*/6AJ9UNGqghzvmXlDbGKLVneXPrDUo1k1VgtVwMTqnlu9f5IE-DeFINGzAfR94tXpcGqNRiSTDHwNN9iCbyhQsQPsnwpOjo7Qq1_DjRZsjgV0LpSJQHo-y_oj5ESngbw98UjyIQJAEffu1tD5qyPeJIur3bmYCScuH6x9QeDQoXFw3KbpMmV0OcElaslNyfFWw0uiGEZ5q4KyggFzmJvKFLR4CWy_Ch3cyC-pGuQ_C5TJUlGy6ESI?fife,飲食,6-8日,10:00-16:00,0778-43-0351,,
椀椀,飲食・宿,images/icon-7.png,35.953299,136.273696,椀椀,"<img src=""https://doc-0g-00-mymaps.googleusercontent.com/untrusted/hostedimage/tjp71pbl755n1d9knaupn39qao/p4qvdf018qlnffuqree2o6sgos/1696731300000/JZE0f6HJRobklDdF9DDVtADt9cDcsdY3/*/6AJ9UNGrBEBiwaSj2OixI37cOcKzsdFh8Co5cFocPdf-cVzieTBSdVTw7vXpJnqs3AjhL5F2C96XpLgctol0ZSuVIeleVtQZFFR_ghrFB_SNU2LhnwsqttLFZ54b1GCiz9hIqGMY06sUDIjLtrOXsVAbQxuUs14yYh17rZN2xgEuctD6aGsAIA41tj1-cq_zql9aLEt60meXe4_-40ciw7PudVEGxYbllE4bUYcyH0bdllVj7NEM?fife"" height=""200"" width=""auto"" /><br><br>住所: 〒916-1221 福井県鯖江市西袋町40-1-2　うるしの里会館内<br>参加形態: 店舗<br>紹介: 河和田で採れた野菜を使った料理を楽しむことができます。食器はすべて河和田の漆器で提供されるため、工芸を楽しみながらお食事いただけるのも魅力のひとつ。満足できること間違いなしです。<br>出展日: 6-8日<br>営業時間: 10:00-16:00<br>電話番号: 0778-65-3456<br>Web: <br>YouTube: ",〒916-1221 福井県鯖江市西袋町40-1-2　うるしの里会館内,河和田で採れた野菜を使った料理を楽しむことができます。食器はすべて河和田の漆器で提供されるため、工芸を楽しみながらお食事いただけるのも魅力のひとつ。満足できること間違いなしです。,https://doc-0g-00-mymaps.googleusercontent.com/untrusted/hostedimage/tjp71pbl755n1d9knaupn39qao/p4qvdf018qlnffuqree2o6sgos/1696731300000/JZE0f6HJRobklDdF9DDVtADt9cDcsdY3/*/6AJ9UNGrBEBiwaSj2OixI37cOcKzsdFh8Co5cFocPdf-cVzieTBSdVTw7vXpJnqs3AjhL5F2C96XpLgctol0ZSuVIeleVtQZFFR_ghrFB_SNU2LhnwsqttLFZ54b1GCiz9hIqGMY06sUDIjLtrOXsVAbQxuUs14yYh17rZN2xgEuctD6aGsAIA41tj1-cq_zql9aLEt60meXe4_-40ciw7PudVEGxYbllE4bUYcyH0bdllVj7NEM?fife,店舗,6-8日,10:00-16:00,0778-65-3456,,
福音堂,飲食・宿,images/icon-7.png,35.951155,136.2740602,福音堂,"<img src=""https://doc-0g-00-mymaps.googleusercontent.com/untrusted/hostedimage/tjp71pbl755n1d9knaupn39qao/cuqku8nr5o0ia04u9gt6vdjcr0/1696731300000/JZE0f6HJRobklDdF9DDVtADt9cDcsdY3/*/6AJ9UNGpTvMXU26CKTGBglv30kQPtIZSdRqKVrHJpB65M5AS1ounR08tD2dowKpunKfLhHlSHWJBw9CGLavvDbEmkCUUozMY57Bqs2MgS0cpGs2cEXOVtLEUfHeUQuKTtAC-FKM_cQBKXH3A4QpTErQr9jZPHc4sy6DO3B_eIDFalvBTGD2SSOxn5bOcloYGOT4bp60oYzlxHlcTUjQaNs4mlF0R39LgoFh_XhfoEkEL70JIdWTI?fife"" height=""200"" width=""auto"" /><br><br>住所: 〒916-1222 福井県鯖江市河和田町19-1-9<br>参加形態: 店舗<br>紹介: 地元で営業90年。おすすめの赤飯・大福や、おわん・めがね・山うにもなか、まんじゅうの殿上乃華などを取り揃えています。地元の皆様に喜んでいただいている、和菓子店です。おみやげにぜひお立ち寄りください。<br>出展日: 6-8日<br>営業時間: 8:00-18:00<br>電話番号: 0778-65-0158<br>Web: <br>YouTube: ",〒916-1222 福井県鯖江市河和田町19-1-9,地元で営業90年。おすすめの赤飯・大福や、おわん・めがね・山うにもなか、まんじゅうの殿上乃華などを取り揃えています。地元の皆様に喜んでいただいている、和菓子店です。おみやげにぜひお立ち寄りください。,https://doc-0g-00-mymaps.googleusercontent.com/untrusted/hostedimage/tjp71pbl755n1d9knaupn39qao/cuqku8nr5o0ia04u9gt6vdjcr0/1696731300000/JZE0f6HJRobklDdF9DDVtADt9cDcsdY3/*/6AJ9UNGpTvMXU26CKTGBglv30kQPtIZSdRqKVrHJpB65M5AS1ounR08tD2dowKpunKfLhHlSHWJBw9CGLavvDbEmkCUUozMY57Bqs2MgS0cpGs2cEXOVtLEUfHeUQuKTtAC-FKM_cQBKXH3A4QpTErQr9jZPHc4sy6DO3B_eIDFalvBTGD2SSOxn5bOcloYGOT4bp60oYzlxHlcTUjQaNs4mlF0R39LgoFh_XhfoEkEL70JIdWTI?fife,店舗,6-8日,8:00-18:00,0778-65-0158,,
